{
"type": "FeatureCollection",
"name": "tasking_tin_tungsten_tantalum",
"crs": { "type": "name", "properties": { "name": "urn:ogc:def:crs:OGC:1.3:CRS84" } },
"features": [
{ "type": "Feature", "properties": { "group": "tin_tungsten_tantalum", "rank": 1, "prob": 0.99999988079071045, "strategy": "top_prob", "score": 0.99999988079071045, "lon": 29.58785395906694, "lat": -1.9875288669767694 }, "geometry": { "type": "Polygon", "coordinates": [ [ [ 29.605806273424623, -1.987566120126137 ], [ 29.605716205921727, -1.989336371178165 ], [ 29.605454109918512, -1.991089214893483 ], [ 29.605022509291754, -1.992807769437571 ], [ 29.604425560552823, -1.994475483221654 ], [ 29.603669012819843, -1.996076294340653 ], [ 29.602760152444144, -1.997594785292957 ], [ 29.601707732824231, -1.999016331490623 ], [ 29.600521890083982, -2.000327242128784 ], [ 29.599214045427786, -2.001514892056221 ], [ 29.597796795114146, -2.002567843376698 ], [ 29.596283789108561, -2.003475955609234 ], [ 29.59468959958593, -2.004230483345995 ], [ 29.593029580550219, -2.004824160467632 ], [ 29.591319719925178, -2.005251270104999 ], [ 29.589576485542036, -2.005507699674109 ], [ 29.58781666650896, -2.005590980455354 ], [ 29.586057211491426, -2.005500311336448 ], [ 29.584315065462164, -2.005236566492028 ], [ 29.582607006493848, -2.00480228692707 ], [ 29.580949484167046, -2.004201655967274 ], [ 29.579358461150026, -2.003440458933546 ], [ 29.577849259476213, -2.00252602739086 ], [ 29.576436412999488, -2.001467168509492 ], [ 29.575133527447608, -2.000274080220141 ], [ 29.573953149420838, -1.998958252981373 ], [ 29.572906645596078, -1.997532359105921 ], [ 29.57200409329856, -1.996010130712395 ], [ 29.57125418349348, -1.994406227478229 ], [ 29.570664137130059, -1.992736095467096 ], [ 29.570239635642171, -1.991015818390395 ], [ 29.569984766273055, -1.989261962734448 ], [ 29.569901982749204, -1.987491418244085 ], [ 29.569992081680688, -1.985721235297877 ], [ 29.570254194914032, -1.983968460739714 ], [ 29.570685797910301, -1.982249973746446 ], [ 29.571282734067076, -1.980582323310906 ], [ 29.572039254749747, -1.978981568903726 ], [ 29.572948074646526, -1.977463125847111 ], [ 29.574000441914482, -1.976041616888403 ], [ 29.575186222441591, -1.974730731401394 ], [ 29.576493997414275, -1.97354309357076 ], [ 29.577911173251952, -1.972490140827861 ], [ 29.57942410285116, -1.97158201370834 ], [ 29.581018216973277, -1.970827458192133 ], [ 29.582678164511936, -1.970233741466134 ], [ 29.584387960290968, -1.969806581921463 ], [ 29.586131138971147, -1.969550094060017 ], [ 29.587890913584939, -1.969466748841546 ], [ 29.589650337173879, -1.969557349854622 ], [ 29.591392465973023, -1.96982102554188 ], [ 29.593100522571831, -1.970255237556012 ], [ 29.594758057480803, -1.970855805167263 ], [ 29.596349107548143, -1.971616945489169 ], [ 29.597858349700882, -1.972531329136167 ], [ 29.59927124852959, -1.973590150778583 ], [ 29.600574196294613, -1.974783213916788 ], [ 29.601754644004895, -1.976099029058763 ], [ 29.602801222305626, -1.977524924356644 ], [ 29.603703851009506, -1.979047167637161 ], [ 29.604453836215093, -1.980651098650776 ], [ 29.605043954075558, -1.982321270266273 ], [ 29.605468520409438, -1.984041597250276 ], [ 29.605723445481502, -1.985795511198554 ], [ 29.605806273424623, -1.987566120126137 ] ] ] } },
{ "type": "Feature", "properties": { "group": "tin_tungsten_tantalum", "rank": 2, "prob": 0.99999982118606567, "strategy": "top_prob", "score": 0.99999982118606567, "lon": 30.238938668535312, "lat": -1.9757415976497816 }, "geometry": { "type": "Polygon", "coordinates": [ [ [ 30.256901901885996, -1.97577155090055 ], [ 30.256812493414827, -1.977542923554674 ], [ 30.256550945850517, -1.979296948553205 ], [ 30.256119777737258, -1.981016732859899 ], [ 30.255523141337211, -1.982685713203807 ], [ 30.254766782646861, -1.984287815623528 ], [ 30.253857986057874, -1.98580761029767 ], [ 30.25280550419529, -1.98723046016922 ], [ 30.251619473609313, -1.988542661931721 ], [ 30.250311317132951, -1.989731578018183 ], [ 30.248893633846897, -1.990785758321275 ], [ 30.247380077712194, -1.991695050471871 ], [ 30.245785226040812, -1.992450697613433 ], [ 30.244124439072074, -1.993045422730896 ], [ 30.242413712008737, -1.993473498721755 ], [ 30.240669520939083, -1.993730803534961 ], [ 30.238908664130189, -1.993814859847498 ], [ 30.237148100222196, -1.993724858896875 ], [ 30.235404784882956, -1.993461668241379 ], [ 30.23369550749711, -1.993027823374182 ], [ 30.232036729463129, -1.992427503273522 ], [ 30.230444425656078, -1.991666490125244 ], [ 30.228933930583185, -1.990752113607281 ], [ 30.227519790713597, -1.989693180273533 ], [ 30.226215624404272, -1.988499888718229 ], [ 30.225033990770275, -1.987183731339052 ], [ 30.22398626876145, -1.985757383645464 ], [ 30.223082547609014, -1.984234582178962 ], [ 30.222331529695794, -1.982629992221427 ], [ 30.221740446784178, -1.980959066565268 ], [ 30.221314990407134, -1.979237896705692 ], [ 30.221059257091223, -1.977483057887527 ], [ 30.220975708937715, -1.975711449498297 ], [ 30.221065149940159, -1.973940132343889 ], [ 30.221326718265406, -1.97218616437274 ], [ 30.221757894571439, -1.970466436429565 ], [ 30.222354526281247, -1.968797509619292 ], [ 30.223110867578587, -1.967195455846058 ], [ 30.224019634740209, -1.965675703061797 ], [ 30.225072076271928, -1.964252886713717 ], [ 30.226258057173457, -1.962940708819987 ], [ 30.227566156521117, -1.961751806030332 ], [ 30.228983777429637, -1.960697627941093 ], [ 30.230497268335117, -1.959788326836323 ], [ 30.232092054432311, -1.959032659916659 ], [ 30.233752778001865, -1.958437904957228 ], [ 30.235463446277418, -1.958009790207347 ], [ 30.237207585429879, -1.957752439207552 ], [ 30.238968399187321, -1.957668331055783 ], [ 30.240728930564035, -1.957758276506683 ], [ 30.242472225142336, -1.95802141013479 ], [ 30.244181494335415, -1.958455198638464 ], [ 30.245840277059646, -1.959055465205485 ], [ 30.247432598259707, -1.959816429707273 ], [ 30.248943122759986, -1.960730764335356 ], [ 30.250357302960442, -1.96178966414564 ], [ 30.251661518954222, -1.962982931832178 ], [ 30.252843209716929, -1.964299075914555 ], [ 30.253890994103283, -1.965725421394295 ], [ 30.254794780484939, -1.967248231814977 ], [ 30.255545863972348, -1.968852841550617 ], [ 30.25613701028314, -1.970523797048745 ], [ 30.256562525447951, -1.972245005667343 ], [ 30.256818310681041, -1.973999890672093 ], [ 30.256901901885996, -1.97577155090055 ] ] ] } },
{ "type": "Feature", "properties": { "group": "tin_tungsten_tantalum", "rank": 3, "prob": 0.99999946355819702, "strategy": "top_prob", "score": 0.99999946355819702, "lon": 29.988274218602939, "lat": -1.8828786767369252 }, "geometry": { "type": "Polygon", "coordinates": [ [ [ 30.006232501735791, -1.882909820518972 ], [ 30.006143000659488, -1.88468079843081 ], [ 30.005881408732403, -1.886434420911072 ], [ 30.005450244971268, -1.888153798736561 ], [ 30.004853661652326, -1.889822372495168 ], [ 30.004097404325371, -1.891424072095095 ], [ 30.003188756476398, -1.892943471559823 ], [ 30.002136469371873, -1.894365937616782 ], [ 30.000950677760702, -1.895677770647915 ], [ 29.999642802246402, -1.896866336643366 ], [ 29.998225439270684, -1.897920188887187 ], [ 29.996712239768943, -1.89882917820246 ], [ 29.995117777667708, -1.899584550693679 ], [ 29.993457409491821, -1.9001790320454 ], [ 29.991747126434795, -1.900606897565235 ], [ 29.990003400318631, -1.900864027297136 ], [ 29.988243024927804, -1.900947945675173 ], [ 29.986482954246892, -1.90085784533639 ], [ 29.98474013916077, -1.90059459486483 ], [ 29.983031364191028, -1.900160730393141 ], [ 29.981373085841607, -1.899560431144151 ], [ 29.979781274110849, -1.89879947914892 ], [ 29.978271258696477, -1.897885203530933 ], [ 29.976857581374425, -1.896826409893998 ], [ 29.975553855972738, -1.895633295494933 ], [ 29.974372637288329, -1.894317351019252 ], [ 29.97332530020805, -1.892891249906227 ], [ 29.972421930196941, -1.891368726289833 ], [ 29.971671226207, -1.889764442731547 ], [ 29.971080416940119, -1.888093849018401 ], [ 29.970655191269945, -1.886373033386302 ], [ 29.970399643491472, -1.884618567600634 ], [ 29.970316233923967, -1.882847347385463 ], [ 29.970405765245577, -1.881076429737212 ], [ 29.970667374786256, -1.879322868688262 ], [ 29.971098542852367, -1.877603551101039 ], [ 29.971695117002248, -1.87593503407273 ], [ 29.972451352038465, -1.874333385515022 ], [ 29.973359965331632, -1.872814029442907 ], [ 29.974412206943249, -1.871391597461403 ], [ 29.975597943872685, -1.870079787879066 ], [ 29.976905757617793, -1.868891233804628 ], [ 29.978323054110632, -1.867837381495916 ], [ 29.979836184970704, -1.866928380132343 ], [ 29.981430578909332, -1.866172984072427 ], [ 29.983090882021141, -1.865578468537339 ], [ 29.984801105612984, -1.865150559533117 ], [ 29.986544780148069, -1.86489337868689 ], [ 29.988305113824165, -1.864809403528882 ], [ 29.990065154259767, -1.864899443604072 ], [ 29.991807951732305, -1.865162632644313 ], [ 29.993516722397064, -1.86559643687773 ], [ 29.995175009915553, -1.866196679396418 ], [ 29.996766843937063, -1.86695758034943 ], [ 29.998276893907246, -1.867871812574805 ], [ 29.999690616722216, -1.868930572136289 ], [ 30.000994396805655, -1.870123663086564 ], [ 30.00217567725926, -1.87143959564124 ], [ 30.003223080822412, -1.872865696819162 ], [ 30.004126519475189, -1.874388232483861 ], [ 30.004877291627718, -1.875992539610849 ], [ 30.005468165958675, -1.877663167507362 ], [ 30.005893451094021, -1.879384026623847 ], [ 30.006149050453566, -1.881138543523836 ], [ 30.006232501735791, -1.882909820518972 ] ] ] } },
{ "type": "Feature", "properties": { "group": "tin_tungsten_tantalum", "rank": 4, "prob": 0.99999946355819702, "strategy": "top_prob", "score": 0.99999946355819702, "lon": 30.219472077463383, "lat": -1.2258572226205815 }, "geometry": { "type": "Polygon", "coordinates": [ [ [ 30.237428488932999, -1.225875941041369 ], [ 30.237340204896604, -1.227647351461042 ], [ 30.237079836821778, -1.229401521725087 ], [ 30.23664989209367, -1.231121557422941 ], [ 30.236054511377873, -1.232790892906175 ], [ 30.235299428741303, -1.234393450853969 ], [ 30.234391916421671, -1.235913797133589 ], [ 30.233340714777576, -1.237337289463372 ], [ 30.232155948094444, -1.238650218445855 ], [ 30.230849027057864, -1.23983993961164 ], [ 30.229432538834477, -1.240894995202181 ], [ 30.227920125820024, -1.241805224518084 ], [ 30.226326354223431, -1.242561861769903 ], [ 30.224666573753826, -1.243157620489504 ], [ 30.222956769762945, -1.243586763689017 ], [ 30.221213409268124, -1.24384515909231 ], [ 30.219453282339973, -1.24393031890799 ], [ 30.217693340383132, -1.243841423761405 ], [ 30.215950532868515, -1.243579330556491 ], [ 30.214241644090077, -1.243146564192699 ], [ 30.2125831315185, -1.242547293218125 ], [ 30.210990967308998, -1.241787289654192 ], [ 30.209480484489266, -1.240873873380341 ], [ 30.208066229308734, -1.239815841615191 ], [ 30.206761821170449, -1.23862338417417 ], [ 30.205579821493792, -1.237307985320878 ], [ 30.204531612769902, -1.23588231315764 ], [ 30.203627288973532, -1.234360097621011 ], [ 30.20287555838545, -1.232755998257556 ], [ 30.202283659759974, -1.231085463052776 ], [ 30.201857292643719, -1.229364579672834 ], [ 30.201600562515363, -1.227609920550896 ], [ 30.201515941273559, -1.225838383309303 ], [ 30.201604243452618, -1.224067028053577 ], [ 30.201864618394055, -1.222312913103927 ], [ 30.202294558448823, -1.220592930745216 ], [ 30.20288992313095, -1.21892364457608 ], [ 30.203644978989658, -1.217321130022227 ], [ 30.204552454816305, -1.215800819548786 ], [ 30.205603611654698, -1.214377354061405 ], [ 30.206788326941272, -1.213064441926013 ], [ 30.208095191965569, -1.211874726964581 ], [ 30.209511621713471, -1.210819666697225 ], [ 30.211023976036422, -1.209909422003067 ], [ 30.21261769098097, -1.20915275926253 ], [ 30.214277419015097, -1.208556965923265 ], [ 30.215987176802148, -1.208127780303554 ], [ 30.217730499100352, -1.207869336309718 ], [ 30.219490597306983, -1.207784123600455 ], [ 30.22125052112116, -1.207872963583088 ], [ 30.222993321769167, -1.208135001473599 ], [ 30.224702215220947, -1.208567714498244 ], [ 30.226360743826209, -1.209166936158717 ], [ 30.227952934813576, -1.209926896328709 ], [ 30.229463454126307, -1.210840276796384 ], [ 30.230877754112548, -1.211898281719135 ], [ 30.232182213647398, -1.213090722313071 ], [ 30.233364269336338, -1.214406114962016 ], [ 30.234412536535714, -1.215831791802076 ], [ 30.235316919023578, -1.217354022716964 ], [ 30.236068706263694, -1.21895814756914 ], [ 30.236660657324634, -1.220628717393585 ], [ 30.237087070644716, -1.222349643193721 ], [ 30.237343838969682, -1.224104350906199 ], [ 30.237428488932999, -1.225875941041369 ] ] ] } },
{ "type": "Feature", "properties": { "group": "tin_tungsten_tantalum", "rank": 5, "prob": 0.99999946355819702, "strategy": "top_prob", "score": 0.99999946355819702, "lon": 30.27869796190669, "lat": -1.8814617428673814 }, "geometry": { "type": "Polygon", "coordinates": [ [ [ 30.296660805417865, -1.881489855555514 ], [ 30.296571577865059, -1.883261297885917 ], [ 30.296310213313422, -1.885015409585358 ], [ 30.295879228566321, -1.886735296797034 ], [ 30.295282774137672, -1.888404395274863 ], [ 30.294526594284505, -1.890006629936511 ], [ 30.293617971684011, -1.891526569704004 ], [ 30.292565657287998, -1.89294957613956 ], [ 30.291379786030657, -1.894261944444408 ], [ 30.290071779201927, -1.895451035461491 ], [ 30.288654234427547, -1.896505397410432 ], [ 30.287140804316277, -1.897414876181743 ], [ 30.285546064944175, -1.898170713127635 ], [ 30.283885375443823, -1.898765629407908 ], [ 30.282174730052009, -1.899193896078522 ], [ 30.280430604042163, -1.899451389248235 ], [ 30.278669795026577, -1.899535629773062 ], [ 30.276909261158071, -1.899445807106568 ], [ 30.275165957790364, -1.899182787077673 ], [ 30.273456674171115, -1.898749103521907 ], [ 30.271797871741139, -1.898148933848092 ], [ 30.270205525597458, -1.897388058776622 ], [ 30.268694970647175, -1.896473806638691 ], [ 30.267280753933747, -1.895414982773799 ], [ 30.265976494557385, -1.89422178470645 ], [ 30.264794752538087, -1.892905703920161 ], [ 30.263746907883281, -1.891479415175135 ], [ 30.26284305102368, -1.889956654436176 ], [ 30.26209188567125, -1.888352086586931 ], [ 30.261500645033554, -1.886681164204107 ], [ 30.261075022189853, -1.884959978751924 ], [ 30.260819115298155, -1.883205105629214 ], [ 30.260735388159581, -1.881433444560866 ], [ 30.260824646518451, -1.879662056869975 ], [ 30.261086030325405, -1.877908001196668 ], [ 30.261517022037122, -1.876188169244695 ], [ 30.262113470872027, -1.874519123136542 ], [ 30.26286963278805, -1.872916935942003 ], [ 30.263778225797324, -1.871397036914919 ], [ 30.264830500085203, -1.86997406292744 ], [ 30.266016322258849, -1.868661717531376 ], [ 30.267324272914561, -1.867472639003414 ], [ 30.268741756585307, -1.866418278643978 ], [ 30.270255123010507, -1.865508790501471 ], [ 30.271849798561515, -1.864752933583816 ], [ 30.273510426558367, -1.86415798749871 ], [ 30.275221015127808, -1.863729682335583 ], [ 30.276965091180081, -1.863472143464916 ], [ 30.278725859022714, -1.863387851786961 ], [ 30.28048636208516, -1.863477619813938 ], [ 30.282229646197546, -1.863740583816693 ], [ 30.283938922852187, -1.864174212112751 ], [ 30.285597730875914, -1.864774329416887 ], [ 30.287190094956745, -1.865535157021246 ], [ 30.288700679498255, -1.866449368418768 ], [ 30.290114936319828, -1.867508159835585 ], [ 30.291419244779895, -1.868701334994155 ], [ 30.292601042972212, -1.870017403291331 ], [ 30.293648948730649, -1.871443690446859 ], [ 30.29455286927632, -1.872966460557018 ], [ 30.295304098449837, -1.874571048378032 ], [ 30.295895400591029, -1.876242000565689 ], [ 30.296321080257087, -1.877963224510385 ], [ 30.296577037106349, -1.879718143334044 ], [ 30.296660805417865, -1.881489855555514 ] ] ] } },
{ "type": "Feature", "properties": { "group": "tin_tungsten_tantalum", "rank": 6, "prob": 0.99999940395355225, "strategy": "top_prob", "score": 0.99999940395355225, "lon": 29.911012769200596, "lat": -1.6946543296468892 }, "geometry": { "type": "Polygon", "coordinates": [ [ [ 29.928967927045111, -1.694683081723149 ], [ 29.928878673342794, -1.69645394737 ], [ 29.92861735645161, -1.698207481595625 ], [ 29.928186492795707, -1.699926796013601 ], [ 29.927590231817224, -1.701595331815564 ], [ 29.926834316015476, -1.703197019274896 ], [ 29.925926025636919, -1.704716432538188 ], [ 29.924874108548707, -1.706138938212488 ], [ 29.923688695971709, -1.707450836316535 ], [ 29.922381204885369, -1.70863949223725 ], [ 29.920964228045069, -1.709693458420347 ], [ 29.919451412672625, -1.710602584622462 ], [ 29.917857328989232, -1.71135811566262 ], [ 29.916197329858566, -1.711952775732011 ], [ 29.91448740289308, -1.712380838450064 ], [ 29.912744016449302, -1.712638181992731 ], [ 29.910983960996617, -1.712722328763058 ], [ 29.909224187388482, -1.712632469222515 ], [ 29.907481643594711, -1.712369469655062 ], [ 29.905773111468047, -1.711935863790169 ], [ 29.904115045117646, -1.711335828367034 ], [ 29.902523412446353, -1.710575142876292 ], [ 29.901013541377932, -1.70966113386865 ], [ 29.899599972254876, -1.708602604367811 ], [ 29.898296317827775, -1.707409749068482 ], [ 29.897115132183835, -1.706094056137446 ], [ 29.896067789875762, -1.704668196563773 ], [ 29.895164376413842, -1.703145902124438 ], [ 29.894413591174501, -1.701541833140991 ], [ 29.893822663658874, -1.699871437300458 ], [ 29.893397283906388, -1.698150800900158 ], [ 29.893141547732018, -1.696396493948253 ], [ 29.893057917313261, -1.694625410611068 ], [ 29.89314719750509, -1.692854606542844 ], [ 29.893408528110069, -1.691101134663193 ], [ 29.893839392177004, -1.689381880962622 ], [ 29.894435640247977, -1.687713401916158 ], [ 29.895191530319686, -1.686111765069336 ], [ 29.896099783134481, -1.684592394330555 ], [ 29.897151652268757, -1.683169921458573 ], [ 29.898337008344477, -1.681858045174078 ], [ 29.899644436553523, -1.680669399251634 ], [ 29.90106134655684, -1.6796154308613 ], [ 29.902574093701137, -1.678706290331261 ], [ 29.904168110387172, -1.677950733393107 ], [ 29.905828046325944, -1.677356036850892 ], [ 29.907537916333435, -1.676927928486818 ], [ 29.909281254241975, -1.676670531879085 ], [ 29.91104127144737, -1.676586326663906 ], [ 29.912801018565975, -1.676676124625814 ], [ 29.914543548645966, -1.676939061847285 ], [ 29.916252080361598, -1.677372606994769 ], [ 29.917910159619524, -1.677972585662401 ], [ 29.919501818020855, -1.678733220540633 ], [ 29.921011726653052, -1.679647187023767 ], [ 29.922425343730062, -1.680705683722291 ], [ 29.923729054658445, -1.681898517202075 ], [ 29.924910303179679, -1.683214200134846 ], [ 29.925957712324731, -1.684640061915763 ], [ 29.926861194014798, -1.686162370683028 ], [ 29.927612046251486, -1.687766465564474 ], [ 29.928203036958994, -1.689436897877832 ], [ 29.928628473669466, -1.691157579924151 ], [ 29.92888425837906, -1.692911939941118 ], [ 29.928967927045111, -1.694683081723149 ] ] ] } },
{ "type": "Feature", "properties": { "group": "tin_tungsten_tantalum", "rank": 7, "prob": 0.99999922513961792, "strategy": "top_prob", "score": 0.99999922513961792, "lon": 30.149640045291445, "lat": -1.2938244458685393 }, "geometry": { "type": "Polygon", "coordinates": [ [ [ 30.167595842018113, -1.293844699329196 ], [ 30.16750741167429, -1.295615995230295 ], [ 30.167246904504989, -1.297370037305363 ], [ 30.166816829222672, -1.299089932356957 ], [ 30.166221327742917, -1.300759116069539 ], [ 30.165466135293588, -1.302361512562951 ], [ 30.164558525173177, -1.303881689239824 ], [ 30.163507238690546, -1.305305005434531 ], [ 30.162322400961433, -1.306617753431404 ], [ 30.161015423373232, -1.307807290492977 ], [ 30.159598893658497, -1.308862160626508 ], [ 30.158086454636681, -1.309772204915549 ], [ 30.156492672793238, -1.310528659353701 ], [ 30.154832897962955, -1.311124239238754 ], [ 30.153123115470123, -1.31155320931443 ], [ 30.151379792150777, -1.31181143898482 ], [ 30.149619717741103, -1.31189644207071 ], [ 30.147859843160493, -1.311807400725438 ], [ 30.14611711724773, -1.31154517328131 ], [ 30.14440832352313, -1.311112285951982 ], [ 30.142749918549274, -1.310512908472123 ], [ 30.141157873447224, -1.309752813909827 ], [ 30.139647520094389, -1.308839323040426 ], [ 30.138233403484957, -1.307781233818266 ], [ 30.136929141674198, -1.306588736626594 ], [ 30.135747294654681, -1.305273316122888 ], [ 30.134699243426088, -1.303847640625195 ], [ 30.133795080422285, -1.302325440105289 ], [ 30.133043512349467, -1.300721373963977 ], [ 30.132451776369848, -1.299050889861486 ], [ 30.13202557043682, -1.297330074962521 ], [ 30.131768998451051, -1.295575501027794 ], [ 30.131684530764616, -1.293804064843167 ], [ 30.13177298041245, -1.292032825522337 ], [ 30.13203349529913, -1.290278840248603 ], [ 30.132463566415634, -1.288559000036571 ], [ 30.13305905200647, -1.286889867094321 ], [ 30.133814217454372, -1.285287515350937 ], [ 30.134721790498503, -1.283767375684069 ], [ 30.135773031254807, -1.282344087337071 ], [ 30.136957816364806, -1.281031356955438 ], [ 30.138264736463213, -1.279841826599694 ], [ 30.139681206026772, -1.278786952004877 ], [ 30.141193584547619, -1.27787689225888 ], [ 30.142787307865305, -1.277120411962104 ], [ 30.144447028394165, -1.276524796810492 ], [ 30.146156762896673, -1.276095783415594 ], [ 30.147900046381043, -1.275837504038056 ], [ 30.149660090641927, -1.275752446767306 ], [ 30.151419945918526, -1.275841431532304 ], [ 30.153162664113903, -1.276103602175091 ], [ 30.154871462004326, -1.276536434664853 ], [ 30.156529882867112, -1.277135761374377 ], [ 30.158121954970596, -1.277895811186645 ], [ 30.159632345399721, -1.278809265046043 ], [ 30.161046507735488, -1.279867326420498 ], [ 30.162350822165369, -1.281059805996936 ], [ 30.163532726674685, -1.28237521979482 ], [ 30.164580838054448, -1.283800899753805 ], [ 30.16548506155922, -1.285323115730672 ], [ 30.166236688157788, -1.28692720773061 ], [ 30.16682847843882, -1.288597727099661 ], [ 30.167254732362156, -1.290318585317844 ], [ 30.167511344182898, -1.292073208959717 ], [ 30.167595842018113, -1.293844699329196 ] ] ] } },
{ "type": "Feature", "properties": { "group": "tin_tungsten_tantalum", "rank": 8, "prob": 0.99999922513961792, "strategy": "top_prob", "score": 0.99999922513961792, "lon": 29.589742274134306, "lat": -1.9859071940963842 }, "geometry": { "type": "Polygon", "coordinates": [ [ [ 29.607694606394428, -1.985944396232629 ], [ 29.607604543772354, -1.987714651047845 ], [ 29.607342452433638, -1.989467498981227 ], [ 29.606910856210416, -1.991186058158201 ], [ 29.606313911571764, -1.992853776945946 ], [ 29.605557367596358, -1.99445459339174 ], [ 29.604648510599187, -1.995973089943174 ], [ 29.603596093945971, -1.997394641958826 ], [ 29.602410253731641, -1.998705558578157 ], [ 29.601102411135777, -1.999893214592615 ], [ 29.599685162396462, -2.000946172047506 ], [ 29.59817215746342, -2.001854290402826 ], [ 29.596577968500515, -2.002608824191717 ], [ 29.594917949505646, -2.003202507236375 ], [ 29.593208088401493, -2.003629622610343 ], [ 29.591464853023258, -2.003886057674021 ], [ 29.589705032488101, -2.003969343654442 ], [ 29.587945575475484, -2.003878679388746 ], [ 29.586203426976944, -2.003614939004281 ], [ 29.584495365088681, -2.003180663462504 ], [ 29.582837839419238, -2.002580036049797 ], [ 29.581246812669058, -2.001818842052364 ], [ 29.579737606907656, -2.000904413005431 ], [ 29.578324756028522, -1.9998455560548 ], [ 29.577021865802205, -1.998652469112214 ], [ 29.575841482874466, -1.997336642623002 ], [ 29.574794973969968, -1.995910748892514 ], [ 29.573892416463504, -1.994388520037911 ], [ 29.573142501371105, -1.992784615741124 ], [ 29.572552449693607, -1.991114482076228 ], [ 29.572127942916744, -1.989394202770821 ], [ 29.571873068335336, -1.987640344333053 ], [ 29.571790279726638, -1.985869796534987 ], [ 29.571880373750197, -1.984099609787555 ], [ 29.57214248230018, -1.982346830971801 ], [ 29.57257408088303, -1.980628339306149 ], [ 29.573171012938985, -1.978960683828996 ], [ 29.573927529872929, -1.977359924060075 ], [ 29.57483634640905, -1.975841475373733 ], [ 29.575888710736525, -1.974419960571965 ], [ 29.57707448877127, -1.973109069085201 ], [ 29.578382261723227, -1.971921425156161 ], [ 29.579799436030701, -1.970868466275103 ], [ 29.581312364604333, -1.969960333036838 ], [ 29.58290647821471, -1.969205771480166 ], [ 29.584566425759693, -1.968612048849993 ], [ 29.586276222062377, -1.968184883594022 ], [ 29.588019401777846, -1.967928390268794 ], [ 29.589779177928023, -1.967845039886231 ], [ 29.59153860353916, -1.967935636084134 ], [ 29.593280734826426, -1.968199307350964 ], [ 29.594988794355064, -1.968633515381413 ], [ 29.596646332607218, -1.969234079483524 ], [ 29.598237386398868, -1.969995216804084 ], [ 29.599746632621336, -1.970909597985926 ], [ 29.60115953582622, -1.971968417722678 ], [ 29.602462488232135, -1.973161479532703 ], [ 29.603642940803784, -1.974477293936507 ], [ 29.60468952414012, -1.975903189093169 ], [ 29.60559215800599, -1.977425432830723 ], [ 29.606342148450906, -1.979029364895294 ], [ 29.606932271578273, -1.980699538145708 ], [ 29.607356843156598, -1.982419867333114 ], [ 29.607611773400766, -1.984173784032427 ], [ 29.607694606394428, -1.985944396232629 ] ] ] } },
{ "type": "Feature", "properties": { "group": "tin_tungsten_tantalum", "rank": 9, "prob": 0.99999922513961792, "strategy": "top_prob", "score": 0.99999922513961792, "lon": 29.989351707192181, "lat": -1.8828805505970589 }, "geometry": { "type": "Polygon", "coordinates": [ [ [ 30.007310008175892, -1.882911683244453 ], [ 30.00722050809911, -1.884682662963314 ], [ 30.006958916991508, -1.886436287340737 ], [ 30.006527753861839, -1.888155667135546 ], [ 30.005931170980109, -1.889824242916926 ], [ 30.005174913891718, -1.891425944573834 ], [ 30.004266266080137, -1.892945346110129 ], [ 30.003213978811193, -1.894367814233435 ], [ 30.002028186835091, -1.895679649305877 ], [ 30.000720310758563, -1.89686821729797 ], [ 29.999302947028436, -1.897922071474508 ], [ 29.997789746587085, -1.898831062639866 ], [ 29.996195283369826, -1.899586436880578 ], [ 29.994534913912005, -1.900180919864161 ], [ 29.992824629419317, -1.900608786882275 ], [ 29.991080901727429, -1.900865917964174 ], [ 29.989320524635918, -1.900949837530641 ], [ 29.987560452145708, -1.900859738206972 ], [ 29.985817635159126, -1.900596488567134 ], [ 29.984108858216164, -1.900162624735477 ], [ 29.982450577839909, -1.899562325928399 ], [ 29.980858764048413, -1.898801374172474 ], [ 29.979348746559474, -1.897887098588691 ], [ 29.977935067169277, -1.896828304780387 ], [ 29.976631339726069, -1.895635190005946 ], [ 29.975450119046723, -1.894319244954469 ], [ 29.974402780037607, -1.892893143070804 ], [ 29.973499408182615, -1.891370618496437 ], [ 29.972748702451785, -1.889766333802216 ], [ 29.972157891563977, -1.888095738786304 ], [ 29.971732664408659, -1.88637492169739 ], [ 29.971477115295254, -1.884620454315155 ], [ 29.971393704555975, -1.882849232379328 ], [ 29.971483234880285, -1.881078312903206 ], [ 29.971744843607702, -1.879324749937072 ], [ 29.972176011052348, -1.877605430362103 ], [ 29.972772584778379, -1.875936911294898 ], [ 29.973528819592264, -1.874335260667009 ], [ 29.97443743286652, -1.872815902513556 ], [ 29.975489674662565, -1.87139346845974 ], [ 29.976675411977698, -1.870081656834162 ], [ 29.977983226305774, -1.86889310076526 ], [ 29.979400523572924, -1.867839246530038 ], [ 29.980913655390914, -1.866930243326371 ], [ 29.982508050461579, -1.866174845530354 ], [ 29.984168354868409, -1.865580328379688 ], [ 29.985878579905584, -1.865152417895732 ], [ 29.987622256022277, -1.8648952357196 ], [ 29.989382591400922, -1.864811259394034 ], [ 29.991142633643594, -1.864901298474958 ], [ 29.992885433010365, -1.8651644867035 ], [ 29.994594205638357, -1.865598290315311 ], [ 29.996252495170317, -1.86619853240821 ], [ 29.997844331236333, -1.866959433135116 ], [ 29.99935438326261, -1.867873665336059 ], [ 30.000768108125712, -1.868932425074876 ], [ 30.002071890229903, -1.870125516402457 ], [ 30.003253172657701, -1.871441449530751 ], [ 30.004300578129783, -1.872867551473109 ], [ 30.005204018608136, -1.87439008808579 ], [ 30.005954792485557, -1.875994396335319 ], [ 30.006545668424348, -1.877665025518315 ], [ 30.006970955035168, -1.879385886073071 ], [ 30.007226555723754, -1.881140404549534 ], [ 30.007310008175892, -1.882911683244453 ] ] ] } },
{ "type": "Feature", "properties": { "group": "tin_tungsten_tantalum", "rank": 10, "prob": 0.99999916553497314, "strategy": "top_prob", "score": 0.99999916553497314, "lon": 30.257499768973688, "lat": -1.9944787157372472 }, "geometry": { "type": "Polygon", "coordinates": [ [ [ 30.275463485255361, -1.994508749147666 ], [ 30.275374066719078, -1.996280148607676 ], [ 30.275112504556226, -1.998034199395456 ], [ 30.274681317445104, -1.999754008230623 ], [ 30.274084657823778, -2.001423011609375 ], [ 30.273328271905076, -2.003025135350851 ], [ 30.272419444335579, -2.004544949429624 ], [ 30.271366928031693, -2.005967816601981 ], [ 30.270180859868862, -2.00728003339389 ], [ 30.268872663036348, -2.008468962091562 ], [ 30.267454936998885, -2.00952315246314 ], [ 30.265941336125834, -2.010432452038554 ], [ 30.264346438157943, -2.01118810388504 ], [ 30.262685603779747, -2.011782830936933 ], [ 30.260974828651364, -2.012210906067443 ], [ 30.259230589326144, -2.01246820722801 ], [ 30.257469684539409, -2.012552257125073 ], [ 30.255709073398066, -2.012462247052504 ], [ 30.253965712030553, -2.012199044651517 ], [ 30.252256390271278, -2.011765185524177 ], [ 30.250597569953097, -2.011164848782689 ], [ 30.249005226365615, -2.010403816770777 ], [ 30.247494694406441, -2.009489419346736 ], [ 30.246080520906975, -2.008430463265627 ], [ 30.244776324554486, -2.007237147341712 ], [ 30.243594664759001, -2.005920964209408 ], [ 30.242546920726923, -2.004494589629272 ], [ 30.241643181904966, -2.002971760405708 ], [ 30.240892150848193, -2.001367142092635 ], [ 30.240301059446228, -1.999696187760828 ], [ 30.239875599313041, -1.997974989187312 ], [ 30.239619867009164, -1.996220121899241 ], [ 30.239536324622605, -1.994448485564042 ], [ 30.23962577608668, -1.992677141262159 ], [ 30.239887359461779, -1.990923147208393 ], [ 30.240318555254444, -1.989203394502871 ], [ 30.240915210692972, -1.987534444492365 ], [ 30.241671579725281, -1.985932369306824 ], [ 30.242580378353729, -1.984412597105698 ], [ 30.243632854774084, -1.982989763523365 ], [ 30.24481887364362, -1.981677570743013 ], [ 30.246127013667383, -1.980488655555677 ], [ 30.247544677563759, -1.979434467674021 ], [ 30.249058213351439, -1.978525159472426 ], [ 30.250653045790873, -1.977769488215159 ], [ 30.252313816715745, -1.977174731713827 ], [ 30.254024532904413, -1.976746618226947 ], [ 30.255768720068545, -1.976489271277092 ], [ 30.257529581477346, -1.976405169917479 ], [ 30.259290159690902, -1.976495124831916 ], [ 30.261033499846171, -1.976758270498882 ], [ 30.262742812923904, -1.97719207349657 ], [ 30.264401637424893, -1.97779235686981 ], [ 30.265993997898772, -1.978553340325785 ], [ 30.267504558799008, -1.97946769587218 ], [ 30.268918772182008, -1.980526618363267 ], [ 30.270223017827803, -1.981719910275632 ], [ 30.27140473443205, -1.983036079897606 ], [ 30.272452540605215, -1.984462451987827 ], [ 30.273356344512539, -1.985985289837576 ], [ 30.274107441097758, -1.987589927561435 ], [ 30.274698595953037, -1.989260911342682 ], [ 30.275124115025932, -1.990982148272568 ], [ 30.275379899490886, -1.992737061349923 ], [ 30.275463485255361, -1.994508749147666 ] ] ] } },
{ "type": "Feature", "properties": { "group": "tin_tungsten_tantalum", "rank": 11, "prob": 0.49999776482582092, "strategy": "margin", "score": -2.2351741790771484e-06, "lon": 30.092383942165917, "lat": -2.1167148199840495 }, "geometry": { "type": "Polygon", "coordinates": [ [ [ 30.110346461298992, -2.116748616930053 ], [ 30.110256682084422, -2.118519743577218 ], [ 30.109994773980919, -2.120273487940972 ], [ 30.109563258979666, -2.121992959642851 ], [ 30.108966292668732, -2.123661598377223 ], [ 30.108209624217935, -2.125263333428721 ], [ 30.107300541009295, -2.12678273847313 ], [ 30.106247798446184, -2.128205180169647 ], [ 30.105061535617612, -2.129516959112653 ], [ 30.103753177630374, -2.130705441784221 ], [ 30.102335325550598, -2.131759182236186 ], [ 30.100821635015567, -2.132668032329208 ], [ 30.09922668468619, -2.133423239466668 ], [ 30.097565835808371, -2.134017530882415 ], [ 30.095855084237201, -2.134445183670497 ], [ 30.094110906350611, -2.134702079882885 ], [ 30.092350100337789, -2.134785746165479 ], [ 30.090589624392347, -2.134695377551085 ], [ 30.088846433369593, -2.134431845181601 ], [ 30.087137315482096, -2.133997687885979 ], [ 30.085478730607093, -2.133397087696548 ], [ 30.083886651763308, -2.132635829540408 ], [ 30.082376411284216, -2.131721245495827 ], [ 30.080962553169091, -2.130662144151426 ], [ 30.079658693033313, -2.129468725749574 ], [ 30.078477387006142, -2.128152483932474 ], [ 30.077430010837649, -2.126726095037619 ], [ 30.076526650377744, -2.125203296009516 ], [ 30.075776004480996, -2.123598752103897 ], [ 30.07518530127065, -2.121927915658232 ], [ 30.074760228566834, -2.120206877288818 ], [ 30.074504879147518, -2.11845221094682 ], [ 30.074421711367744, -2.116680814324858 ], [ 30.07451152551522, -2.114909746150298 ], [ 30.074773456128632, -2.113156061930962 ], [ 30.075204980351742, -2.111436649733998 ], [ 30.075801942242116, -2.109768067578299 ], [ 30.076558592799792, -2.108166384004946 ], [ 30.077467645330373, -2.106647023359876 ], [ 30.078520345609441, -2.105224617277651 ], [ 30.07970655617293, -2.10391286379525 ], [ 30.081014853922561, -2.102724395452169 ], [ 30.082432640107104, -2.101670657645932 ], [ 30.083946261621595, -2.100761798414206 ], [ 30.085541142457533, -2.100006570704807 ], [ 30.087201924039629, -2.099412248074449 ], [ 30.08891261309892, -2.098984554628649 ], [ 30.090656735659774, -2.098727609877886 ], [ 30.092417495659131, -2.098643889041564 ], [ 30.094177936671663, -2.098734199183346 ], [ 30.095921105184505, -2.098997671408405 ], [ 30.097630213850138, -2.099431769199105 ], [ 30.099288803145718, -2.10003231280986 ], [ 30.100880899882636, -2.100793519487853 ], [ 30.102391171039784, -2.101708059133099 ], [ 30.103805071438966, -2.102767124863211 ], [ 30.105108983839845, -2.10396051780446 ], [ 30.106290350104622, -2.105276745293082 ], [ 30.107337792168352, -2.106703131542215 ], [ 30.1082412216488, -2.108225939709029 ], [ 30.108991937038969, -2.109830504186592 ], [ 30.10958270754503, -2.111501371846867 ], [ 30.110007842760716, -2.113222450874 ], [ 30.11026324750576, -2.114977165754369 ], [ 30.110346461298992, -2.116748616930053 ] ] ] } },
{ "type": "Feature", "properties": { "group": "tin_tungsten_tantalum", "rank": 12, "prob": 0.50000345706939697, "strategy": "margin", "score": -3.4570693969726562e-06, "lon": 30.461905567817947, "lat": -1.7049504581163117 }, "geometry": { "type": "Polygon", "coordinates": [ [ [ 30.479869337116522, -1.704974214547728 ], [ 30.479780528987725, -1.706745941407853 ], [ 30.479519571210552, -1.708500376824698 ], [ 30.479088976702542, -1.710220623880041 ], [ 30.478492892238094, -1.71189011491892 ], [ 30.477737058516286, -1.713492771133322 ], [ 30.476828754871999, -1.715013157436559 ], [ 30.47577672916292, -1.716436631135736 ], [ 30.474591113507966, -1.717749482969827 ], [ 30.473283326689096, -1.718939069153884 ], [ 30.47186596415731, -1.719993933157478 ], [ 30.470352676702955, -1.720903916043931 ], [ 30.468758038959962, -1.721660254307309 ], [ 30.467097409011568, -1.722255664265235 ], [ 30.46538678045081, -1.72268441219462 ], [ 30.463642628321896, -1.722942369535299 ], [ 30.461881750427192, -1.72302705263074 ], [ 30.460121105529389, -1.722937646623443 ], [ 30.45837765000811, -1.722675013276131 ], [ 30.456668174544713, -1.722241682644222 ], [ 30.455009142408894, -1.72164182868108 ], [ 30.453416530904878, -1.720881229011742 ], [ 30.451905677504211, -1.719967209264069 ], [ 30.450491132146986, -1.718908572494247 ], [ 30.449186517133505, -1.717715514387214 ], [ 30.448004395955138, -1.716399525049839 ], [ 30.446956152326738, -1.714973278342951 ], [ 30.446051880584658, -1.713450509818638 ], [ 30.445300288504672, -1.711845884438762 ], [ 30.444708613474546, -1.710174855348302 ], [ 30.44428255282719, -1.708453515063785 ], [ 30.444026209004043, -1.706698440509303 ], [ 30.44394205007556, -1.704926533391957 ], [ 30.444030885997883, -1.703154857453293 ], [ 30.444291860833335, -1.701400474162954 ], [ 30.44472246100883, -1.69968027843597 ], [ 30.44531853953217, -1.698010835954783 ], [ 30.446074355932598, -1.696408223661362 ], [ 30.44698263154088, -1.694887874954536 ], [ 30.448034619576728, -1.69346443108239 ], [ 30.449220189369001, -1.692151600159715 ], [ 30.450527923898203, -1.690962025167845 ], [ 30.451945229722796, -1.689907162207098 ], [ 30.453458458231673, -1.688997170174076 ], [ 30.455053037056128, -1.688240812926211 ], [ 30.45671361037715, -1.687645374875442 ], [ 30.458424186777837, -1.687216590824451 ], [ 30.460168293218484, -1.686958590721535 ], [ 30.461929133652493, -1.686873859866556 ], [ 30.46368975075676, -1.686963214952387 ], [ 30.465433189219763, -1.687225796173186 ], [ 30.467142659015686, -1.687659075476732 ], [ 30.468801697092612, -1.688258880882178 ], [ 30.470394325918015, -1.689019436630534 ], [ 30.471905207354698, -1.689933418781798 ], [ 30.473319790385165, -1.690992025724592 ], [ 30.474624451261338, -1.692185062920213 ], [ 30.47580662472938, -1.693501041065408 ], [ 30.476854925064963, -1.694927286729454 ], [ 30.477759255752524, -1.696450064400342 ], [ 30.478510906751037, -1.698054708764708 ], [ 30.479102638408531, -1.699725765948012 ], [ 30.479528751215938, -1.701447142354134 ], [ 30.479785140727351, -1.703202259670849 ], [ 30.479869337116522, -1.704974214547728 ] ] ] } },
{ "type": "Feature", "properties": { "group": "tin_tungsten_tantalum", "rank": 13, "prob": 0.50001031160354614, "strategy": "margin", "score": -1.0311603546142578e-05, "lon": 29.475665569472103, "lat": -2.0674781720852495 }, "geometry": { "type": "Polygon", "coordinates": [ [ [ 29.493616625593614, -2.067518199017761 ], [ 29.493526294026864, -2.069288224567861 ], [ 29.49326394844147, -2.071040818242627 ], [ 29.492832115106037, -2.072759100582408 ], [ 29.49223495276857, -2.074426522587182 ], [ 29.49147821260733, -2.076027025130815 ], [ 29.490569182837223, -2.077545193655291 ], [ 29.489516618505533, -2.078966406653617 ], [ 29.488330657153515, -2.080276976510511 ], [ 29.487022721156976, -2.081464281342991 ], [ 29.485605407687466, -2.082516886570756 ], [ 29.484092367355142, -2.083424655044825 ], [ 29.482498172703473, -2.084178844673364 ], [ 29.480838177823962, -2.084772192604897 ], [ 29.47912837044456, -2.085198985158093 ], [ 29.477385217917767, -2.085455112825351 ], [ 29.475625508593456, -2.085538109821517 ], [ 29.47386619010538, -2.085447177797535 ], [ 29.472124206130058, -2.08518319349227 ], [ 29.470416333191299, -2.084748700249994 ], [ 29.46875901908254, -2.084147883486956 ], [ 29.467168224463776, -2.083386530344491 ], [ 29.465659269158394, -2.082471973919137 ], [ 29.464246684630197, -2.081413022608057 ], [ 29.46294407406053, -2.080219875251402 ], [ 29.461763981372307, -2.078904022890255 ], [ 29.460717770461049, -2.077478138086806 ], [ 29.459815515794695, -2.07595595287336 ], [ 29.459065905434059, -2.074352126506083 ], [ 29.458476157406437, -2.07268210429667 ], [ 29.458051950235749, -2.070961968881544 ], [ 29.457797368296735, -2.069208285360059 ], [ 29.457714862517754, -2.067437941792325 ], [ 29.457805226809224, -2.0656679865917 ], [ 29.458067590443459, -2.063915464376457 ], [ 29.458499426458225, -2.062197251860096 ], [ 29.459096576002569, -2.060529895359366 ], [ 29.459853288389859, -2.058929451483114 ], [ 29.460762276472519, -2.057411332534806 ], [ 29.461814786805288, -2.055990158116247 ], [ 29.463000683922075, -2.054679614360121 ], [ 29.464308547915586, -2.053492322146374 ], [ 29.465725784381295, -2.052439715570372 ], [ 29.467238745668272, -2.051531931832911 ], [ 29.468832862270727, -2.050777713612384 ], [ 29.470492783096514, -2.050184324859045 ], [ 29.472202523263562, -2.049757480822982 ], [ 29.473945618002276, -2.049501292990255 ], [ 29.475705281183551, -2.049418229458142 ], [ 29.477464566946907, -2.049509091132639 ], [ 29.479206532873395, -2.049773003978373 ], [ 29.480914403132825, -2.050207427397223 ], [ 29.482571730034714, -2.050808178656214 ], [ 29.484162552427442, -2.051569473131297 ], [ 29.485671549420278, -2.052483979980485 ], [ 29.487084187947406, -2.053542892711802 ], [ 29.488386862752318, -2.054736013967697 ], [ 29.489567027443577, -2.056051853710119 ], [ 29.49061331535863, -2.057477739861812 ], [ 29.491515649070326, -2.058999940338658 ], [ 29.492265337480173, -2.060603795297926 ], [ 29.492855159561497, -2.062273858329146 ], [ 29.493279433944537, -2.063994045227136 ], [ 29.493534073671615, -2.065747788914087 ], [ 29.493616625593614, -2.067518199017761 ] ] ] } },
{ "type": "Feature", "properties": { "group": "tin_tungsten_tantalum", "rank": 14, "prob": 0.50001281499862671, "strategy": "margin", "score": -1.2814998626708984e-05, "lon": 29.655465035229263, "lat": -1.5229849255138415 }, "geometry": { "type": "Polygon", "coordinates": [ [ [ 29.673414174539364, -1.523012907479864 ], [ 29.673325024057569, -1.524783335377465 ], [ 29.673063867047905, -1.526536443338634 ], [ 29.672633218461229, -1.528255347020594 ], [ 29.672037225744091, -1.529923491518719 ], [ 29.671281628894302, -1.531524810834633 ], [ 29.670373705171787, -1.533043882633299 ], [ 29.669322198997673, -1.534466076797428 ], [ 29.668137237717207, -1.535777696347665 ], [ 29.666830234038773, -1.536966109370093 ], [ 29.665413776089558, -1.538019870680209 ], [ 29.663901506148033, -1.538928832051067 ], [ 29.662307989222473, -1.539684239943648 ], [ 29.660648572742694, -1.540278819798735 ], [ 29.658939238717792, -1.540706846078502 ], [ 29.657196449785076, -1.540964197383986 ], [ 29.655436990634232, -1.541048396118711 ], [ 29.653677806335256, -1.540958632317128 ], [ 29.651935839127948, -1.540695771409959 ], [ 29.650227865245782, -1.540262345852806 ], [ 29.648570333346044, -1.539662530700266 ], [ 29.646979206102547, -1.538902103361866 ], [ 29.645469806486354, -1.537988387929208 ], [ 29.644056670214564, -1.536930184611525 ], [ 29.642753405787492, -1.535737684960308 ], [ 29.641572563461249, -1.534422373700717 ], [ 29.640525514416435, -1.53299691811558 ], [ 29.63962234128519, -1.531475046047867 ], [ 29.638871741089567, -1.529871413696928 ], [ 29.638280941524297, -1.528201464481173 ], [ 29.637855631388689, -1.526481280326454 ], [ 29.637599905836161, -1.524727426811409 ], [ 29.637516226967215, -1.522956793660288 ], [ 29.637605400144196, -1.52118643211838 ], [ 29.637866566254885, -1.519433390774748 ], [ 29.638297209998697, -1.517714551412098 ], [ 29.638893184115172, -1.516046466463298 ], [ 29.639648749321331, -1.514445199638281 ], [ 29.640556629573272, -1.512926171254886 ], [ 29.641608082120438, -1.511504009761976 ], [ 29.642792981678415, -1.51019241088337 ], [ 29.64409991791079, -1.509004005738589 ], [ 29.645516305282289, -1.507950239209396 ], [ 29.647028504226711, -1.507041259723307 ], [ 29.648621952464147, -1.506285821515497 ], [ 29.65028130520443, -1.505691200310182 ], [ 29.65199058288794, -1.505263123234252 ], [ 29.653733325042552, -1.505005713638739 ], [ 29.655492748776215, -1.504921451360172 ], [ 29.657251910379994, -1.505011148806055 ], [ 29.658993868486274, -1.505273943095679 ], [ 29.660701847211314, -1.505707304333517 ], [ 29.662359397711725, -1.506307059936727 ], [ 29.663950556598866, -1.507067434784231 ], [ 29.665459999685641, -1.50798110680162 ], [ 29.6668731895844, -1.509039277448089 ], [ 29.668176515733965, -1.510231756427681 ], [ 29.669357425506266, -1.511547059809634 ], [ 29.67040454512879, -1.512972520613855 ], [ 29.671307789257138, -1.514494410796804 ], [ 29.672058458140867, -1.516098073462975 ], [ 29.672649321445626, -1.517768064028959 ], [ 29.673074687922607, -1.519488298979839 ], [ 29.67333046025324, -1.521242210784908 ], [ 29.673414174539364, -1.523012907479864 ] ] ] } },
{ "type": "Feature", "properties": { "group": "tin_tungsten_tantalum", "rank": 15, "prob": 0.50001412630081177, "strategy": "margin", "score": -1.4126300811767578e-05, "lon": 30.072142257464733, "lat": -1.8282682838755038 }, "geometry": { "type": "Polygon", "coordinates": [ [ [ 30.09010135854507, -1.828297680779131 ], [ 30.090012023593069, -1.83006880278122 ], [ 30.089750588445497, -1.831822584787478 ], [ 30.089319570616741, -1.833542136063017 ], [ 30.088723120979765, -1.835210895549499 ], [ 30.08796698379361, -1.836812791389287 ], [ 30.087058441378602, -1.838332395736541 ], [ 30.086006243972172, -1.839755073363097 ], [ 30.084820525441259, -1.841067122627194 ], [ 30.083512705663679, -1.842255907446112 ], [ 30.082095380519526, -1.84330997900149 ], [ 30.080582200553046, -1.844219186004485 ], [ 30.078987739474876, -1.844974772458496 ], [ 30.077327353772336, -1.845569461978235 ], [ 30.075617034781281, -1.845997527852995 ], [ 30.073873254645495, -1.846254848179902 ], [ 30.072112807648558, -1.846338945537106 ], [ 30.070352648447443, -1.846249010815292 ], [ 30.068609728766926, -1.845985910979396 ], [ 30.066900834128411, -1.845552180686733 ], [ 30.065242422186163, -1.844951997843723 ], [ 30.063650464228424, -1.844191143337557 ], [ 30.062140291369822, -1.843276945332273 ], [ 30.060726446916203, -1.842218208666694 ], [ 30.059422546323312, -1.841025130035151 ], [ 30.058241146097156, -1.839709199769116 ], [ 30.057193622897749, -1.838283091166048 ], [ 30.056290064009382, -1.836760538431886 ], [ 30.055539170230805, -1.835156204413168 ], [ 30.054948172119314, -1.833485539392159 ], [ 30.054522760393713, -1.831764632305039 ], [ 30.054267031165057, -1.830010055815253 ], [ 30.054183446521236, -1.828238706733391 ], [ 30.05427281084366, -1.826467643319616 ], [ 30.05453426308317, -1.824713921034238 ], [ 30.054965285068551, -1.8229944283171 ], [ 30.055561725767102, -1.821325723976177 ], [ 30.056317841263269, -1.819723877749891 ], [ 30.05722635007027, -1.818204315577464 ], [ 30.058278503242207, -1.816781671066305 ], [ 30.059464168612049, -1.815469644585572 ], [ 30.06077192834492, -1.814280871342427 ], [ 30.062189188868224, -1.813226799710384 ], [ 30.063702302121051, -1.81231758098123 ], [ 30.065296696956537, -1.811561971602194 ], [ 30.066957019433026, -1.810967248839565 ], [ 30.068667280644405, -1.81053914068155 ], [ 30.070411010667335, -1.810281770655947 ], [ 30.072171417144048, -1.8101976180945 ], [ 30.073931546974737, -1.810287494227991 ], [ 30.075674449563305, -1.810550534343002 ], [ 30.077383340045206, -1.810984206077259 ], [ 30.079041760925893, -1.811584333774705 ], [ 30.080633740573624, -1.812345138667368 ], [ 30.082143947040251, -1.813259294497825 ], [ 30.083557835728367, -1.81431799804801 ], [ 30.084861789482343, -1.815511053896198 ], [ 30.08604324975321, -1.816826972586465 ], [ 30.087090837573459, -1.818253081266206 ], [ 30.087994463175477, -1.819775645726533 ], [ 30.08874542319673, -1.821380002670278 ], [ 30.089336484534257, -1.823050700934181 ], [ 30.08976195403952, -1.824771650304553 ], [ 30.090017733381028, -1.82652627649303 ], [ 30.09010135854507, -1.828297680779131 ] ] ] } },
{ "type": "Feature", "properties": { "group": "tin_tungsten_tantalum", "rank": 16, "prob": 0.50002092123031616, "strategy": "margin", "score": -2.0921230316162109e-05, "lon": 29.472119869225715, "lat": -1.3568993590319318 }, "geometry": { "type": "Polygon", "coordinates": [ [ [ 29.490064246898175, -1.356925658902286 ], [ 29.489975282439822, -1.358695756753283 ], [ 29.489714355311595, -1.360448553921528 ], [ 29.489283978309352, -1.362167169014951 ], [ 29.488688296328796, -1.363835049873765 ], [ 29.487933046443018, -1.365436133013432 ], [ 29.487025502639007, -1.36695499835853 ], [ 29.48597440574553, -1.368377017775963 ], [ 29.484789879228178, -1.369688495976191 ], [ 29.48348333166329, -1.3708768024242 ], [ 29.482067346831375, -1.371930492989523 ], [ 29.480555562489609, -1.372839420163161 ], [ 29.478962538992619, -1.373594830779639 ], [ 29.47730361902812, -1.374189450303575 ], [ 29.475594779819943, -1.374617552869125 ], [ 29.47385247922319, -1.374875016398531 ], [ 29.472093497195139, -1.374959362270139 ], [ 29.470334774169817, -1.37486977915457 ], [ 29.468593247893775, -1.37460713079116 ], [ 29.466885690295168, -1.374173947630985 ], [ 29.465228545957608, -1.37357440242865 ], [ 29.463637773754616, -1.372814270019052 ], [ 29.462128693169539, -1.371900871668357 ], [ 29.460715836780555, -1.370843004536189 ], [ 29.459412810330655, -1.369650856929477 ], [ 29.458232161729132, -1.368335910165375 ], [ 29.457185260244994, -1.366910827988759 ], [ 29.456282187054196, -1.36538933460984 ], [ 29.455531638193385, -1.363786082536791 ], [ 29.454940840853023, -1.362116511475675 ], [ 29.45451548381455, -1.360396699656508 ], [ 29.454259662699911, -1.358643209016259 ], [ 29.454175840559408, -1.356872925728906 ], [ 29.454264824176157, -1.355102897617182 ], [ 29.454525756314425, -1.353350170010321 ], [ 29.454956123985816, -1.351631621627187 ], [ 29.45555178265322, -1.349963802063931 ], [ 29.456306996139446, -1.348362772449533 ], [ 29.457214491856313, -1.346843950802473 ], [ 29.458265530823027, -1.345421963576553 ], [ 29.459449991800085, -1.344110504824212 ], [ 29.460756468729819, -1.342922204333093 ], [ 29.462172380546207, -1.34186850600474 ], [ 29.463684092297992, -1.340959557646483 ], [ 29.465277046420159, -1.340204113237909 ], [ 29.466935902891027, -1.339609448613011 ], [ 29.468644686926787, -1.339181291370837 ], [ 29.47038694279258, -1.338923765690338 ], [ 29.472145892250122, -1.338839352581601 ], [ 29.473904596117041, -1.338928865957888 ], [ 29.475646117383043, -1.339191444759906 ], [ 29.477353684312504, -1.339624561209785 ], [ 29.479010851963231, -1.340224045116561 ], [ 29.480601660565792, -1.340984124000888 ], [ 29.482110789238018, -1.341897478653549 ], [ 29.483523703553775, -1.342955313594209 ], [ 29.484826795543977, -1.344147441753041 ], [ 29.486007514780653, -1.345462382560263 ], [ 29.487054489280325, -1.346887472499916 ], [ 29.48795763506109, -1.348408987063459 ], [ 29.488708253296714, -1.350012272928607 ], [ 29.489299114130699, -1.351681889090684 ], [ 29.489724526341579, -1.353401755586473 ], [ 29.489980392187164, -1.355155308377809 ], [ 29.490064246898175, -1.356925658902286 ] ] ] } },
{ "type": "Feature", "properties": { "group": "tin_tungsten_tantalum", "rank": 17, "prob": 0.4999707043170929, "strategy": "margin", "score": -2.9295682907104492e-05, "lon": 30.125422288573532, "lat": -1.2740084836072105 }, "geometry": { "type": "Polygon", "coordinates": [ [ [ 30.143377566199288, -1.274028596770854 ], [ 30.14328915192149, -1.275799856163326 ], [ 30.143028665634578, -1.277553863416981 ], [ 30.142598615857128, -1.279273725664023 ], [ 30.142003144267118, -1.280942878900142 ], [ 30.141247985813106, -1.28254524753517 ], [ 30.14034041347486, -1.284065399237829 ], [ 30.13928916820592, -1.285488693582207 ], [ 30.138104374733135, -1.286801423063701 ], [ 30.136797444024939, -1.287990945125199 ], [ 30.135380963368537, -1.289045803921787 ], [ 30.133868575115745, -1.289955840650769 ], [ 30.13227484526643, -1.290712291384149 ], [ 30.130615123156343, -1.291307871461795 ], [ 30.128905393602043, -1.291736845632544 ], [ 30.127162122928052, -1.291995083268307 ], [ 30.125402100360205, -1.292080098120439 ], [ 30.123642276313827, -1.291991072235974 ], [ 30.121899599134863, -1.291728863804805 ], [ 30.120190851867072, -1.291295998863181 ], [ 30.1185324906176, -1.290696646934861 ], [ 30.116940486077901, -1.289936580845382 ], [ 30.115430169726043, -1.289023121098065 ], [ 30.114016086191338, -1.287965065348333 ], [ 30.112711853202526, -1.28677260365644 ], [ 30.11153003046735, -1.285457220335941 ], [ 30.110481998745488, -1.284031583343421 ], [ 30.109577850278111, -1.282509422275256 ], [ 30.108826291628084, -1.280905396146719 ], [ 30.108234559865195, -1.279234952226291 ], [ 30.107808352902218, -1.277514177284736 ], [ 30.107551774651434, -1.275759642690693 ], [ 30.107467295528579, -1.273988244843878 ], [ 30.10755572868355, -1.272217042481758 ], [ 30.107816222185924, -1.270463092425222 ], [ 30.108246267239824, -1.268743285344013 ], [ 30.108841722348803, -1.267074183122449 ], [ 30.109596853197662, -1.265471859390238 ], [ 30.110504387867486, -1.263951744753067 ], [ 30.111555586852294, -1.262528478212444 ], [ 30.11274032720392, -1.261215766204487 ], [ 30.114047199995355, -1.260026250614811 ], [ 30.115463620165094, -1.25897138703962 ], [ 30.116975947685777, -1.258061334465248 ], [ 30.118569618891456, -1.257304857428622 ], [ 30.12022928670002, -1.256709241600691 ], [ 30.121938968381684, -1.256280223606483 ], [ 30.12368219945165, -1.256021935758198 ], [ 30.125442192206034, -1.255936866234119 ], [ 30.127201997375234, -1.256025835088226 ], [ 30.128944667338743, -1.25628798632227 ], [ 30.130653419330081, -1.256720796098056 ], [ 30.132311797060591, -1.257320097011817 ], [ 30.133903829205448, -1.25808011819848 ], [ 30.135414183225748, -1.258993540880309 ], [ 30.136828313044585, -1.260051568826292 ], [ 30.138132599154567, -1.261244013044654 ], [ 30.139314479806508, -1.262559389893337 ], [ 30.140362572015032, -1.263985031664468 ], [ 30.141266781214508, -1.265507208578027 ], [ 30.142018398508164, -1.267111261009813 ], [ 30.142610184572568, -1.268781740680526 ], [ 30.143036439408167, -1.270502559445537 ], [ 30.143293057262976, -1.272257144252098 ], [ 30.143377566199288, -1.274028596770854 ] ] ] } },
{ "type": "Feature", "properties": { "group": "tin_tungsten_tantalum", "rank": 18, "prob": 0.50003111362457275, "strategy": "margin", "score": -3.1113624572753906e-05, "lon": 30.156699019806485, "lat": -1.2423268398061811 }, "geometry": { "type": "Polygon", "coordinates": [ [ [ 30.174654572063304, -1.242346238987645 ], [ 30.174566225889965, -1.244117550553776 ], [ 30.174305804459248, -1.245871616349653 ], [ 30.173875815670943, -1.247591542953326 ], [ 30.173280400619245, -1.249260765750451 ], [ 30.172525293709406, -1.250863208490446 ], [ 30.171617767423577, -1.252383438137239 ], [ 30.170566562268181, -1.253806813522184 ], [ 30.169381802577927, -1.255119626366857 ], [ 30.168074898988021, -1.256309233316433 ], [ 30.166658438514968, -1.257364177711882 ], [ 30.165146063305293, -1.258274299927694 ], [ 30.163552339221411, -1.259030835212226 ], [ 30.161892615531247, -1.259626498088818 ], [ 30.160182877054282, -1.260055552504839 ], [ 30.158439590189143, -1.260313867053677 ], [ 30.156679544306705, -1.260398954738819 ], [ 30.154919690037278, -1.260309996897565 ], [ 30.153176976010037, -1.260047851055364 ], [ 30.151468185617805, -1.259615042636062 ], [ 30.14980977537947, -1.259015740609323 ], [ 30.148217716457072, -1.258255717310607 ], [ 30.146707340853641, -1.257342292822262 ], [ 30.145293193772726, -1.256284264452236 ], [ 30.143988893560884, -1.255091821990462 ], [ 30.142807000581108, -1.253776449560178 ], [ 30.141758896279132, -1.252350815009688 ], [ 30.140854673606018, -1.250828647910303 ], [ 30.140103039851105, -1.24922460733574 ], [ 30.139511232819792, -1.247554140695858 ], [ 30.139084951162008, -1.245833334984289 ], [ 30.138828299521222, -1.24407876187172 ], [ 30.138743749030844, -1.242307318135976 ], [ 30.138832113537624, -1.240536062964768 ], [ 30.139092541780073, -1.238782053696715 ], [ 30.139522525596643, -1.237062181581434 ], [ 30.140117924084176, -1.235393009139313 ], [ 30.140873003473999, -1.233790610685817 ], [ 30.141780492341518, -1.232270417555115 ], [ 30.14283165161827, -1.230847069512559 ], [ 30.144016358732667, -1.22953427378582 ], [ 30.145323205069928, -1.228344673071889 ], [ 30.146739605813764, -1.227289723790167 ], [ 30.14825192111298, -1.226379585753936 ], [ 30.149845587407508, -1.225623024322811 ], [ 30.151505257650239, -1.22502732597825 ], [ 30.153214949075632, -1.224598228135898 ], [ 30.154958197093244, -1.224339863871218 ], [ 30.156718213825066, -1.224254722091274 ], [ 30.158478049761058, -1.224343623537599 ], [ 30.160220756976553, -1.224605712851969 ], [ 30.161929552340535, -1.225038466782874 ], [ 30.163587979143038, -1.225637718454606 ], [ 30.165180065585467, -1.226397697466823 ], [ 30.166690478607219, -1.227311085439079 ], [ 30.168104671566777, -1.22836908646672 ], [ 30.169409024354497, -1.229561511810566 ], [ 30.170590974586911, -1.230876878005211 ], [ 30.171639138618112, -1.232302517441982 ], [ 30.17254342120167, -1.23382470036179 ], [ 30.173295112745926, -1.235428767082949 ], [ 30.173886973224672, -1.2370992691908 ], [ 30.174313301934006, -1.238820118328698 ], [ 30.17456999242232, -1.240574741157104 ], [ 30.174654572063304, -1.242346238987645 ] ] ] } },
{ "type": "Feature", "properties": { "group": "tin_tungsten_tantalum", "rank": 19, "prob": 0.50003516674041748, "strategy": "margin", "score": -3.5166740417480469e-05, "lon": 29.598491903208924, "lat": -1.9200879080697448 }, "geometry": { "type": "Polygon", "coordinates": [ [ [ 29.616443700719575, -1.920123785284568 ], [ 29.61635376957927, -1.92189406396572 ], [ 29.616091813637023, -1.923646948268736 ], [ 29.61566035543769, -1.925365555973743 ], [ 29.615063550135929, -1.927033334986965 ], [ 29.614307145480947, -1.928634222783249 ], [ 29.613398426455536, -1.930152801131512 ], [ 29.612346145102983, -1.931574444611615 ], [ 29.611160436218, -1.932885461491423 ], [ 29.609852719714613, -1.934073225605939 ], [ 29.608435590612203, -1.935126297968036 ], [ 29.606922697700565, -1.936034536938904 ], [ 29.605328612053903, -1.936789195896787 ], [ 29.603668686661582, -1.937383007463751 ], [ 29.601958908529131, -1.937810253479339 ], [ 29.600215744675431, -1.938066820047816 ], [ 29.598455983510675, -1.938150237129961 ], [ 29.596696573124191, -1.938059702298739 ], [ 29.59495445804065, -1.937796088431629 ], [ 29.593246416017781, -1.93736193526669 ], [ 29.591588896457985, -1.93676142490536 ], [ 29.589997861990462, -1.936000341498994 ], [ 29.588488634749506, -1.9350860155093 ], [ 29.587075748829168, -1.934027253080552 ], [ 29.585772810334657, -1.93283425120494 ], [ 29.584592366377382, -1.931518499499435 ], [ 29.583545784274094, -1.930092669540552 ], [ 29.5826431421123, -1.928570492823483 ], [ 29.581893131734144, -1.926966628521357 ], [ 29.581302975071662, -1.925296522317757 ], [ 29.580878354637338, -1.92357625767208 ], [ 29.580623358837833, -1.921822400949277 ], [ 29.580540442635954, -1.920051841904683 ], [ 29.580630403938386, -1.918281631059138 ], [ 29.580892375935317, -1.916528815529104 ], [ 29.581323835464929, -1.914810274891549 ], [ 29.581920627321431, -1.913142558662884 ], [ 29.582677004272316, -1.911541726955488 ], [ 29.583585682399438, -1.910023195844978 ], [ 29.584637911231219, -1.908601588936174 ], [ 29.585823557991286, -1.907290596555795 ], [ 29.587131205153032, -1.90610284392734 ], [ 29.58854826036184, -1.90504976959653 ], [ 29.590061077667603, -1.904141515277832 ], [ 29.591655088901607, -1.903386828182814 ], [ 29.593314943934139, -1.902792976770698 ], [ 29.595024658463533, -1.902365680733171 ], [ 29.596767767915164, -1.902109055888284 ], [ 29.598527485969456, -1.902025574514786 ], [ 29.600286866193809, -1.902116041510393 ], [ 29.602028965222669, -1.902379586604515 ], [ 29.603737005915267, -1.902813672701995 ], [ 29.605394538920333, -1.903414120278765 ], [ 29.606985601091957, -1.904175147596242 ], [ 29.608494869231215, -1.905089426348183 ], [ 29.609907807672336, -1.906148152205638 ], [ 29.611210808291769, -1.907341129581828 ], [ 29.612391321590696, -1.908656869801281 ], [ 29.613437977587584, -1.910082701728884 ], [ 29.614340695355242, -1.911604893793787 ], [ 29.615090780146048, -1.913208786233055 ], [ 29.615681007168313, -1.914878932281807 ], [ 29.616105691205675, -1.91659924694942 ], [ 29.616360741407242, -1.918353161948629 ], [ 29.616443700719575, -1.920123785284568 ] ] ] } },
{ "type": "Feature", "properties": { "group": "tin_tungsten_tantalum", "rank": 20, "prob": 0.50003910064697266, "strategy": "margin", "score": -3.910064697265625e-05, "lon": 30.067572402860893, "lat": -1.8222974641303817 }, "geometry": { "type": "Polygon", "coordinates": [ [ [ 30.085531371109333, -1.822326810899194 ], [ 30.085442041658457, -1.824097926023517 ], [ 30.085180613233618, -1.825851701697155 ], [ 30.084749603286401, -1.827571247245226 ], [ 30.084153162615941, -1.829240001663808 ], [ 30.083397035397006, -1.8308418931436 ], [ 30.08248850385597, -1.832361493880577 ], [ 30.081436318127427, -1.833784168681462 ], [ 30.08025061196755, -1.835096215932115 ], [ 30.078942805136439, -1.836284999569901 ], [ 30.077525493390596, -1.837339070788772 ], [ 30.076012327145964, -1.838248278304281 ], [ 30.07441787998135, -1.839003866116216 ], [ 30.072757508250014, -1.839598557827653 ], [ 30.071047203152769, -1.840026626708287 ], [ 30.069303436698736, -1.840283950827807 ], [ 30.067543003038491, -1.8403680527293 ], [ 30.065782856699037, -1.84027812326104 ], [ 30.064039949279532, -1.840015029338557 ], [ 30.062331066181308, -1.839581305563204 ], [ 30.06067266494545, -1.838981129779378 ], [ 30.059080716754995, -1.83822028280675 ], [ 30.057570552628484, -1.837306092736989 ], [ 30.056156715785768, -1.83624736433237 ], [ 30.054852821607604, -1.835054294207258 ], [ 30.053671426536798, -1.833738372610513 ], [ 30.052623907182632, -1.832312272755162 ], [ 30.051720350791623, -1.830789728761748 ], [ 30.050969458138155, -1.829185403391303 ], [ 30.050378459768758, -1.827514746841363 ], [ 30.049953046405207, -1.82579384796502 ], [ 30.049697314175202, -1.824039279345133 ], [ 30.049613725196757, -1.822267937715036 ], [ 30.04970308389457, -1.820496881261781 ], [ 30.049964529275417, -1.818743165377449 ], [ 30.050395543236093, -1.817023678439254 ], [ 30.050991974823237, -1.815354979198774 ], [ 30.051748080211144, -1.813753137344845 ], [ 30.052656578012392, -1.8122335787744 ], [ 30.05370871938899, -1.81081093706028 ], [ 30.05489437228918, -1.809498912545118 ], [ 30.056202118999607, -1.808310140417834 ], [ 30.057619366074174, -1.807256069042138 ], [ 30.059132465582213, -1.806346849708501 ], [ 30.060726846509567, -1.805591238871298 ], [ 30.062387155048437, -1.804996513812301 ], [ 30.064097402426466, -1.804568402543345 ], [ 30.065841118852664, -1.8043110286237 ], [ 30.067601512098971, -1.804226871424068 ], [ 30.069361629191473, -1.804316742221255 ], [ 30.07110451965498, -1.804579776354424 ], [ 30.072813398739743, -1.805013441519896 ], [ 30.074471809058927, -1.805613562125618 ], [ 30.076063779080418, -1.806374359472381 ], [ 30.077573976946727, -1.807288507375612 ], [ 30.078987858141403, -1.808347202693469 ], [ 30.080291805579261, -1.809540250083099 ], [ 30.081473260770757, -1.810856160169346 ], [ 30.082520844796203, -1.81228226018153 ], [ 30.083424467923791, -1.813804815993079 ], [ 30.084175426814511, -1.815409164388794 ], [ 30.084766488376356, -1.817079854286293 ], [ 30.085191959459113, -1.818800795550956 ], [ 30.085447741716951, -1.820555413970965 ], [ 30.085531371109333, -1.822326810899194 ] ] ] } },
{ "type": "Feature", "properties": { "group": "tin_tungsten_tantalum", "rank": 21, "prob": 0.50004017353057861, "strategy": "margin", "score": -4.0173530578613281e-05, "lon": 29.705819651334913, "lat": -1.9812668890340472 }, "geometry": { "type": "Polygon", "coordinates": [ [ [ 29.723774072676637, -1.981302738989077 ], [ 29.723684131799708, -1.983073210810434 ], [ 29.723422141077418, -1.984826286713467 ], [ 29.72299062336452, -1.986545082659337 ], [ 29.722393734359656, -1.988213044763863 ], [ 29.721637222586004, -1.989814108756427 ], [ 29.720728374024084, -1.991332854721559 ], [ 29.719675941930348, -1.992754655631531 ], [ 29.718490062517791, -1.994065818238665 ], [ 29.717182157311417, -1.995253714969027 ], [ 29.715764823120008, -1.996306905546943 ], [ 29.714251710685005, -1.997215247178294 ], [ 29.712657393176581, -1.997969992231022 ], [ 29.710997225804956, -1.998563872472467 ], [ 29.709287197900469, -1.998991169052227 ], [ 29.707543778888557, -1.999247767557153 ], [ 29.705783759644508, -1.999331197609293 ], [ 29.704024090757279, -1.999240656626018 ], [ 29.702281719261038, -1.998977017515037 ], [ 29.700573425407978, -1.998542820231283 ], [ 29.698915661054915, -1.997942247278627 ], [ 29.697324391220693, -1.997181083393412 ], [ 29.695814940340188, -1.996266659799933 ], [ 29.694401844695545, -1.995207783575782 ], [ 29.693098712445185, -1.994014652808476 ], [ 29.69191809259776, -1.992698758361788 ], [ 29.690871354191863, -1.99127277319829 ], [ 29.689968576843746, -1.989750430324705 ], [ 29.689218453715618, -1.988146390535958 ], [ 29.688628207837453, -1.986476101231251 ], [ 29.68820352258653, -1.984755647661907 ], [ 29.687948486992603, -1.983001598042769 ], [ 29.68786555639393, -1.981230844018028 ], [ 29.687955528821682, -1.979460438016969 ], [ 29.688217537338922, -1.977707429064526 ], [ 29.688649058407037, -1.975988698626664 ], [ 29.68924593619845, -1.974320798070132 ], [ 29.690002422620918, -1.97271978930029 ], [ 29.690911232668146, -1.971201090110435 ], [ 29.691963614563772, -1.96977932573074 ], [ 29.693149434023898, -1.968468188005048 ], [ 29.694457271827449, -1.967280303551116 ], [ 29.695874533755902, -1.966227112172837 ], [ 29.697387571844843, -1.965318756695088 ], [ 29.698981815781163, -1.964563985282037 ], [ 29.700641913181986, -1.963970067179355 ], [ 29.70235187740591, -1.963542722692431 ], [ 29.704095241474722, -1.96328606807546 ], [ 29.705855216624546, -1.963202575862747 ], [ 29.707614853960944, -1.963293051025717 ], [ 29.709357207662244, -1.963556623186102 ], [ 29.711065498160099, -1.963990754961841 ], [ 29.712723273726613, -1.9645912663665 ], [ 29.714314568912037, -1.965352375028988 ], [ 29.715824058307248, -1.966266751847196 ], [ 29.71723720415001, -1.967325591541074 ], [ 29.718540396352811, -1.968518697426942 ], [ 29.719721083603055, -1.96983457959721 ], [ 29.720767894271912, -1.971260565561079 ], [ 29.721670745966083, -1.972782922281068 ], [ 29.722420942666304, -1.974386988430141 ], [ 29.72301125851526, -1.976057315596087 ], [ 29.723436007446729, -1.977777817072592 ], [ 29.723691097983753, -1.979531922803771 ], [ 29.723774072676637, -1.981302738989077 ] ] ] } },
{ "type": "Feature", "properties": { "group": "tin_tungsten_tantalum", "rank": 22, "prob": 0.49995896220207214, "strategy": "margin", "score": -4.1037797927856445e-05, "lon": 30.288186196480382, "lat": -2.0137787697137863 }, "geometry": { "type": "Polygon", "coordinates": [ [ [ 30.306150582967224, -2.013808753450344 ], [ 30.306061166122852, -2.01558019793822 ], [ 30.305799599218481, -2.017334293815816 ], [ 30.305368400970394, -2.01905414737596 ], [ 30.304771723915124, -2.020723194690448 ], [ 30.304015314423811, -2.022325361160247 ], [ 30.303106457360027, -2.02384521635182 ], [ 30.302053905914146, -2.025268122627209 ], [ 30.300867797290312, -2.02658037613574 ], [ 30.299559555058448, -2.027769338808206 ], [ 30.298141779112537, -2.028823560082051 ], [ 30.296628124296006, -2.029732887184549 ], [ 30.295033168864123, -2.030488562911423 ], [ 30.293372274051684, -2.031083309959507 ], [ 30.291661436099588, -2.031511401001097 ], [ 30.28991713216697, -2.031768713825559 ], [ 30.288156161614058, -2.031852771017998 ], [ 30.286395484185661, -2.031762763793213 ], [ 30.284652056654831, -2.031499559756697 ], [ 30.282942669500816, -2.031065694518816 ], [ 30.28128378519505, -2.0304653472443 ], [ 30.279691379652963, -2.029704300373363 ], [ 30.278180788378851, -2.028789883904015 ], [ 30.276766558785415, -2.027730904773034 ], [ 30.275462310109869, -2.026537562016728 ], [ 30.274280602275169, -2.025221348529743 ], [ 30.273232814958298, -2.023794940368467 ], [ 30.272329038029426, -2.022272074665766 ], [ 30.271577974415578, -2.020667417333278 ], [ 30.270986856323077, -2.018996421825076 ], [ 30.270561375624155, -2.017275180323076 ], [ 30.270305629076667, -2.0155202687767 ], [ 30.270222078903085, -2.013748587288602 ], [ 30.270311529107175, -2.011977197382894 ], [ 30.27057311775523, -2.010223157721859 ], [ 30.271004325295365, -2.008503359852295 ], [ 30.271600998833957, -2.006834365562253 ], [ 30.272357392135021, -2.005232247413066 ], [ 30.273266220957154, -2.003712433981337 ], [ 30.274318733195301, -2.002289561300213 ], [ 30.275504793152034, -2.000977331929363 ], [ 30.276812979127705, -1.999788383010395 ], [ 30.278230693390192, -1.998734164577324 ], [ 30.27974428346656, -1.997824829293708 ], [ 30.281339173589441, -1.997069134678221 ], [ 30.283000005033848, -1.996474358759903 ], [ 30.284710783994068, -1.996046229975928 ], [ 30.286455035577998, -1.995788871987349 ], [ 30.288215962437146, -1.995704763944689 ], [ 30.289976606505817, -1.995794716587302 ], [ 30.291720012292963, -1.996057864407251 ], [ 30.29342939015493, -1.996491673954543 ], [ 30.295088277977378, -1.997091968204609 ], [ 30.296680699709729, -1.997852966754934 ], [ 30.298191319225502, -1.998767341464441 ], [ 30.29960558802669, -1.999826287001159 ], [ 30.300909885369332, -2.001019605619789 ], [ 30.302091649460248, -2.002335805353283 ], [ 30.303139498460531, -2.00376221067379 ], [ 30.304043340129567, -2.005285084557615 ], [ 30.3047944690524, -2.006889760778721 ], [ 30.305385650512932, -2.008560785157158 ], [ 30.305811190203713, -2.010282064401541 ], [ 30.306066989099875, -2.012037021112033 ], [ 30.306150582967224, -2.013808753450344 ] ] ] } },
{ "type": "Feature", "properties": { "group": "tin_tungsten_tantalum", "rank": 23, "prob": 0.50004446506500244, "strategy": "margin", "score": -4.4465065002441406e-05, "lon": 30.351635976165458, "lat": -1.9355286504331262 }, "geometry": { "type": "Polygon", "coordinates": [ [ [ 30.369600456748138, -1.935556793491864 ], [ 30.369511218578165, -1.937328340336559 ], [ 30.369249827832032, -1.939082555295743 ], [ 30.368818801545022, -1.940802543535556 ], [ 30.368222290608234, -1.942471739851464 ], [ 30.367466039798344, -1.94407406822996 ], [ 30.36655733245064, -1.945594096697727 ], [ 30.365504920308091, -1.947017185965797 ], [ 30.364318939222475, -1.948329630436472 ], [ 30.363010811519782, -1.949518790213751 ], [ 30.361593135971152, -1.950573212845631 ], [ 30.360079566429775, -1.951482743625141 ], [ 30.358484680303757, -1.952238623387409 ], [ 30.356823838132939, -1.952833572861164 ], [ 30.355113035623244, -1.953261862762156 ], [ 30.353368749565014, -1.953519368953891 ], [ 30.351607779120496, -1.95360361214525 ], [ 30.349847084010218, -1.953513781743053 ], [ 30.348103621157783, -1.953250743631117 ], [ 30.346394181367121, -1.952817031801733 ], [ 30.344735227605959, -1.952216823921511 ], [ 30.343142736453267, -1.951455901067735 ], [ 30.341632044237901, -1.950541592024575 ], [ 30.340217699350255, -1.949482702676508 ], [ 30.338913322148713, -1.948289431179885 ], [ 30.33773147380963, -1.946973269730814 ], [ 30.336683535383028, -1.945546893875752 ], [ 30.335779598217684, -1.94402404043149 ], [ 30.335028366809698, -1.942419375190692 ], [ 30.334437075008843, -1.940748351686726 ], [ 30.334011416388261, -1.939027062378193 ], [ 30.333755489446748, -1.937272083685655 ], [ 30.333671758169903, -1.93550031637241 ], [ 30.333761028328844, -1.933728822805816 ], [ 30.334022439743549, -1.931974662665242 ], [ 30.334453474584464, -1.930254728677902 ], [ 30.335049981631759, -1.928585583963437 ], [ 30.335806216258231, -1.92698330255234 ], [ 30.336714895750511, -1.925463314612999 ], [ 30.337767269436085, -1.924040257876894 ], [ 30.338953202941084, -1.922727836691539 ], [ 30.340261275767986, -1.921538690058094 ], [ 30.341678891254514, -1.920484269923452 ], [ 30.343192397855621, -1.919574730898612 ], [ 30.344787220581964, -1.918818832465313 ], [ 30.34644800133011, -1.918223854612344 ], [ 30.348158746754592, -1.917795527714549 ], [ 30.349902982258801, -1.917537977330189 ], [ 30.351663910623273, -1.917453684448682 ], [ 30.353424573744583, -1.917543461572773 ], [ 30.355168015928445, -1.917806444866093 ], [ 30.356877447165207, -1.918240102442998 ], [ 30.358536404815869, -1.918840258721773 ], [ 30.360128912151993, -1.919601134608147 ], [ 30.361639632222797, -1.920515403122885 ], [ 30.363054015567414, -1.921574259938989 ], [ 30.364358440349591, -1.922767508150296 ], [ 30.365540343564462, -1.924083656455541 ], [ 30.366588342053166, -1.925510029813372 ], [ 30.367492342158773, -1.927032891502968 ], [ 30.368243636966437, -1.9286375754148 ], [ 30.368834990189946, -1.930308627297982 ], [ 30.369260705895734, -1.932029953603317 ], [ 30.369516683391257, -1.933784976488477 ], [ 30.369600456748138, -1.935556793491864 ] ] ] } },
{ "type": "Feature", "properties": { "group": "tin_tungsten_tantalum", "rank": 24, "prob": 0.50004678964614868, "strategy": "margin", "score": -4.6789646148681641e-05, "lon": 29.531460577125959, "lat": -1.2678538107241231 }, "geometry": { "type": "Polygon", "coordinates": [ [ [ 29.549405460994361, -1.267877971080081 ], [ 29.549316702169122, -1.269648192738512 ], [ 29.549055973926258, -1.271401133104606 ], [ 29.548625787164884, -1.27311990942661 ], [ 29.548030284962323, -1.27478796801233 ], [ 29.5472752026687, -1.276389243686083 ], [ 29.546367812659682, -1.277908314538058 ], [ 29.545316854279797, -1.279330550474431 ], [ 29.544132449651858, -1.280642254136776 ], [ 29.542826006164205, -1.281830792832325 ], [ 29.541410106576073, -1.282884720204255 ], [ 29.539898387800672, -1.283793886469645 ], [ 29.538305409534981, -1.284549536163184 ], [ 29.536646514002715, -1.285144392445781 ], [ 29.534937678162926, -1.285572727166236 ], [ 29.533195359808843, -1.285830416002015 ], [ 29.5314363390405, -1.285914978149215 ], [ 29.529677556639012, -1.285825600180243 ], [ 29.527935950900005, -1.285563143841046 ], [ 29.526228294498285, -1.285130137714015 ], [ 29.524571032955265, -1.284530752828515 ], [ 29.522980126264819, -1.283770762455049 ], [ 29.521470895202807, -1.282857486472078 ], [ 29.520057873799697, -1.281799720842346 ], [ 29.518754669396465, -1.280607652878953 ], [ 29.517573831630337, -1.279292763118477 ], [ 29.51652673161102, -1.277867714746509 ], [ 29.515623452449503, -1.276346231641045 ], [ 29.514872692192249, -1.274742966208574 ], [ 29.514281680093966, -1.273073358285087 ], [ 29.513856107033803, -1.271353486460836 ], [ 29.513600070743546, -1.269599913259675 ], [ 29.513516036374014, -1.267829525663104 ], [ 29.513604812778201, -1.266059372513775 ], [ 29.513865544738696, -1.264306500362812 ], [ 29.514295721213514, -1.262587789340501 ], [ 29.51489119952064, -1.260919790629607 ], [ 29.515646245228226, -1.259318567104855 ], [ 29.516553587366598, -1.257799538672002 ], [ 29.517604488430873, -1.256377333794726 ], [ 29.518788828500831, -1.25506564863787 ], [ 29.520095202669054, -1.253877115183045 ], [ 29.521511030840241, -1.252823179585677 ], [ 29.523022678845663, -1.251913991944785 ], [ 29.524615589708024, -1.251158308547129 ], [ 29.526274423793854, -1.250563407527029 ], [ 29.527983206505461, -1.250135018754921 ], [ 29.529725482091312, -1.249877268630518 ], [ 29.531484472094927, -1.249792640313007 ], [ 29.533243236917471, -1.249881949772871 ], [ 29.534984838938847, -1.250144337896928 ], [ 29.536692505627126, -1.25057727872426 ], [ 29.538349791065599, -1.251176603734932 ], [ 29.539940734342085, -1.251936541959396 ], [ 29.541450013274762, -1.252849775523249 ], [ 29.542863091993489, -1.253907510093889 ], [ 29.544166360954719, -1.255099559551801 ], [ 29.545347268040263, -1.256414444071559 ], [ 29.546394439476529, -1.257839500668974 ], [ 29.54729778940801, -1.259361005149944 ], [ 29.548048617068599, -1.260964304286536 ], [ 29.548639690613303, -1.262633956947526 ], [ 29.549065316801627, -1.264353882823426 ], [ 29.549321395860112, -1.266107517313207 ], [ 29.549405460994361, -1.267877971080081 ] ] ] } },
{ "type": "Feature", "properties": { "group": "tin_tungsten_tantalum", "rank": 25, "prob": 0.49995210766792297, "strategy": "margin", "score": -4.7892332077026367e-05, "lon": 30.408330684844678, "lat": -2.0405469576018467 }, "geometry": { "type": "Polygon", "coordinates": [ [ [ 30.426297117013011, -2.040575990090258 ], [ 30.426207783160052, -2.042347610632429 ], [ 30.42594627890675, -2.04410189007585 ], [ 30.425515122348997, -2.045821932976646 ], [ 30.424918465599312, -2.047491173611076 ], [ 30.424162054806107, -2.049093535541952 ], [ 30.42325317481475, -2.050613586471769 ], [ 30.422200579003288, -2.052036686890024 ], [ 30.421014404968862, -2.053349131082471 ], [ 30.419706076877237, -2.054538279143022 ], [ 30.418288195416704, -2.055592678716633 ], [ 30.416774416417013, -2.056502175300027 ], [ 30.415179319303466, -2.057258010037488 ], [ 30.413518266654279, -2.057852904070173 ], [ 30.411807256215077, -2.05828112862637 ], [ 30.410062766797097, -2.058538560178119 ], [ 30.40830159954449, -2.058622720133772 ], [ 30.406540716100722, -2.058532798684559 ], [ 30.404797075233773, -2.058269662576754 ], [ 30.403087469494483, -2.057835846735406 ], [ 30.401428363481916, -2.057235529821612 ], [ 30.399835735273808, -2.056474493959577 ], [ 30.398324922549605, -2.055560069022865 ], [ 30.396910474887818, -2.054501062017288 ], [ 30.395606013660061, -2.053307672241467 ], [ 30.394424100870335, -2.05199139304337 ], [ 30.39337611820206, -2.050564901119314 ], [ 30.392472157436561, -2.049041934422274 ], [ 30.391720923297218, -2.047437159855762 ], [ 30.391129649653667, -2.045766032027199 ], [ 30.390704029891491, -2.044044644421275 ], [ 30.390448162116858, -2.042289574425975 ], [ 30.390364509722119, -2.04051772370325 ], [ 30.390453877691147, -2.038746155440926 ], [ 30.390715404871326, -2.036991930052108 ], [ 30.391146572285702, -2.035271940903385 ], [ 30.391743227404554, -2.033602751652837 ], [ 30.392499624142122, -2.032000436762996 ], [ 30.393408478193205, -2.030480426723609 ], [ 30.394461037176612, -2.029057359473781 ], [ 30.395647164910493, -2.027744939453115 ], [ 30.396955439008387, -2.02655580563879 ], [ 30.398373260856935, -2.025501409838373 ], [ 30.399886976917262, -2.024591906410143 ], [ 30.401482010182782, -2.023836054472856 ], [ 30.403143000528921, -2.023241133546337 ], [ 30.404853952604327, -2.02281287343581 ], [ 30.406598389840656, -2.022555399035569 ], [ 30.408359513099068, -2.022471190583907 ], [ 30.41012036242677, -2.022561059753269 ], [ 30.411863980366839, -2.022824141806463 ], [ 30.413573575249504, -2.023257903895733 ], [ 30.415232682892917, -2.023858169425642 ], [ 30.416825325156665, -2.024619158246639 ], [ 30.418336163821163, -2.025533542292922 ], [ 30.419750648311005, -2.026592516130077 ], [ 30.421055155839319, -2.027785881734122 ], [ 30.422237122622782, -2.029102146686001 ], [ 30.423285164903035, -2.030528634836867 ], [ 30.424189188607901, -2.032051608378749 ], [ 30.424940486595261, -2.033656400145089 ], [ 30.425531822541856, -2.035327554867489 ], [ 30.425957500667806, -2.037048978027742 ], [ 30.426213420624084, -2.038804090871529 ], [ 30.426297117013011, -2.040575990090258 ] ] ] } }
]
}
