{
"type": "FeatureCollection",
"name": "tasking_copper_zinc",
"crs": { "type": "name", "properties": { "name": "urn:ogc:def:crs:OGC:1.3:CRS84" } },
"features": [
{ "type": "Feature", "properties": { "group": "copper_zinc", "rank": 1, "prob": 0.99937766790390015, "strategy": "top_prob", "score": 0.99937766790390015, "lon": 27.506032838969816, "lat": -11.14206632641071 }, "geometry": { "type": "Polygon", "coordinates": [ [ [ 27.524348587900967, -11.142034897582397 ], [ 27.524263567381752, -11.143807895433874 ], [ 27.524002972589866, -11.145564126165441 ], [ 27.523569310092277, -11.147286676009728 ], [ 27.522966753402766, -11.148958955272994 ], [ 27.522201102900116, -11.150564858125708 ], [ 27.521279730066414, -11.152088917743679 ], [ 27.520211506578633, -11.15351645530424 ], [ 27.519006718933202, -11.15483372140125 ], [ 27.517676969423214, -11.156028028514642 ], [ 27.516235064420382, -11.157087873257087 ], [ 27.514694891036861, -11.158003047217969 ], [ 27.513071283354936, -11.158764735334746 ], [ 27.511379879514067, -11.159365600842392 ], [ 27.509636971033579, -11.159799855980324 ], [ 27.507859345824929, -11.160063317774004 ], [ 27.50606412640904, -11.160153448352624 ], [ 27.504268604900709, -11.160069379412857 ], [ 27.502490076353947, -11.159811920592576 ], [ 27.500745672077798, -11.159383551673203 ], [ 27.499052194532755, -11.158788398686065 ], [ 27.497425955402431, -11.158032194152929 ], [ 27.495882618404206, -11.157122221844983 ], [ 27.494437048356524, -11.156067246593366 ], [ 27.493103167959589, -11.154877429828703 ], [ 27.491893823671116, -11.153564231665431 ], [ 27.490820661970442, -11.152140300475654 ], [ 27.489894017203266, -11.150619351018412 ], [ 27.48912281208688, -11.14901603230053 ], [ 27.488514471832815, -11.147345786443541 ], [ 27.488074852711968, -11.145624699918304 ], [ 27.487808185747181, -11.143869348581715 ], [ 27.487717036072105, -11.142096638009511 ], [ 27.487802278343562, -11.140323640664244 ], [ 27.48806308843978, -11.138567431467163 ], [ 27.488496951519771, -11.136844923358078 ], [ 27.489099686361484, -11.135172704426868 ], [ 27.489865485739848, -11.133566878184538 ], [ 27.490786972451573, -11.132042908511188 ], [ 27.491855270443406, -11.130615470772963 ], [ 27.493060090355769, -11.129298310539891 ], [ 27.494389828655567, -11.128104111263738 ], [ 27.495831679401892, -11.12704437218772 ], [ 27.497371757567631, -11.126129297661748 ], [ 27.498995232729659, -11.125367698927132 ], [ 27.500686471841185, -11.124766909313992 ], [ 27.502429189713339, -11.124332713666327 ], [ 27.504206605759638, -11.124069292672495 ], [ 27.506001605497154, -11.123979182635393 ], [ 27.507796905253208, -11.124063251068945 ], [ 27.509575218495605, -11.124320688354734 ], [ 27.511319422189327, -11.124749015538892 ], [ 27.513012721582154, -11.125344108193961 ], [ 27.514638811836768, -11.126100236116699 ], [ 27.516182034956998, -11.127010118480005 ], [ 27.517627530500654, -11.128064993909275 ], [ 27.518961378630696, -11.129254704810002 ], [ 27.520170734129394, -11.130567795136033 ], [ 27.52124395008661, -11.131991620659388 ], [ 27.522170690071597, -11.13351247068174 ], [ 27.522942027707888, -11.135115700017472 ], [ 27.523550532691289, -11.13678586997997 ], [ 27.523990342420451, -11.138506897014951 ], [ 27.524257218547554, -11.140262207551705 ], [ 27.524348587900967, -11.142034897582397 ] ] ] } },
{ "type": "Feature", "properties": { "group": "copper_zinc", "rank": 2, "prob": 0.99936097860336304, "strategy": "top_prob", "score": 0.99936097860336304, "lon": 27.390889696755959, "lat": -11.121618607456652 }, "geometry": { "type": "Polygon", "coordinates": [ [ [ 27.409204463864668, -11.121594246934354 ], [ 27.409118746136048, -11.123367242354192 ], [ 27.408857470137168, -11.125123402564306 ], [ 27.408423149011217, -11.12684581444573 ], [ 27.407819962636598, -11.128517889605584 ], [ 27.407053717482963, -11.130123524156208 ], [ 27.406131790789861, -11.131647253838519 ], [ 27.405063059601673, -11.133074402994191 ], [ 27.403857815339212, -11.134391225950704 ], [ 27.402527664728176, -11.135585039455181 ], [ 27.401085418037042, -11.136644344880004 ], [ 27.399544965700063, -11.1375589390207 ], [ 27.397921144513774, -11.138320012416699 ], [ 27.396229594696802, -11.138920234246147 ], [ 27.394486609191656, -11.139353822974677 ], [ 27.392708976662629, -11.13961660207605 ], [ 27.390913819705435, -11.139706040286526 ], [ 27.389118429830773, -11.139621276003774 ], [ 27.387340100815535, -11.139363125594757 ], [ 27.385595962031317, -11.138934075532049 ], [ 27.383902813360102, -11.138338258434546 ], [ 27.382276963291581, -11.137581413243511 ], [ 27.380734071765602, -11.136670829918817 ], [ 27.379288999277012, -11.135615279189128 ], [ 27.377955663699289, -11.134424928034159 ], [ 27.376746906208115, -11.133111241715302 ], [ 27.375674367597711, -11.13168687329987 ], [ 27.374748376181625, -11.130165541745395 ], [ 27.373977848357271, -11.12856189972052 ], [ 27.3733702027905, -11.126891392437321 ], [ 27.372931289044651, -11.125170108857079 ], [ 27.3726653313384, -11.123414626704029 ], [ 27.372574887970561, -11.121641852781382 ], [ 27.372660826798452, -11.119868860128687 ], [ 27.372922317001493, -11.118112723589446 ], [ 27.373356837204749, -11.116390355372967 ], [ 27.373960199879399, -11.114718342194116 ], [ 27.374726591780671, -11.113112785558648 ], [ 27.375648630029598, -11.11158914673142 ], [ 27.376717433294754, -11.110162097879243 ], [ 27.377922707385459, -11.108845380820043 ], [ 27.379252844429729, -11.107651674737104 ], [ 27.380695034680443, -11.106592474129911 ], [ 27.382235389872324, -11.105677978174841 ], [ 27.383859076942063, -11.10491699255925 ], [ 27.385550460825058, -11.104316844731645 ], [ 27.387293254955555, -11.103883313382536 ], [ 27.389070678023678, -11.103620572833103 ], [ 27.390865615483179, -11.103531152865559 ], [ 27.392660784258538, -11.103615914381162 ], [ 27.394438899069584, -11.103874041119299 ], [ 27.396182838776472, -11.10430304751705 ], [ 27.397875811147646, -11.104898802633537 ], [ 27.399501514468533, -11.105655569909397 ], [ 27.401044294438716, -11.106566062378993 ], [ 27.402489294850362, -11.107621512805178 ], [ 27.403822600599877, -11.108811758062835 ], [ 27.405031371657856, -11.110125336960154 ], [ 27.406103966708713, -11.111549600557968 ], [ 27.407030055269917, -11.113070833926821 ], [ 27.407800717210833, -11.114674388171306 ], [ 27.408408528711572, -11.11634482145268 ], [ 27.408847633832053, -11.118066047653514 ], [ 27.409113800999176, -11.119821491254633 ], [ 27.409204463864668, -11.121594246934354 ] ] ] } },
{ "type": "Feature", "properties": { "group": "copper_zinc", "rank": 3, "prob": 0.99934417009353638, "strategy": "top_prob", "score": 0.99934417009353638, "lon": 27.279245618576685, "lat": -11.297282768033236 }, "geometry": { "type": "Polygon", "coordinates": [ [ [ 27.297571661338882, -11.297264931953876 ], [ 27.297485243698649, -11.299037896610095 ], [ 27.297223165717408, -11.300793963568587 ], [ 27.296787948220125, -11.302516220570601 ], [ 27.296183779686046, -11.304188080674816 ], [ 27.295416476023178, -11.305793442024051 ], [ 27.294493424656782, -11.307316842950605 ], [ 27.293423513466568, -11.308743610925028 ], [ 27.292217045253746, -11.310060003912444 ], [ 27.290885638559299, -11.311253342772675 ], [ 27.289442115786983, -11.312312133427286 ], [ 27.287900379707985, -11.313226177614531 ], [ 27.286275279536785, -11.313986671163077 ], [ 27.284582467869292, -11.314586288836134 ], [ 27.282838249863072, -11.315019254926431 ], [ 27.281059426115274, -11.315281398920394 ], [ 27.27926313075486, -11.315370195693973 ], [ 27.277466666312765, -11.315284789851546 ], [ 27.275687336964797, -11.315026003972894 ], [ 27.273942281758064, -11.31459633068838 ], [ 27.272248309431866, -11.313999908658884 ], [ 27.270621736428502, -11.313242482692125 ], [ 27.269078229658355, -11.312331348380864 ], [ 27.267632655537273, -11.31127528179729 ], [ 27.266298936753351, -11.3100844549224 ], [ 27.265089918144753, -11.308770337627175 ], [ 27.264017242981868, -11.307345587151348 ], [ 27.263091240845721, -11.305823926146676 ], [ 27.262320828182141, -11.3042200104617 ], [ 27.261713422487979, -11.302549287943146 ], [ 27.261274870953709, -11.300827849616391 ], [ 27.261009394246553, -11.299072274679645 ], [ 27.260919545971905, -11.297299470806394 ], [ 27.261006188199243, -11.295526511295314 ], [ 27.261268483283665, -11.293770470636487 ], [ 27.261703902057061, -11.29204826007798 ], [ 27.262308248305253, -11.290376464776323 ], [ 27.263075699290777, -11.288771184098362 ], [ 27.263998861926851, -11.287247876611659 ], [ 27.265068844057733, -11.285821211254815 ], [ 27.266275340155993, -11.284504926119169 ], [ 27.267606730609039, -11.283311696200226 ], [ 27.269050193637248, -11.28225301138986 ], [ 27.270591828765365, -11.281339065882284 ], [ 27.272216790658394, -11.280578660056625 ], [ 27.27390943203439, -11.279979115778534 ], [ 27.275653454279976, -11.279546205934746 ], [ 27.277432064320987, -11.279284098877325 ], [ 27.279228136241095, -11.27919531831086 ], [ 27.281024376096049, -11.279280719008145 ], [ 27.282803488340797, -11.27953947858712 ], [ 27.2845483422714, -11.279969105428115 ], [ 27.286242136883477, -11.280565462655041 ], [ 27.287868562564189, -11.281322807950504 ], [ 27.289411958064676, -11.282233848821903 ], [ 27.290857461245125, -11.283289812787892 ], [ 27.292191152143641, -11.284480531811003 ], [ 27.293400186993683, -11.285794540164945 ], [ 27.294472921900709, -11.287219184796536 ], [ 27.295399024987759, -11.288740747121549 ], [ 27.296169575929515, -11.290344575083658 ], [ 27.296777151915173, -11.292015224207258 ], [ 27.297215899210055, -11.293736606287512 ], [ 27.297481589623963, -11.295492144287733 ], [ 27.297571661338882, -11.297264931953876 ] ] ] } },
{ "type": "Feature", "properties": { "group": "copper_zinc", "rank": 4, "prob": 0.99934226274490356, "strategy": "top_prob", "score": 0.99934226274490356, "lon": 27.471745390142832, "lat": -11.176035754291005 }, "geometry": { "type": "Polygon", "coordinates": [ [ [ 27.490063363413476, -11.176006328782563 ], [ 27.489978133840665, -11.177779322434958 ], [ 27.48971731052519, -11.179535529720921 ], [ 27.489283402227837, -11.18125803708808 ], [ 27.488680584825204, -11.182930255240818 ], [ 27.487914661205323, -11.184536078927449 ], [ 27.486993005481864, -11.186060042076198 ], [ 27.485924492060324, -11.187487466784519 ], [ 27.484719410236124, -11.188804604725576 ], [ 27.483389365144653, -11.189998769607683 ], [ 27.48194716601547, -11.19105845940938 ], [ 27.480406702806157, -11.191973467210383 ], [ 27.478782812404155, -11.192734979548669 ], [ 27.477091135686223, -11.193335661354512 ], [ 27.475347966814198, -11.193769726640939 ], [ 27.473570096221291, -11.19403299426815 ], [ 27.471774648804562, -11.194122928243223 ], [ 27.469978918885971, -11.194038662165514 ], [ 27.468200203536, -11.193781007581679 ], [ 27.466455635869703, -11.193352446169261 ], [ 27.46476201992548, -11.192757105824347 ], [ 27.463135668721335, -11.192000720883748 ], [ 27.461592247052678, -11.191090576866074 ], [ 27.460146620549224, -11.190035440265047 ], [ 27.45881271244809, -11.1888454740727 ], [ 27.4576033694646, -11.187532139848367 ], [ 27.456530238054288, -11.186108087278392 ], [ 27.455603652258301, -11.18458703229259 ], [ 27.454832534212031, -11.182983624913781 ], [ 27.45422430827394, -11.181313308114902 ], [ 27.453784829599428, -11.179592169045533 ], [ 27.453518327844741, -11.177836784062245 ], [ 27.453427366539511, -11.176064059056859 ], [ 27.453512818515083, -11.174291066621635 ], [ 27.453773857620757, -11.172534881620301 ], [ 27.454207966803065, -11.170812416748841 ], [ 27.454810962465512, -11.169140259669783 ], [ 27.455577034869631, -11.167534513287794 ], [ 27.456498804184069, -11.166010640703874 ], [ 27.457567391638086, -11.164583316340208 ], [ 27.458772505091229, -11.163266284667454 ], [ 27.460102538192629, -11.162072227893454 ], [ 27.4615446821735, -11.161012643885144 ], [ 27.463085049195563, -11.160097735497224 ], [ 27.464708806067812, -11.159336312371321 ], [ 27.466400317044961, -11.158735706148798 ], [ 27.468143294334489, -11.158301699911975 ], [ 27.469920954865596, -11.158038472531434 ], [ 27.471716181813786, -11.157948558453421 ], [ 27.47351168932958, -11.158032823313954 ], [ 27.475290188889318, -11.158290455613153 ], [ 27.477034555670635, -11.158718974529862 ], [ 27.478727993355044, -11.159314253801075 ], [ 27.48035419577495, -11.160070561437021 ], [ 27.48189750385265, -11.160980614889855 ], [ 27.483343056323655, -11.162035651146214 ], [ 27.484676932795885, -11.163225511070259 ], [ 27.485886287769482, -11.164538737186483 ], [ 27.486959474328142, -11.16596268396308 ], [ 27.487886156311394, -11.167483639535808 ], [ 27.488657407887427, -11.169086957702245 ], [ 27.489265799566301, -11.170757198917826 ], [ 27.489705469823289, -11.1724782789376 ], [ 27.489972181639743, -11.174233623674231 ], [ 27.490063363413476, -11.176006328782563 ] ] ] } },
{ "type": "Feature", "properties": { "group": "copper_zinc", "rank": 5, "prob": 0.9993324875831604, "strategy": "top_prob", "score": 0.9993324875831604, "lon": 26.232096084939318, "lat": -10.807814367615469 }, "geometry": { "type": "Polygon", "coordinates": [ [ [ 26.250390390233452, -10.807859283642909 ], [ 26.250297897644668, -10.809631874572927 ], [ 26.25003010744506, -10.81138696654078 ], [ 26.249589595706052, -10.813107656410942 ], [ 26.248980602173759, -10.814777372103205 ], [ 26.248208989538902, -10.816380032225114 ], [ 26.247282187062705, -10.817900200987424 ], [ 26.246209119098143, -10.819323236908902 ], [ 26.245000119192383, -10.820635433876648 ], [ 26.243666830595696, -10.821824153201044 ], [ 26.242222094133904, -10.822877945391708 ], [ 26.240679824524161, -10.823786660479163 ], [ 26.239054876325852, -10.824541545817596 ], [ 26.237362900819285, -10.825135330424922 ], [ 26.235620195192976, -10.825562295045888 ], [ 26.233843545494999, -10.825818327261908 ], [ 26.232050064864794, -10.825900961116044 ], [ 26.23025702860744, -10.825809400870208 ], [ 26.228481707703324, -10.825544528665919 ], [ 26.226741202361168, -10.825108896014633 ], [ 26.225052277222009, -10.824506699200414 ], [ 26.223431199805461, -10.823743738832395 ], [ 26.221893583758106, -10.822827363938403 ], [ 26.220454238416831, -10.821766401139522 ], [ 26.219127026138679, -10.820571069589622 ], [ 26.217924728772971, -10.819252882501461 ], [ 26.21685892456264, -10.817824536209635 ], [ 26.215939876660375, -10.816299787841164 ], [ 26.215176434332395, -10.814693322774167 ], [ 26.214575947799602, -10.813020613162719 ], [ 26.214144197533741, -10.811297768892592 ], [ 26.213885338686293, -10.809541382404442 ], [ 26.213801861181402, -10.807768368880186 ], [ 26.21389456585311, -10.805995803332356 ], [ 26.214162556852024, -10.804240756165576 ], [ 26.214603250390116, -10.802520128793692 ], [ 26.215212399734849, -10.80085049089514 ], [ 26.215984136207691, -10.799247920872805 ], [ 26.216911025788416, -10.79772785105345 ], [ 26.217984140776661, -10.796304919115997 ], [ 26.219193145818164, -10.794992827177303 ], [ 26.220526397465292, -10.793804209890757 ], [ 26.221971056312164, -10.792750512825506 ], [ 26.223513210624329, -10.791841882295397 ], [ 26.22513801027322, -10.791087067696758 ], [ 26.226829809687196, -10.790493337293174 ], [ 26.22857231844489, -10.790066408256886 ], [ 26.230348758063766, -10.789810391638973 ], [ 26.232142023477625, -10.789727752796956 ], [ 26.233934847652019, -10.789819287660599 ], [ 26.235709967756801, -10.790084115063804 ], [ 26.237450291299851, -10.790519685216797 ], [ 26.239139060626577, -10.791121804237294 ], [ 26.24076001420514, -10.791884674505727 ], [ 26.242297543147991, -10.792800950456744 ], [ 26.243736841465616, -10.793861809271593 ], [ 26.245064048608061, -10.795057035792452 ], [ 26.246266382923366, -10.796375120842759 ], [ 26.247332264748643, -10.797803372009184 ], [ 26.248251427948507, -10.79932803582032 ], [ 26.249015018825911, -10.800934430147544 ], [ 26.249615681451278, -10.802607085555261 ], [ 26.250047628585733, -10.804329894240722 ], [ 26.250306697512251, -10.806086265130766 ], [ 26.250390390233452, -10.807859283642909 ] ] ] } },
{ "type": "Feature", "properties": { "group": "copper_zinc", "rank": 6, "prob": 0.99933063983917236, "strategy": "top_prob", "score": 0.99933063983917236, "lon": 27.276992214928843, "lat": -11.240580593026035 }, "geometry": { "type": "Polygon", "coordinates": [ [ [ 27.295314671223565, -11.240562984022301 ], [ 27.29522824765327, -11.242335954689565 ], [ 27.29496619835222, -11.244092025387555 ], [ 27.294531043885957, -11.24581428382322 ], [ 27.293926972142348, -11.247486143044654 ], [ 27.293159798111112, -11.249091501207795 ], [ 27.292236907980655, -11.250614896681455 ], [ 27.291167188086717, -11.252041656995507 ], [ 27.289960939393975, -11.253358040196396 ], [ 27.288629778331746, -11.254551367246169 ], [ 27.287186524937269, -11.255610144188239 ], [ 27.285645079383155, -11.256524172900852 ], [ 27.284020288078466, -11.257284649369137 ], [ 27.282327800634132, -11.257884248527461 ], [ 27.28058391907237, -11.258317194852507 ], [ 27.278805440735244, -11.258579318025435 ], [ 27.277009496408859, -11.258668093125703 ], [ 27.27521338522633, -11.258582664967854 ], [ 27.273434407944066, -11.258323856346449 ], [ 27.271689700201797, -11.257894160109155 ], [ 27.269996067376919, -11.257297715134678 ], [ 27.268369822628287, -11.256540266447093 ], [ 27.266826629693441, -11.255629109852141 ], [ 27.265381351957011, -11.254573021629797 ], [ 27.264047909247008, -11.253382173961912 ], [ 27.262839143740422, -11.252068036911737 ], [ 27.261766696271085, -11.250643267901145 ], [ 27.260840894231549, -11.249121589752463 ], [ 27.260070652148109, -11.247517658471908 ], [ 27.259463385885258, -11.245846922049738 ], [ 27.25902494130359, -11.244125471639583 ], [ 27.258759538055251, -11.242369886551636 ], [ 27.258669729054549, -11.240597074554174 ], [ 27.258756376009892, -11.238824109022662 ], [ 27.259018641248154, -11.237068064505301 ], [ 27.259453995905449, -11.235345852289036 ], [ 27.260058244400689, -11.233674057549585 ], [ 27.260825564951681, -11.232068779653003 ], [ 27.261748565739357, -11.23054547714589 ], [ 27.262818356175465, -11.229118818925706 ], [ 27.264024632584444, -11.227802543022607 ], [ 27.265355777471846, -11.226609324351147 ], [ 27.266798971422034, -11.225550652703001 ], [ 27.268340316546787, -11.224636722153532 ], [ 27.269964970296499, -11.22387633294526 ], [ 27.271657288346393, -11.223276806790455 ], [ 27.273400975183993, -11.222843916406951 ], [ 27.275179240950369, -11.222581829963794 ], [ 27.276974963028398, -11.222493070970017 ], [ 27.278770850825843, -11.22257849399211 ], [ 27.280549612170859, -11.222837276432873 ], [ 27.282294119722071, -11.223266926450757 ], [ 27.283987575795315, -11.223863306943237 ], [ 27.285613674024194, -11.224620675364243 ], [ 27.287156756301847, -11.225531738992643 ], [ 27.288601963496131, -11.226587725121107 ], [ 27.289935378489936, -11.227778465491195 ], [ 27.291144160171388, -11.22909249416306 ], [ 27.29221666708505, -11.23051715787974 ], [ 27.293142569553968, -11.232038737865288 ], [ 27.293912949192393, -11.233642581885853 ], [ 27.29452038484968, -11.235313245304516 ], [ 27.294959024155485, -11.237034639773137 ], [ 27.295224639974538, -11.238790188131324 ], [ 27.295314671223565, -11.240562984022301 ] ] ] } },
{ "type": "Feature", "properties": { "group": "copper_zinc", "rank": 7, "prob": 0.99932658672332764, "strategy": "top_prob", "score": 0.99932658672332764, "lon": 27.44682399044359, "lat": -11.049914616991321 }, "geometry": { "type": "Polygon", "coordinates": [ [ [ 27.465134161703148, -11.049887027262695 ], [ 27.465048785586205, -11.051660033340053 ], [ 27.464787892275019, -11.053416235186667 ], [ 27.464353991243438, -11.055138719300871 ], [ 27.463751258335595, -11.056810896613088 ], [ 27.46298549566038, -11.058416662270764 ], [ 27.462064075811803, -11.059940550770262 ], [ 27.460995870948675, -11.061367884940365 ], [ 27.459791167413393, -11.062684917341233 ], [ 27.45846156670968, -11.06387896271473 ], [ 27.457019873791328, -11.064938520208868 ], [ 27.455479973737106, -11.065853384196798 ], [ 27.453856697999679, -11.066614742620704 ], [ 27.452165681517876, -11.067215261911546 ], [ 27.45042321207033, -11.067649157664405 ], [ 27.448646073324202, -11.067912250386968 ], [ 27.446851383093954, -11.068002005782827 ], [ 27.445056428371981, -11.067917559180071 ], [ 27.443278498724226, -11.067659723869308 ], [ 27.441534719660019, -11.067230983270255 ], [ 27.439841887585576, -11.066635467002559 ], [ 27.438216307935242, -11.065878911091444 ], [ 27.43667363804359, -11.064968602692755 ], [ 27.43522873627542, -11.063913309870888 ], [ 27.433895518869708, -11.062723197107282 ], [ 27.432686825878562, -11.061409727355699 ], [ 27.43161429749382, -11.059985551589143 ], [ 27.430688261952913, -11.058464386904637 ], [ 27.429917636103283, -11.056860884362257 ], [ 27.429309839581652, -11.055190487833006 ], [ 27.428870723432691, -11.053469285217378 ], [ 27.428604513851546, -11.051713853469145 ], [ 27.428513771588559, -11.049941098918419 ], [ 27.42859936740301, -11.048168094433095 ], [ 27.428860473797918, -11.046411914987551 ], [ 27.429294573110752, -11.044689473222597 ], [ 27.429897481877546, -11.043017356580345 ], [ 27.430663391231249, -11.041411667581849 ], [ 27.431584922941077, -11.039887868784771 ], [ 27.432653200549446, -11.038460633913113 ], [ 27.433857934918404, -11.037143706590737 ], [ 27.435187523359311, -11.035949768037668 ], [ 27.436629161389614, -11.034890315000849 ], [ 27.438168966039871, -11.033975549092887 ], [ 27.439792109523729, -11.033214278602443 ], [ 27.441482961984793, -11.032613833719322 ], [ 27.443225241947651, -11.032179995988992 ], [ 27.445002173026936, -11.031916942673996 ], [ 27.446796645388705, -11.031827206556329 ], [ 27.448591380413134, -11.031911651567052 ], [ 27.450369096977134, -11.032169464476734 ], [ 27.452112677760063, -11.032598162726529 ], [ 27.453805333975545, -11.033193618324241 ], [ 27.455430766947401, -11.033950097576167 ], [ 27.456973324977827, -11.034860316272418 ], [ 27.458418154000782, -11.035915509795833 ], [ 27.459751340572851, -11.037105517480942 ], [ 27.460960045826841, -11.038418880412097 ], [ 27.46203262909966, -11.039842951721345 ], [ 27.462958760044554, -11.041364018325893 ], [ 27.463729518147765, -11.042967432934823 ], [ 27.46433747869013, -11.044637755056375 ], [ 27.464776784323757, -11.046358899649485 ], [ 27.465043201571717, -11.048114291990155 ], [ 27.465134161703148, -11.049887027262695 ] ] ] } },
{ "type": "Feature", "properties": { "group": "copper_zinc", "rank": 8, "prob": 0.99930763244628906, "strategy": "top_prob", "score": 0.99930763244628906, "lon": 27.400219872312775, "lat": -11.114009603250906 }, "geometry": { "type": "Polygon", "coordinates": [ [ [ 27.418534143322788, -11.113984691428886 ], [ 27.418448482600688, -11.115757688298572 ], [ 27.418187267853327, -11.117513855252994 ], [ 27.417753011635444, -11.119236279111105 ], [ 27.417149893201074, -11.120908371367548 ], [ 27.416383718365601, -11.122514027972787 ], [ 27.415461863690684, -11.124037784457865 ], [ 27.41439320552578, -11.125464964908561 ], [ 27.41318803458644, -11.126781823352784 ], [ 27.411857956889662, -11.127975676197249 ], [ 27.410415781998715, -11.129035024436298 ], [ 27.408875399653027, -11.129949664453402 ], [ 27.407251645971499, -11.130710786345887 ], [ 27.40556016051902, -11.131311058823998 ], [ 27.40381723561465, -11.131744699864228 ], [ 27.402039659335689, -11.132007532434709 ], [ 27.400244553733081, -11.132097024754529 ], [ 27.398449209820363, -11.132012314697697 ], [ 27.396670920929733, -11.131754218106192 ], [ 27.394926816044951, -11.131325220931423 ], [ 27.393233694720784, -11.130729455280072 ], [ 27.391607865183534, -11.129972659595202 ], [ 27.390064987175993, -11.129062123357357 ], [ 27.388619921064198, -11.12800661683951 ], [ 27.38728658466221, -11.126816306593781 ], [ 27.386077819156199, -11.125502657486223 ], [ 27.385005265420588, -11.124078322224966 ], [ 27.384079251917946, -11.122557019447971 ], [ 27.383308695261956, -11.120953401547032 ], [ 27.382701014399778, -11.119282913502749 ], [ 27.38226205923824, -11.117561644092495 ], [ 27.381996054398254, -11.115806170905875 ], [ 27.381905558635594, -11.11403340066199 ], [ 27.381991440314767, -11.112260406367508 ], [ 27.382252869167615, -11.110504262884504 ], [ 27.382687324411453, -11.108781882492037 ], [ 27.3832906191438, -11.107109852025097 ], [ 27.384056940774226, -11.105504273158692 ], [ 27.384978907099828, -11.103980607374316 ], [ 27.386047637480484, -11.102553527100612 ], [ 27.387252838425422, -11.101236774459935 ], [ 27.388582902764544, -11.100043028979588 ], [ 27.390025021447908, -11.098983785539295 ], [ 27.391565306896108, -11.098069243728222 ], [ 27.393188926713961, -11.097308209675036 ], [ 27.394880246480881, -11.09670801129389 ], [ 27.396622980245013, -11.096274427760767 ], [ 27.398400347274467, -11.09601163389758 ], [ 27.400195233559643, -11.095922159997745 ], [ 27.401990356515256, -11.096006867479369 ], [ 27.403768431300364, -11.096264940599449 ], [ 27.405512337159166, -11.096693894308567 ], [ 27.407205282185348, -11.097289598170391 ], [ 27.408830964927652, -11.098046316116422 ], [ 27.410373731284523, -11.098956761653548 ], [ 27.411818725180598, -11.100012167994391 ], [ 27.413152031577027, -11.101202372436573 ], [ 27.414360810440733, -11.102515914180012 ], [ 27.415433420383959, -11.103940144642523 ], [ 27.41635953078411, -11.105461349213503 ], [ 27.417130221303786, -11.10706487927515 ], [ 27.417738067851516, -11.108735293222489 ], [ 27.418177214153275, -11.110456505125645 ], [ 27.418443428242739, -11.112211939604977 ], [ 27.418534143322788, -11.113984691428886 ] ] ] } },
{ "type": "Feature", "properties": { "group": "copper_zinc", "rank": 9, "prob": 0.99930679798126221, "strategy": "top_prob", "score": 0.99930679798126221, "lon": 27.338543516029439, "lat": -11.230207131558926 }, "geometry": { "type": "Polygon", "coordinates": [ [ [ 27.356865207936671, -11.230185754423431 ], [ 27.356779162100565, -11.231958733561227 ], [ 27.356517494353373, -11.233714848949852 ], [ 27.356082721583789, -11.235437187883187 ], [ 27.355479027997855, -11.237109162650359 ], [ 27.354712224934179, -11.23871467030915 ], [ 27.353789694996273, -11.240238247801008 ], [ 27.352720321036205, -11.241665220912548 ], [ 27.351514400670325, -11.242981845647448 ], [ 27.350183547147839, -11.2441754406449 ], [ 27.348740577525437, -11.245234509367647 ], [ 27.347199389224166, -11.246148850880262 ], [ 27.345574826157719, -11.246909658148484 ], [ 27.343882535722564, -11.247509602910897 ], [ 27.342138818029344, -11.247942906303171 ], [ 27.340360468830372, -11.248205394552871 ], [ 27.338564617659593, -11.248294539207137 ], [ 27.336768562747942, -11.248209481504112 ], [ 27.3349896043085, -11.247951040652969 ], [ 27.333244877801803, -11.247521705942223 ], [ 27.331551188791849, -11.246925612752602 ], [ 27.329924850987851, -11.246168502705698 ], [ 27.328381529035795, -11.245257668333588 ], [ 27.326936087577653, -11.2442018828034 ], [ 27.325602448034971, -11.243011315375309 ], [ 27.32439345449848, -11.241697433410454 ], [ 27.323320750016855, -11.2402728918743 ], [ 27.322394664476484, -11.238751411402134 ], [ 27.321624115151817, -11.237147646103391 ], [ 27.321016520882633, -11.23547704237985 ], [ 27.320577730702681, -11.233755690119848 ], [ 27.320311967603992, -11.232000167703156 ], [ 27.320221787974901, -11.230227382310929 ], [ 27.320308057098217, -11.228454407079813 ], [ 27.320569940940938, -11.226698316669108 ], [ 27.321004914309945, -11.224976022825064 ], [ 27.321608785290273, -11.223304111525787 ], [ 27.322375735726144, -11.221698683274465 ], [ 27.323298377350621, -11.22017519807806 ], [ 27.324367823019578, -11.218748326603098 ], [ 27.325573772360929, -11.217431808940072 ], [ 27.326904611011962, -11.216238322335064 ], [ 27.328347522487483, -11.215179359159887 ], [ 27.329888611600989, -11.214265116293825 ], [ 27.331513038250527, -11.2135043969802 ], [ 27.333205160282041, -11.212904526100392 ], [ 27.33494868405656, -11.212471279679461 ], [ 27.336726821273949, -11.212208829300456 ], [ 27.338522450546598, -11.212119701960894 ], [ 27.340318282171005, -11.21220475575724 ], [ 27.342097024514885, -11.21246317163045 ], [ 27.343841550422134, -11.212892461251899 ], [ 27.345535062037687, -11.213488490973608 ], [ 27.347161252469498, -11.214245521613028 ], [ 27.348704462735004, -11.215156263689671 ], [ 27.350149832484288, -11.21621194758327 ], [ 27.351483443051535, -11.217402407939483 ], [ 27.352692451459514, -11.218716181511894 ], [ 27.353765214088057, -11.220140617500489 ], [ 27.354691398816215, -11.22166199932612 ], [ 27.3554620845578, -11.223265676670277 ], [ 27.356069847230611, -11.224936206511227 ], [ 27.356508831329251, -11.226657501799904 ], [ 27.356774806409494, -11.228412986345907 ], [ 27.356865207936671, -11.230185754423431 ] ] ] } },
{ "type": "Feature", "properties": { "group": "copper_zinc", "rank": 10, "prob": 0.99930500984191895, "strategy": "top_prob", "score": 0.99930500984191895, "lon": 27.024416041089488, "lat": -11.253188957104278 }, "geometry": { "type": "Polygon", "coordinates": [ [ [ 27.042739521295072, -11.253186888534961 ], [ 27.042651549662391, -11.254959806060855 ], [ 27.042387956961903, -11.256715674400697 ], [ 27.041951278641175, -11.25843758314044 ], [ 27.041345717295957, -11.260108948631212 ], [ 27.040577102306845, -11.261713673726677 ], [ 27.039652833795753, -11.263236302845034 ], [ 27.038581811438252, -11.264662170860767 ], [ 27.037374348814154, -11.265977544390797 ], [ 27.036042074118988, -11.267169754111841 ], [ 27.034597818191077, -11.268227316832995 ], [ 27.033055490932018, -11.269140046145285 ], [ 27.031429947311242, -11.269899150580221 ], [ 27.029736844246308, -11.270497318330037 ], [ 27.027992489739617, -11.270928787711409 ], [ 27.026213685727388, -11.271189402692208 ], [ 27.024417566158107, -11.271276652945323 ], [ 27.022621431864017, -11.271189698042258 ], [ 27.02084258382062, -11.2709293755532 ], [ 27.019098156404723, -11.270498192975012 ], [ 27.017404952261646, -11.269900303565404 ], [ 27.01577928037657, -11.269141466316318 ], [ 27.014236798913696, -11.268228990453487 ], [ 27.012792364340509, -11.267171664997962 ], [ 27.01145988829316, -11.265979674069646 ], [ 27.010252203563752, -11.264664498750989 ], [ 27.009180940501469, -11.263238806457757 ], [ 27.008256415018337, -11.261716328884793 ], [ 27.007487529277679, -11.260111729704748 ], [ 27.006881686020282, -11.258440463295665 ], [ 27.006444717351052, -11.256718625860497 ], [ 27.006180828668885, -11.25496280037375 ], [ 27.00609255827608, -11.25318989685017 ], [ 27.006180753052007, -11.251416989474821 ], [ 27.00644456042069, -11.249661152163622 ], [ 27.006881436684989, -11.247939294138209 ], [ 27.007487171642286, -11.246267997098533 ], [ 27.008255929240182, -11.244663355560389 ], [ 27.009180303876374, -11.243140821894524 ], [ 27.010251391796977, -11.241715057558261 ], [ 27.011458876902612, -11.240399791950347 ], [ 27.012791130133799, -11.239207690246669 ], [ 27.014235321477067, -11.238150231487086 ], [ 27.015777543512758, -11.23723759808539 ], [ 27.017402945315123, -11.236478577824279 ], [ 27.0190958754166, -11.235880479276762 ], [ 27.020840032461681, -11.235449061466758 ], [ 27.022618622102481, -11.235188478444535 ], [ 27.024414518628699, -11.23510123930906 ], [ 27.026210429779503, -11.235188184061574 ], [ 27.027989063154671, -11.235448475521981 ], [ 27.029733292626979, -11.235879607385828 ], [ 27.031426323157966, -11.236477428344324 ], [ 27.033051852434273, -11.237236182036073 ], [ 27.034594227772057, -11.238148562446398 ], [ 27.036038596782177, -11.239205784222444 ], [ 27.037371050348028, -11.240397667228645 ], [ 27.038578756541447, -11.241712734529937 ], [ 27.039650084188413, -11.243138322861606 ], [ 27.040574714894934, -11.244660704523987 ], [ 27.041343742454011, -11.246265219530228 ], [ 27.041949758674853, -11.247936416737021 ], [ 27.042386924805676, -11.249658202600834 ], [ 27.04265102785924, -11.251413996129012 ], [ 27.042739521295072, -11.253186888534961 ] ] ] } },
{ "type": "Feature", "properties": { "group": "copper_zinc", "rank": 11, "prob": 0.50000005960464478, "strategy": "margin", "score": -5.9604644775390625e-08, "lon": 26.251112657715719, "lat": -10.550393452363327 }, "geometry": { "type": "Polygon", "coordinates": [ [ [ 26.269391649792244, -10.550436212835585 ], [ 26.269299446963043, -10.552208850860797 ], [ 26.269032091316614, -10.553964010117086 ], [ 26.268592154812005, -10.55568478683686 ], [ 26.267983871721118, -10.557354608125626 ], [ 26.267213097948851, -10.558957391601471 ], [ 26.266287254722137, -10.560477700318947 ], [ 26.265215257186902, -10.561900891483791 ], [ 26.264007428597957, -10.563213257524582 ], [ 26.262675400926412, -10.564402158160307 ], [ 26.261232002840682, -10.56545614219022 ], [ 26.259691136139896, -10.566365057830641 ], [ 26.258067641830312, -10.567120150533858 ], [ 26.256377157136171, -10.567714147345409 ], [ 26.254635964824388, -10.568141326985225 ], [ 26.25286083629733, -10.568397574976226 ], [ 26.251068869968371, -10.568480423288674 ], [ 26.24927732648095, -10.56838907411713 ], [ 26.247503462362431, -10.568124407561191 ], [ 26.245764363719275, -10.567688973135843 ], [ 26.244076781579622, -10.567086965193981 ], [ 26.242456970473196, -10.566324182498299 ], [ 26.2409205318069, -10.565407972333773 ], [ 26.239482263547803, -10.564347159700221 ], [ 26.238156017663634, -10.563151962268783 ], [ 26.236954566695594, -10.561833891923719 ], [ 26.235889480749389, -10.560405643839555 ], [ 26.234971016089194, -10.558880974164232 ], [ 26.234208016406665, -10.557274567488463 ], [ 26.233607827714142, -10.555601895379349 ], [ 26.233176227679248, -10.553879067342677 ], [ 26.232917370078315, -10.552122675650526 ], [ 26.232833744899832, -10.550349635529702 ], [ 26.232926154478069, -10.548577022250887 ], [ 26.233193705882346, -10.546821906687553 ], [ 26.23363381963075, -10.545101190928188 ], [ 26.234242254639998, -10.543431445524615 ], [ 26.235013149167063, -10.541828749942523 ], [ 26.235939077344465, -10.540308537749656 ], [ 26.237011120761675, -10.538885448030886 ], [ 26.238218954400654, -10.53757318445912 ], [ 26.239550946096234, -10.536384383377543 ], [ 26.240994268562517, -10.535330492161091 ], [ 26.242535022906399, -10.534421659026682 ], [ 26.244158372439419, -10.533666635351357 ], [ 26.245848685501038, -10.533072691436878 ], [ 26.247589685920065, -10.53264554653051 ], [ 26.249364609668476, -10.532389313774537 ], [ 26.251156366202419, -10.532306460613238 ], [ 26.252947702940773, -10.532397785038379 ], [ 26.254721371301414, -10.532662407901357 ], [ 26.256460292700762, -10.53309778136628 ], [ 26.258147722922043, -10.533699713422934 ], [ 26.259767413273686, -10.534462408224849 ], [ 26.261303766989315, -10.535378521864756 ], [ 26.262741989366468, -10.536439233052226 ], [ 26.264068230200635, -10.537634328014637 ], [ 26.265269717144683, -10.538952298805556 ], [ 26.266334878710357, -10.540380454076265 ], [ 26.267253455727477, -10.541905041245597 ], [ 26.268016600186566, -10.543511378893486 ], [ 26.268616960511615, -10.545183998105541 ], [ 26.269048752439236, -10.54690679140878 ], [ 26.269307814818784, -10.548663167865904 ], [ 26.269391649792244, -10.550436212835585 ] ] ] } },
{ "type": "Feature", "properties": { "group": "copper_zinc", "rank": 12, "prob": 0.50000011920928955, "strategy": "margin", "score": -1.1920928955078125e-07, "lon": 27.448447103374082, "lat": -11.213240887444599 }, "geometry": { "type": "Polygon", "coordinates": [ [ [ 27.466767477137836, -11.213212795451177 ], [ 27.466682104171909, -11.214985784342455 ], [ 27.466421115680117, -11.21674197408133 ], [ 27.465987022005088, -11.218464451276498 ], [ 27.465384000801933, -11.220136626914533 ], [ 27.464617856917002, -11.221742396144663 ], [ 27.463695966583366, -11.223266293411209 ], [ 27.462627206466699, -11.224693641438265 ], [ 27.461421868241583, -11.226010692630439 ], [ 27.460091559518478, -11.227204761525536 ], [ 27.458649092073895, -11.22826434702184 ], [ 27.457108358459397, -11.229179243200416 ], [ 27.45548419817808, -11.229940637672669 ], [ 27.453792254718387, -11.230541196504079 ], [ 27.452048824824249, -11.230975134893763 ], [ 27.450270701455992, -11.231238272927351 ], [ 27.44847501195796, -11.231328075864814 ], [ 27.44667905299552, -11.231243678573579 ], [ 27.444900123855628, -11.230985893871104 ], [ 27.443155359721139, -11.230557204695966 ], [ 27.441461566529323, -11.229961740183066 ], [ 27.439835059009582, -11.229205235873554 ], [ 27.438291503464562, -11.228294978443968 ], [ 27.436845766812542, -11.227239735488098 ], [ 27.435511773348072, -11.226049671029257 ], [ 27.434302370602762, -11.224736247579107 ], [ 27.433229205599659, -11.223312115687925 ], [ 27.432302612693448, -11.221790992052615 ], [ 27.431531514076504, -11.220187527358675 ], [ 27.430923333907565, -11.218517165130921 ], [ 27.43048392688803, -11.216795992954669 ], [ 27.430217521970746, -11.215040587501965 ], [ 27.430126681739825, -11.213267854856932 ], [ 27.43021227784859, -11.211494867679304 ], [ 27.430473482747598, -11.209738700775027 ], [ 27.430907777777822, -11.20801626665787 ], [ 27.431510977546186, -11.20634415268581 ], [ 27.432277270344176, -11.204738461339822 ], [ 27.433199274216083, -11.203214655182553 ], [ 27.434268108133004, -11.20178740798862 ], [ 27.435473477584267, -11.200470463478457 ], [ 27.436803773759404, -11.199276503014532 ], [ 27.438246185364115, -11.198217023531617 ], [ 27.439786821992723, -11.197302226874601 ], [ 27.44141084786925, -11.196540921607525 ], [ 27.443102624670349, -11.195940438236809 ], [ 27.444845862056692, -11.195506558663412 ], [ 27.446623774465909, -11.195243460541436 ], [ 27.448419242660705, -11.195153677077121 ], [ 27.450214978480275, -11.195238072654707 ], [ 27.45199369121292, -11.195495834522578 ], [ 27.453738253992185, -11.19592448061969 ], [ 27.455431868618785, -11.196519883466598 ], [ 27.457058227225474, -11.197276309891953 ], [ 27.458601669232245, -11.198186476212252 ], [ 27.460047332084034, -11.199241618334989 ], [ 27.461381294322397, -11.200431576111813 ], [ 27.462590709615711, -11.201744891130792 ], [ 27.463663930458726, -11.203168917008595 ], [ 27.464590620350847, -11.204689941122357 ], [ 27.465361853372588, -11.206293316611131 ], [ 27.465970200200115, -11.207963603378213 ], [ 27.46640979972743, -11.209684716738188 ], [ 27.466676415603722, -11.211440082279285 ], [ 27.466767477137836, -11.213212795451177 ] ] ] } },
{ "type": "Feature", "properties": { "group": "copper_zinc", "rank": 13, "prob": 0.49999964237213135, "strategy": "margin", "score": -3.5762786865234375e-07, "lon": 26.200365046478275, "lat": -10.975666987082455 }, "geometry": { "type": "Polygon", "coordinates": [ [ [ 26.218669462979925, -10.975714498459597 ], [ 26.218576662551829, -10.977487044378822 ], [ 26.218308470000419, -10.97924206684241 ], [ 26.217867465226224, -10.98096266336851 ], [ 26.21725789268341, -10.982632262756537 ], [ 26.216485620605937, -10.984234784711921 ], [ 26.215558084581282, -10.985754794751831 ], [ 26.214484216011748, -10.987177652898286 ], [ 26.213274356149576, -10.988489654725029 ], [ 26.211940156531867, -10.989678163397192 ], [ 26.210494466773032, -10.990731731430296 ], [ 26.208951210795345, -10.991640210993543 ], [ 26.207325252690261, -10.992394851692698 ], [ 26.205632253504071, -10.992988384889127 ], [ 26.203888520329553, -10.993415093740815 ], [ 26.202110849160228, -10.993670868289279 ], [ 26.200316363024456, -10.993753245060942 ], [ 26.198522346962481, -10.993661430800392 ], [ 26.196746081440384, -10.993396310106926 ], [ 26.195004675809848, -10.992960436900804 ], [ 26.193314903422305, -10.992358009802079 ], [ 26.19169303998979, -10.99159483165986 ], [ 26.190154706753145, -10.990678253623479 ], [ 26.188714719971323, -10.989617104295702 ], [ 26.187386948183935, -10.988421604652215 ], [ 26.18618417862368, -10.987103269549172 ], [ 26.185117994066005, -10.985674796769414 ], [ 26.184198661302169, -10.98414994467819 ], [ 26.183435032308942, -10.982543399669167 ], [ 26.182834459064892, -10.980870634678851 ], [ 26.18240272283116, -10.979147760134317 ], [ 26.182143978574501, -10.97739136877089 ], [ 26.18206071506393, -10.975618375815518 ], [ 26.18215373102101, -10.973845856075828 ], [ 26.182422127548897, -10.972090879503808 ], [ 26.18286331690835, -10.970370346817717 ], [ 26.183473047551701, -10.968700826764801 ], [ 26.184245445169278, -10.96709839659083 ], [ 26.185173069349169, -10.965578487251534 ], [ 26.186246985301313, -10.964155734855021 ], [ 26.187456849952568, -10.962843839763638 ], [ 26.188791011581809, -10.961655434710478 ], [ 26.190236622034483, -10.960601963197986 ], [ 26.191779760436013, -10.95969356934774 ], [ 26.193405567213325, -10.958939000260067 ], [ 26.19509838713557, -10.958345521821609 ], [ 26.196841919998985, -10.957918848770067 ], [ 26.198619377507889, -10.957663089688138 ], [ 26.20041364484479, -10.957580707455032 ], [ 26.202207445377741, -10.957672495536043 ], [ 26.203983506923336, -10.957937570337933 ], [ 26.20572472796859, -10.958373379704033 ], [ 26.207414342255596, -10.95897572746763 ], [ 26.209036080148014, -10.959738813828418 ], [ 26.210574325229445, -10.960655291164176 ], [ 26.212014264628699, -10.961716334742004 ], [ 26.213342031627032, -10.962911727650127 ], [ 26.214544839175794, -10.964229959134176 ], [ 26.215611103039663, -10.96565833539333 ], [ 26.216530553379673, -10.967183101771566 ], [ 26.217294333700675, -10.968789575169126 ], [ 26.21789508620866, -10.970462285401483 ], [ 26.218327022753471, -10.972185124145881 ], [ 26.218585980670511, -10.973941500042782 ], [ 26.218669462979925, -10.975714498459597 ] ] ] } },
{ "type": "Feature", "properties": { "group": "copper_zinc", "rank": 14, "prob": 0.49999940395355225, "strategy": "margin", "score": -5.9604644775390625e-07, "lon": 27.521893128639032, "lat": -11.405476119943886 }, "geometry": { "type": "Polygon", "coordinates": [ [ [ 27.540225515970608, -11.405442967807463 ], [ 27.540140590834497, -11.407215938039723 ], [ 27.539879930216923, -11.408972158140438 ], [ 27.539446041240268, -11.410694714438206 ], [ 27.538843099525959, -11.412367017163572 ], [ 27.538076909095199, -11.413972960240867 ], [ 27.537154846574705, -11.415497076432477 ], [ 27.536085790240872, -11.416924686340007 ], [ 27.534880034582415, -11.418242039826037 ], [ 27.533549191201708, -11.419436448492004 ], [ 27.532106077007612, -11.420496407934767 ], [ 27.530564590775683, -11.421411708601823 ], [ 27.528939579264883, -11.422173534175084 ], [ 27.527246694181226, -11.422774546533761 ], [ 27.525502241368024, -11.423208956475603 ], [ 27.52372302367796, -11.423472579513415 ], [ 27.521926179043863, -11.423562876208157 ], [ 27.520129015311841, -11.423478976648383 ], [ 27.518348843432019, -11.423221688839778 ], [ 27.516602810618174, -11.422793490923256 ], [ 27.514907735087988, -11.422198507296866 ], [ 27.513279943980116, -11.421442468871541 ], [ 27.511735116013483, -11.420532657844809 ], [ 27.510288130407986, -11.419477837525481 ], [ 27.508952923524866, -11.418288167886653 ], [ 27.507742354609778, -11.416975107662751 ], [ 27.506668081933281, -11.415551303935256 ], [ 27.505740450522097, -11.414030470272928 ], [ 27.504968392562176, -11.412427254602727 ], [ 27.50435934143146, -11.410757098085735 ], [ 27.503919160188143, -11.409036086359833 ], [ 27.503652085200166, -11.407280794583343 ], [ 27.50356068545522, -11.40550812777377 ], [ 27.503645837938898, -11.403735157980515 ], [ 27.503906719313573, -11.40197895986045 ], [ 27.50434081397329, -11.40025644624026 ], [ 27.504943938392344, -11.398584205249332 ], [ 27.505710281528284, -11.39697834059092 ], [ 27.506632460886028, -11.395454316489042 ], [ 27.507701593699178, -11.394026808803133 ], [ 27.50890738253997, -11.392709563742299 ], [ 27.510238214530844, -11.391515265538388 ], [ 27.511681273200644, -11.39045541434953 ], [ 27.513222661907573, -11.389540215568106 ], [ 27.514847537640513, -11.388778481596791 ], [ 27.516540253911305, -11.388177547036159 ], [ 27.518284511364023, -11.387743198098729 ], [ 27.520063514653586, -11.387479616927331 ], [ 27.521860134086442, -11.387389341352096 ], [ 27.523657070470858, -11.387473240472863 ], [ 27.52543702159355, -11.387730506300814 ], [ 27.527182848724308, -11.388158661539745 ], [ 27.528877741549739, -11.388753583431678 ], [ 27.530505379952434, -11.389509543438109 ], [ 27.532050091081842, -11.390419262375092 ], [ 27.533497000208051, -11.391473980472789 ], [ 27.534832173908878, -11.392663541686419 ], [ 27.536042754213835, -11.393976491448271 ], [ 27.53711708241466, -11.395400186921863 ], [ 27.538044811350865, -11.396920918698568 ], [ 27.538817005088653, -11.398524042766841 ], [ 27.53942622503223, -11.4001941214858 ], [ 27.53986660163601, -11.401915072207307 ], [ 27.540133891024464, -11.403670322117392 ], [ 27.540225515970608, -11.405442967807463 ] ] ] } },
{ "type": "Feature", "properties": { "group": "copper_zinc", "rank": 15, "prob": 0.50000083446502686, "strategy": "margin", "score": -8.3446502685546875e-07, "lon": 26.267271866343989, "lat": -10.673061695353534 }, "geometry": { "type": "Polygon", "coordinates": [ [ [ 26.285558210900184, -10.673104001966353 ], [ 26.28546601657138, -10.674876634755828 ], [ 26.285198598520665, -10.676631793258643 ], [ 26.284758529271269, -10.678352573713749 ], [ 26.284150044338634, -10.680022403186481 ], [ 26.283379001539963, -10.681625199208552 ], [ 26.282452824666031, -10.683145524703104 ], [ 26.281380432054501, -10.684568736701072 ], [ 26.280172150749909, -10.685881127415024 ], [ 26.278839617075128, -10.687070056309446 ], [ 26.277395664570836, -10.688124071893636 ], [ 26.275854200381982, -10.689033022062027 ], [ 26.274230071282492, -10.689788151916863 ], [ 26.272538920630048, -10.690382188129549 ], [ 26.270797037630956, -10.690809409025963 ], [ 26.269021200369895, -10.691065699719498 ], [ 26.26722851411996, -10.691148591759744 ], [ 26.265436246494328, -10.691057286913912 ], [ 26.263661661031584, -10.690792664851905 ], [ 26.261921850821963, -10.690357274660938 ], [ 26.260233573781235, -10.689755310272096 ], [ 26.258613091162939, -10.6889925700362 ], [ 26.25707601086803, -10.688076400839906 ], [ 26.255637137064259, -10.68701562730172 ], [ 26.254310327566145, -10.685820466731645 ], [ 26.253108360350904, -10.68450243067584 ], [ 26.252042810496803, -10.683074213996417 ], [ 26.251123938729219, -10.681549572556857 ], [ 26.250360592646921, -10.679943190693482 ], [ 26.249760121578184, -10.678270539750777 ], [ 26.24932830588423, -10.676547729045256 ], [ 26.249069301387678, -10.674791350694306 ], [ 26.248985599457484, -10.673018319805662 ], [ 26.249078003130595, -10.671245711567311 ], [ 26.249345619495827, -10.669490596806998 ], [ 26.24978586840885, -10.667769877604758 ], [ 26.250394507449837, -10.666100124541348 ], [ 26.251165672879289, -10.664497417148686 ], [ 26.252091936193807, -10.662977189097662 ], [ 26.253164375733856, -10.661554079612632 ], [ 26.25437266265147, -10.660241792541511 ], [ 26.255705160408052, -10.65905296443689 ], [ 26.257149036843256, -10.657999042916165 ], [ 26.258690387735413, -10.657090176470096 ], [ 26.260314370664531, -10.656335116779037 ], [ 26.26200534789017, -10.655741134475239 ], [ 26.263747036870722, -10.655313949161119 ], [ 26.265522666977528, -10.655057674355884 ], [ 26.267315140898319, -10.654974777899366 ], [ 26.269107199179611, -10.655066058194064 ], [ 26.270881586327807, -10.655330636513558 ], [ 26.272621216873787, -10.655765965451646 ], [ 26.274309339806159, -10.656367853431149 ], [ 26.275929699793679, -10.657130505037623 ], [ 26.277466693648027, -10.658046576790381 ], [ 26.27890552052331, -10.659107247815623 ], [ 26.280232324408441, -10.660302304742862 ], [ 26.281434327541909, -10.661620240008874 ], [ 26.28249995346513, -10.66304836262484 ], [ 26.283418938529426, -10.664572920342088 ], [ 26.284182430782106, -10.666179232041701 ], [ 26.284783075277637, -10.667851829075538 ], [ 26.285215084990114, -10.669574604198775 ], [ 26.285474296640885, -10.671330966661428 ], [ 26.285558210900184, -10.673104001966353 ] ] ] } },
{ "type": "Feature", "properties": { "group": "copper_zinc", "rank": 16, "prob": 0.49999916553497314, "strategy": "margin", "score": -8.3446502685546875e-07, "lon": 26.860447878153575, "lat": -11.004359415849013 }, "geometry": { "type": "Polygon", "coordinates": [ [ [ 26.878755767724407, -11.004367273779927 ], [ 26.878666884759554, -11.006140169233143 ], [ 26.8784025394786, -11.007895919953818 ], [ 26.877965274663797, -11.009617616625977 ], [ 26.877359298649314, -11.011288677618376 ], [ 26.876590444899183, -11.012893008703358 ], [ 26.875666115920989, -11.014415158091264 ], [ 26.874595212051911, -11.015840465285777 ], [ 26.873388045799889, -11.01715520232513 ], [ 26.872056242562767, -11.018346706046486 ], [ 26.870612628680114, -11.019403500097992 ], [ 26.869071107895472, -11.020315405520963 ], [ 26.867446527419204, -11.021073638834812 ], [ 26.865754534883251, -11.02167089667838 ], [ 26.864011427567625, -11.022101426190027 ], [ 26.862233995353733, -11.022361080447231 ], [ 26.860439358920569, -11.022447358430409 ], [ 26.858644804746259, -11.02235942912478 ], [ 26.856867618508513, -11.022098139527811 ], [ 26.855124918493079, -11.021666006484789 ], [ 26.85343349061927, -11.021067192431612 ], [ 26.851809626675866, -11.020307465278853 ], [ 26.850268967329331, -11.019394142824863 ], [ 26.848826351419905, -11.018336022234676 ], [ 26.847495672999806, -11.01714329526547 ], [ 26.846289747492513, -11.01582745005746 ], [ 26.845220188263315, -11.014401160437906 ], [ 26.84429729479027, -11.012878163806652 ], [ 26.843529953511879, -11.011273128781749 ], [ 26.842925552304973, -11.009601513881456 ], [ 26.84248990941413, -11.007879418606086 ], [ 26.842227217513997, -11.006123428355156 ], [ 26.842140003439539, -11.004350454674961 ], [ 26.842229103967906, -11.002577572376021 ], [ 26.842493657880592, -11.000821855089509 ], [ 26.842931114377745, -10.999100210846532 ], [ 26.84353725775896, -10.997429219263514 ], [ 26.844306248128394, -10.995824971900758 ], [ 26.845230677728249, -10.994302917330524 ], [ 26.846301642354518, -10.992877712405328 ], [ 26.847508827164397, -10.991563081156798 ], [ 26.848840606046867, -10.99037168268228 ], [ 26.850284153598295, -10.989314989289054 ], [ 26.851825568624207, -10.988403176067568 ], [ 26.853450007978484, -10.987645022955142 ], [ 26.855141829452439, -10.987047830230859 ], [ 26.856884742339858, -10.986617348253843 ], [ 26.858661964231111, -10.986357722119893 ], [ 26.86045638252979, -10.986271451767834 ], [ 26.862250719140551, -10.986359367919182 ], [ 26.864027696746533, -10.986620624081985 ], [ 26.865770205079592, -10.987052704695811 ], [ 26.867461465586661, -10.98765144933958 ], [ 26.869085192910774, -10.988411092770104 ], [ 26.870625751635668, -10.989324320406416 ], [ 26.872068306787931, -10.990382338727274 ], [ 26.87339896665021, -10.991574959905657 ], [ 26.874604916512197, -10.992890699866832 ], [ 26.875674542072652, -10.994316888828113 ], [ 26.876597541304442, -10.995839793257895 ], [ 26.877365023704829, -10.997444748081387 ], [ 26.877969595973735, -10.999116297862413 ], [ 26.878405433292759, -11.000838345603167 ], [ 26.878668335515499, -11.002594307730845 ], [ 26.878755767724407, -11.004367273779927 ] ] ] } },
{ "type": "Feature", "properties": { "group": "copper_zinc", "rank": 17, "prob": 0.50000101327896118, "strategy": "margin", "score": -1.0132789611816406e-06, "lon": 27.134735972522069, "lat": -11.475364703471543 }, "geometry": { "type": "Polygon", "coordinates": [ [ [ 27.153073591760702, -11.475355665614385 ], [ 27.152986246020902, -11.477128584209167 ], [ 27.152723137118478, -11.478884520859546 ], [ 27.152286795767044, -11.480606564514693 ], [ 27.151681421241481, -11.482278130239422 ], [ 27.150912841049486, -11.483883118963405 ], [ 27.149988454908936, -11.48540607256156 ], [ 27.148917163566725, -11.486832322770448 ], [ 27.147709283141442, -11.488148132505136 ], [ 27.146376445812361, -11.489340828213054 ], [ 27.144931487809675, -11.490398921988351 ], [ 27.143388325784123, -11.491312222268219 ], [ 27.141761822746957, -11.492071932042583 ], [ 27.140067644872747, -11.492670733629373 ], [ 27.138322110546238, -11.493102859196513 ], [ 27.136542033110164, -11.493364146349593 ], [ 27.134744558832129, -11.493452078248643 ], [ 27.132947001655342, -11.493365807865949 ], [ 27.131166676329368, -11.493106166150996 ], [ 27.12942073153279, -11.49267565402333 ], [ 27.127725984599831, -11.492078418270886 ], [ 27.126098759447309, -11.49132021158616 ], [ 27.124554729267171, -11.490408337126627 ], [ 27.123108765503375, -11.489351578134508 ], [ 27.121774794570701, -11.488160113295487 ], [ 27.120565663697672, -11.486845418653914 ], [ 27.119493017187185, -11.485420157030994 ], [ 27.118567184286814, -11.483898056013482 ], [ 27.117797079748421, -11.482293775690438 ], [ 27.11719011803314, -11.480622767413703 ], [ 27.116752141985856, -11.478901124944816 ], [ 27.116487366662856, -11.477145429423484 ], [ 27.116398338849912, -11.475372589652279 ], [ 27.11648591265639, -11.473599679236891 ], [ 27.116749241415697, -11.471843772150878 ], [ 27.117185785965237, -11.470121778308929 ], [ 27.117791339221345, -11.468450280731943 ], [ 27.118560066807806, -11.466845375871358 ], [ 27.119484563342461, -11.465322518629442 ], [ 27.120555923836022, -11.463896373566717 ], [ 27.121763829512464, -11.462580673727409 ], [ 27.123096647222113, -11.461388088440868 ], [ 27.124541541488735, -11.460330101369514 ], [ 27.126084598110939, -11.459416899975583 ], [ 27.127710958128059, -11.458657277469019 ], [ 27.129404960861706, -11.458058548178231 ], [ 27.13115029465769, -11.457626477157012 ], [ 27.132930153879549, -11.457365224703594 ], [ 27.134727400645534, -11.457277306324455 ], [ 27.136524729755603, -11.457363568527754 ], [ 27.138304835224659, -11.457623180678333 ], [ 27.140050576823107, -11.458053642992786 ], [ 27.141745145025517, -11.458650810597478 ], [ 27.143372222783583, -11.459408933418779 ], [ 27.144916142569638, -11.460320711522062 ], [ 27.146362037182108, -11.46137736536801 ], [ 27.14769598286367, -11.46256872031165 ], [ 27.14890513335617, -11.463883304531848 ], [ 27.149977843602752, -11.465308459450835 ], [ 27.150903781906489, -11.466830461582422 ], [ 27.151674029464939, -11.468434654637687 ], [ 27.152281166320773, -11.470105590618429 ], [ 27.15271934289856, -11.47182717854141 ], [ 27.152984336435747, -11.47358283936309 ], [ 27.153073591760702, -11.475355665614385 ] ] ] } },
{ "type": "Feature", "properties": { "group": "copper_zinc", "rank": 18, "prob": 0.49999898672103882, "strategy": "margin", "score": -1.0132789611816406e-06, "lon": 27.655074548019169, "lat": -11.444275861798157 }, "geometry": { "type": "Polygon", "coordinates": [ [ [ 27.673408980563266, -11.444234256828102 ], [ 27.673324886228695, -11.446007219180583 ], [ 27.673065028905363, -11.447763512937691 ], [ 27.67263190795672, -11.449486223753709 ], [ 27.672029691578466, -11.451158760402263 ], [ 27.671264176771892, -11.45276501458105 ], [ 27.670342733618583, -11.454289516076509 ], [ 27.66927423438905, -11.455717581792905 ], [ 27.668068968164835, -11.457035457209125 ], [ 27.666738541793517, -11.458230448898616 ], [ 27.665295768128896, -11.459291046834377 ], [ 27.663754542631807, -11.460207035298694 ], [ 27.662129709520048, -11.460969591326934 ], [ 27.660436918757714, -11.461571369735294 ], [ 27.658692475263084, -11.462006573911133 ], [ 27.656913181790298, -11.462271011682159 ], [ 27.655116177001364, -11.462362135724902 ], [ 27.653318770292334, -11.462279068121562 ], [ 27.651538274968797, -11.462022608828125 ], [ 27.649791841382275, -11.461595227971436 ], [ 27.648096291639323, -11.461001042049618 ], [ 27.64646795748008, -11.460245774265104 ], [ 27.644922522891878, -11.45933669937361 ], [ 27.643474872977748, -11.458282573581231 ], [ 27.642138950538552, -11.457093550166388 ], [ 27.640927621752425, -11.455781081641566 ], [ 27.639852552246904, -11.454357809398884 ], [ 27.638924094757847, -11.4528374419048 ], [ 27.638151189456902, -11.451234622619506 ], [ 27.637541277906188, -11.449564788915039 ], [ 27.637100231466846, -11.447844023353303 ], [ 27.63683229484792, -11.446088898758134 ], [ 27.636740045335706, -11.444316318575078 ], [ 27.636824368091933, -11.442543354057817 ], [ 27.637084447754223, -11.440787079849889 ], [ 27.637517776414768, -11.439064409545772 ], [ 27.638120177895615, -11.437391932814975 ], [ 27.638885848082079, -11.435785755657205 ], [ 27.639807410921431, -11.434261345326146 ], [ 27.640875989543673, -11.432833381414136 ], [ 27.642081291816254, -11.431515614530001 ], [ 27.643411709506267, -11.430320733929475 ], [ 27.644854430093535, -11.429260245370468 ], [ 27.64639556015695, -11.428344360367397 ], [ 27.648020259146175, -11.427581897908953 ], [ 27.649712882251372, -11.426980199583097 ], [ 27.651457130997223, -11.426545058924935 ], [ 27.653236210113686, -11.42628066566582 ], [ 27.655032989176341, -11.426189565418648 ], [ 27.656830167463674, -11.426272635186772 ], [ 27.658610440448218, -11.426529074931011 ], [ 27.660356666322819, -11.426956415275791 ], [ 27.662052030963164, -11.427550541279835 ], [ 27.66368020974252, -11.428305732043317 ], [ 27.665225524644704, -11.429214715770396 ], [ 27.666673095166153, -11.430268739758377 ], [ 27.668008981557023, -11.431457654641129 ], [ 27.66922031902449, -11.432770012076993 ], [ 27.670295441607401, -11.434193174942932 ], [ 27.671223994530152, -11.435713438975776 ], [ 27.671997033953648, -11.437316164691291 ], [ 27.672607113161494, -11.438985918313275 ], [ 27.673048354349593, -11.440706620357345 ], [ 27.673316505324809, -11.442461700440614 ], [ 27.673408980563266, -11.444234256828102 ] ] ] } },
{ "type": "Feature", "properties": { "group": "copper_zinc", "rank": 19, "prob": 0.49999892711639404, "strategy": "margin", "score": -1.0728836059570312e-06, "lon": 27.522274102181889, "lat": -11.005027790936005 }, "geometry": { "type": "Polygon", "coordinates": [ [ [ 27.540581287068683, -11.004995765106717 ], [ 27.540496364830648, -11.006768777158744 ], [ 27.540235949914429, -11.008525027644914 ], [ 27.539802547193322, -11.010247602617676 ], [ 27.539200327713978, -11.011919912154534 ], [ 27.538435088637041, -11.01352585015033 ], [ 27.537514197505274, -11.015049949460439 ], [ 27.536446521372248, -11.016477530899316 ], [ 27.535242341470781, -11.017794844658269 ], [ 27.533913254240581, -11.01898920277811 ], [ 27.532472059666578, -11.020049101399277 ], [ 27.530932638002579, -11.020964331609628 ], [ 27.529309816067652, -11.021726077819974 ], [ 27.527619224404024, -11.022327002718006 ], [ 27.525877146674102, -11.022761317980024 ], [ 27.524100362749753, -11.023024840057625 ], [ 27.522305987008551, -11.023115030500707 ], [ 27.520511303398226, -11.023031020426775 ], [ 27.518733598862255, -11.022773618900295 ], [ 27.516989996735369, -11.022345305140879 ], [ 27.515297291718269, -11.021750204635364 ], [ 27.513671788025334, -11.020994049384148 ], [ 27.512129142268346, -11.020084122665818 ], [ 27.510684212593109, -11.01902918885305 ], [ 27.509350915524983, -11.017839408957373 ], [ 27.508142091904407, -11.016526242718276 ], [ 27.507069383205099, -11.015102338181423 ], [ 27.506143119426653, -11.013581409831817 ], [ 27.505372219640996, -11.011978106457956 ], [ 27.504764106149231, -11.010307870021405 ], [ 27.504324633073615, -11.008586786893471 ], [ 27.504058030069512, -11.006831432893167 ], [ 27.503966861695893, -11.005058713620617 ], [ 27.504052002831667, -11.00328570162482 ], [ 27.504312630370155, -11.001529471974596 ], [ 27.504746231267106, -10.999806937816791 ], [ 27.505348626860087, -10.998134687505409 ], [ 27.506114013220511, -10.996528824869598 ], [ 27.507035017145583, -10.995004814157948 ], [ 27.508102767247152, -10.99357733115121 ], [ 27.509306979449832, -10.992260121875388 ], [ 27.510636056072588, -10.991065870274445 ], [ 27.512077197538133, -10.990006076114479 ], [ 27.513616525633584, -10.989090944293244 ], [ 27.515239217135662, -10.988329286618894 ], [ 27.516929646514591, -10.987728437001342 ], [ 27.518671536344481, -10.987294180871306 ], [ 27.520448113974361, -10.98703069950478 ], [ 27.52224227295444, -10.986940529787356 ], [ 27.524036737666986, -10.987024539805061 ], [ 27.525814229580657, -10.987281920495578 ], [ 27.527557633531675, -10.987710193440028 ], [ 27.529250162435126, -10.988305234720055 ], [ 27.530875518844585, -10.989061314611266 ], [ 27.532418051808282, -10.989971152731131 ], [ 27.533862907515008, -10.991025988111748 ], [ 27.535196172281957, -10.992215663524288 ], [ 27.536405006510012, -10.99352872324449 ], [ 27.537477768317814, -10.994952523320148 ], [ 27.538404125664826, -10.996473353280651 ], [ 27.539175155883346, -10.998076568118536 ], [ 27.539783431659803, -10.999746729274618 ], [ 27.540223092635429, -11.001467753270584 ], [ 27.540489901933974, -11.003223066559825 ], [ 27.540581287068683, -11.004995765106717 ] ] ] } },
{ "type": "Feature", "properties": { "group": "copper_zinc", "rank": 20, "prob": 0.50000131130218506, "strategy": "margin", "score": -1.3113021850585938e-06, "lon": 27.30840054496527, "lat": -11.312718588557665 }, "geometry": { "type": "Polygon", "coordinates": [ [ [ 27.32672751870313, -11.312698922974116 ], [ 27.326641278478014, -11.314471889655156 ], [ 27.326379367276932, -11.316227976253419 ], [ 27.325944304311612, -11.317950270328376 ], [ 27.325340276564798, -11.319622184588033 ], [ 27.324573098579425, -11.32122761665874 ], [ 27.323650156560628, -11.322751104195326 ], [ 27.322580337325046, -11.324177973836271 ], [ 27.321373942778532, -11.325494482567935 ], [ 27.32004259074338, -11.326687950134113 ], [ 27.31859910308863, -11.327746881213885 ], [ 27.317057382240193, -11.328661076188624 ], [ 27.315432277260307, -11.329421729428962 ], [ 27.31373944078733, -11.330021514153206 ], [ 27.311995178215767, -11.330454653037453 ], [ 27.310216290571915, -11.330716973895623 ], [ 27.308419912602023, -11.330805949891738 ], [ 27.306623347636393, -11.330720723895626 ], [ 27.304843900824466, -11.330462116746945 ], [ 27.30309871235163, -11.330032619347421 ], [ 27.3014045922489, -11.329436368657715 ], [ 27.299777858390968, -11.328679107830377 ], [ 27.298234179247114, -11.327768130864156 ], [ 27.296788422903234, -11.326712212313895 ], [ 27.295454513812114, -11.325521522734626 ], [ 27.294245298653919, -11.324207530676427 ], [ 27.293172422600222, -11.322782892175926 ], [ 27.29224621717383, -11.321261328811008 ], [ 27.291475600783915, -11.319657495495743 ], [ 27.290867992893165, -11.317986839290596 ], [ 27.290429242641292, -11.316265450590139 ], [ 27.290163572609284, -11.314509908123052 ], [ 27.290073538262444, -11.312737119258767 ], [ 27.290160003458418, -11.310964157159928 ], [ 27.290422132251685, -11.309208096349659 ], [ 27.290857397068564, -11.307485848277459 ], [ 27.291461603169274, -11.305813998467476 ], [ 27.292228929156845, -11.304208646816583 ], [ 27.2931519831385, -11.302685252579472 ], [ 27.294221873994921, -11.301258485532214 ], [ 27.295428297067911, -11.29994208474583 ], [ 27.296759633438921, -11.298748726328244 ], [ 27.298203061840862, -11.297689901405871 ], [ 27.299744682124878, -11.296775805517761 ], [ 27.30136964909337, -11.296015240485435 ], [ 27.303062315411673, -11.295415529700801 ], [ 27.304806382224232, -11.294982447646301 ], [ 27.306585056027664, -11.29472016432409 ], [ 27.30838121029349, -11.294631205127649 ], [ 27.310177550288223, -11.294716426541553 ], [ 27.311956779507934, -11.294975007902231 ], [ 27.313701766129189, -11.295404459298982 ], [ 27.315395707878007, -11.296000645539001 ], [ 27.317022293733753, -11.296757825946512 ], [ 27.318565860914774, -11.297668709613246 ], [ 27.320011545637847, -11.29872452556981 ], [ 27.321345426202527, -11.299915107203798 ], [ 27.322554657024906, -11.301228990113399 ], [ 27.323627592331437, -11.302653522456513 ], [ 27.324553898322272, -11.304174986734816 ], [ 27.325324652723594, -11.305778731842086 ], [ 27.325932430769008, -11.30744931410764 ], [ 27.326371376779864, -11.309170645978359 ], [ 27.326637260652259, -11.310926150909495 ], [ 27.32672751870313, -11.312698922974116 ] ] ] } },
{ "type": "Feature", "properties": { "group": "copper_zinc", "rank": 21, "prob": 0.49999868869781494, "strategy": "margin", "score": -1.3113021850585938e-06, "lon": 27.399843323078425, "lat": -11.437953124412825 }, "geometry": { "type": "Polygon", "coordinates": [ [ [ 27.418178119026969, -11.437927519498164 ], [ 27.418092432864768, -11.439700481252888 ], [ 27.417830995159587, -11.441456620254769 ], [ 27.417396320518531, -11.443179023578574 ], [ 27.416792592137782, -11.444851102894955 ], [ 27.416025621630041, -11.446456754249713 ], [ 27.415102793156592, -11.447980513188774 ], [ 27.414032992398049, -11.449407703733572 ], [ 27.412826521044618, -11.450724579770608 ], [ 27.411494997626864, -11.451918457491214 ], [ 27.410051245640396, -11.452977837604198 ], [ 27.408509170041274, -11.453892516141869 ], [ 27.406883623301656, -11.454653682789841 ], [ 27.405190262317031, -11.455254005791621 ], [ 27.403445397545127, -11.455687702607834 ], [ 27.401665835832357, -11.455950595647659 ], [ 27.399868718445106, -11.45604015253442 ], [ 27.39807135586998, -11.455955510515773 ], [ 27.39629106097858, -11.455697484782966 ], [ 27.394544982168409, -11.4552685606184 ], [ 27.392849938091722, -11.454672869447394 ], [ 27.39122225556876, -11.453916149025018 ], [ 27.389677612250686, -11.453005688142694 ], [ 27.388230885551462, -11.451950256388416 ], [ 27.386896009306607, -11.450760019638478 ], [ 27.385685839541903, -11.449446442097093 ], [ 27.384612030646228, -11.448022175829127 ], [ 27.383684923141647, -11.446500938852299 ], [ 27.382913444131336, -11.444897382965436 ], [ 27.382305021382724, -11.44322695258761 ], [ 27.381865511871123, -11.441505735970122 ], [ 27.381599145469021, -11.439750310215935 ], [ 27.381508484319628, -11.437977581600739 ], [ 27.381594398281745, -11.436204622734826 ], [ 27.38185605667779, -11.434448508134555 ], [ 27.382290936419636, -11.43272614978741 ], [ 27.382894846429206, -11.431054134294314 ], [ 27.383661968113895, -11.429448563156781 ], [ 27.38458491150277, -11.427924897746172 ], [ 27.385654786499085, -11.426497810446815 ], [ 27.386861288559718, -11.425181043404546 ], [ 27.38819279797405, -11.423987276239417 ], [ 27.389636491784586, -11.422928003994043 ], [ 27.391178467270962, -11.422013426490821 ], [ 27.392803875808276, -11.421252350161437 ], [ 27.394497065812093, -11.42065210329149 ], [ 27.39624173339536, -11.420218465494658 ], [ 27.398021079289531, -11.419955612093668 ], [ 27.399817970522005, -11.419866073941908 ], [ 27.401615105297179, -11.419950713071739 ], [ 27.403395179497679, -11.420208714402929 ], [ 27.405141053207032, -11.420637593590824 ], [ 27.406835915654892, -11.421233220938522 ], [ 27.408463447000919, -11.421989861143667 ], [ 27.41000797540358, -11.422900228497522 ], [ 27.411454627865062, -11.423955557006352 ], [ 27.412789473402754, -11.425145684761523 ], [ 27.413999657170923, -11.42645915174743 ], [ 27.415073524242558, -11.427883310147791 ], [ 27.416000731859913, -11.429404446090185 ], [ 27.416772349072534, -11.431007911658474 ], [ 27.417380942801955, -11.43267826590448 ], [ 27.417820649502168, -11.434399423502605 ], [ 27.418087231722836, -11.436154809617962 ], [ 27.418178119026969, -11.437927519498164 ] ] ] } },
{ "type": "Feature", "properties": { "group": "copper_zinc", "rank": 22, "prob": 0.49999862909317017, "strategy": "margin", "score": -1.3709068298339844e-06, "lon": 27.792871816602638, "lat": -11.449632098710479 }, "geometry": { "type": "Polygon", "coordinates": [ [ [ 27.811206025934993, -11.449581840121498 ], [ 27.811122792740441, -11.451354787921693 ], [ 27.810863790620719, -11.453111150646219 ], [ 27.810431510689931, -11.454834013322824 ], [ 27.809830113023601, -11.456506783297257 ], [ 27.809065386711001, -11.458113350050397 ], [ 27.80814469420709, -11.459638240383123 ], [ 27.807076900515916, -11.461066767473197 ], [ 27.805872287884061, -11.462385172367243 ], [ 27.804542456823061, -11.463580756542955 ], [ 27.803100214412218, -11.46464200426303 ], [ 27.801559450956582, -11.465558693540059 ], [ 27.799935006188068, -11.466321994641152 ], [ 27.798242526299383, -11.46692455518162 ], [ 27.796498313189456, -11.467360570985635 ], [ 27.794719167375121, -11.467625842029403 ], [ 27.792922226085459, -11.467717812926638 ], [ 27.791124798102132, -11.467635597564502 ], [ 27.789344196940934, -11.46737998765216 ], [ 27.787597573985948, -11.466953445098779 ], [ 27.785901753188195, -11.466360078294544 ], [ 27.784273068925611, -11.465605602523098 ], [ 27.782727208590224, -11.464697284887947 ], [ 27.781279061422588, -11.463643874284188 ], [ 27.779942575052615, -11.462455517091573 ], [ 27.778730621130997, -11.461143659403108 ], [ 27.777654871347014, -11.459720936732582 ], [ 27.776725685027476, -11.458201052265693 ], [ 27.775952009399219, -11.456598644829876 ], [ 27.775341293474462, -11.454929147856255 ], [ 27.774899416386347, -11.453208640694692 ], [ 27.774630630862056, -11.451453693715548 ], [ 27.774537522374189, -11.449681208691766 ], [ 27.774620984359728, -11.447908255999959 ], [ 27.77488020974064, -11.446151910209046 ], [ 27.775312698823015, -11.444429085640545 ], [ 27.775914283493766, -11.442756373484226 ], [ 27.776679167477131, -11.441149882037291 ], [ 27.777599982258955, -11.439625081604891 ], [ 27.778667858136124, -11.438196655554446 ], [ 27.77987250970369, -11.436878358956431 ], [ 27.781202334953836, -11.435682886171403 ], [ 27.782644527030563, -11.434621748655982 ], [ 27.784185197563136, -11.433705164162472 ], [ 27.785809510390614, -11.432941958396988 ], [ 27.787501824390716, -11.432339480080524 ], [ 27.789245844039513, -11.431903530229091 ], [ 27.791024776254776, -11.43163830633196 ], [ 27.792821492015921, -11.431546361963591 ], [ 27.794618691208225, -11.431628582217339 ], [ 27.796399069108194, -11.431884175196057 ], [ 27.798145482911568, -11.432310679641322 ], [ 27.799841116704894, -11.432903988627432 ], [ 27.801469643296716, -11.433658389092651 ], [ 27.803015381354204, -11.434566616827462 ], [ 27.80446344633588, -11.435619926391587 ], [ 27.805799893770182, -11.436808175288162 ], [ 27.807011853502694, -11.438119921585942 ], [ 27.808087653620827, -11.43954253405183 ], [ 27.809016932863454, -11.441062313735207 ], [ 27.809790740432753, -11.442664625835434 ], [ 27.810401622246093, -11.444334040585058 ], [ 27.810843692795316, -11.446054481794055 ], [ 27.811112691918645, -11.44780938162658 ], [ 27.811206025934993, -11.449581840121498 ] ] ] } },
{ "type": "Feature", "properties": { "group": "copper_zinc", "rank": 23, "prob": 0.49999856948852539, "strategy": "margin", "score": -1.430511474609375e-06, "lon": 27.605121178021253, "lat": -10.963635497665436 }, "geometry": { "type": "Polygon", "coordinates": [ [ [ 27.62342554615487, -10.963598616854993 ], [ 27.623341118462811, -10.965371630889319 ], [ 27.623081220593434, -10.967127930098773 ], [ 27.62264835244563, -10.968850600090983 ], [ 27.622046679917386, -10.970523050052101 ], [ 27.621281994896048, -10.972129172546754 ], [ 27.620361659577473, -10.973653498673166 ], [ 27.619294535646585, -10.97508134707792 ], [ 27.618090898998183, -10.97639896539393 ], [ 27.616762340816727, -10.977593662737275 ], [ 27.615321655966181, -10.978653931985153 ], [ 27.613782719764, -10.979569560654973 ], [ 27.612160354326093, -10.980331729314299 ], [ 27.610470185771103, -10.980933096572031 ], [ 27.608728493661058, -10.981367869829793 ], [ 27.606952054131142, -10.981631861110376 ], [ 27.605157978222799, -10.981722527424072 ], [ 27.603363546981075, -10.981638995282482 ], [ 27.601586044908721, -10.981382069123166 ], [ 27.599842593385617, -10.980954223563245 ], [ 27.598149985662491, -10.980359579556804 ], [ 27.596524525022613, -10.979603864685782 ], [ 27.59498186767421, -10.978694357967958 ], [ 27.593536871890581, -10.977639819714712 ], [ 27.592203454853774, -10.976450407115475 ], [ 27.59099445858304, -10.975137576364158 ], [ 27.589921526240733, -10.973713972271844 ], [ 27.588994990007709, -10.972193306431203 ], [ 27.588223771607655, -10.970590225108499 ], [ 27.587615296437381, -10.968920168137213 ], [ 27.587175422127899, -10.967199220174804 ], [ 27.586908382221615, -10.96544395575663 ], [ 27.58681674550451, -10.96367127964103 ], [ 27.586901391381026, -10.961898263984365 ], [ 27.587161501524353, -10.960141983914882 ], [ 27.58759456787805, -10.958419353089424 ], [ 27.588196416927179, -10.956746960816671 ], [ 27.5889612500008, -10.955140912315075 ], [ 27.589881699213493, -10.9536166736429 ], [ 27.590948898503434, -10.952188922792745 ], [ 27.592152569079829, -10.950871408382726 ], [ 27.593481118454381, -10.949676817303715 ], [ 27.594921752101563, -10.948616652594836 ], [ 27.596460596671637, -10.947701122721313 ], [ 27.598082833570064, -10.946939043318878 ], [ 27.599772841617892, -10.946337752348558 ], [ 27.601514347421308, -10.945903039477033 ], [ 27.603290582004782, -10.945639090360899 ], [ 27.605084442202845, -10.945548446369514 ], [ 27.606878655260076, -10.945631980133442 ], [ 27.608655945058448, -10.945888887152776 ], [ 27.610399198375642, -10.946316693545944 ], [ 27.612091629577868, -10.946911279863999 ], [ 27.613716942165471, -10.947666920741952 ], [ 27.615259485619777, -10.948576340005523 ], [ 27.616704406044377, -10.949630780704165 ], [ 27.618037789153224, -10.950820089397409 ], [ 27.619246794230907, -10.952132813884386 ], [ 27.620319777776608, -10.953556313437709 ], [ 27.621246405641763, -10.95507688048207 ], [ 27.622017752581307, -10.956679872547891 ], [ 27.622626388258734, -10.958349853231788 ], [ 27.623066448874827, -10.960070740807975 ], [ 27.623333693727524, -10.961825963061703 ], [ 27.62342554615487, -10.963598616854993 ] ] ] } },
{ "type": "Feature", "properties": { "group": "copper_zinc", "rank": 24, "prob": 0.49999850988388062, "strategy": "margin", "score": -1.4901161193847656e-06, "lon": 26.188130966795317, "lat": -10.829677126588418 }, "geometry": { "type": "Polygon", "coordinates": [ [ [ 26.206426405103013, -10.82972473993285 ], [ 26.206333639368918, -10.831497296937231 ], [ 26.206065567670279, -10.833252329326623 ], [ 26.205624768787143, -10.834972934526359 ], [ 26.205015485231471, -10.836642541259124 ], [ 26.204243582490463, -10.838245069170156 ], [ 26.203316492625312, -10.83976508373317 ], [ 26.20224314276534, -10.841187944943343 ], [ 26.201033869183295, -10.842499948363812 ], [ 26.199700317777641, -10.843688457164699 ], [ 26.198255331919018, -10.844742023881301 ], [ 26.196712828740967, -10.845650500716365 ], [ 26.195087665067007, -10.846405137321852 ], [ 26.193395494266969, -10.846998665116779 ], [ 26.191652615423557, -10.847425367326954 ], [ 26.189875816265019, -10.847681134070648 ], [ 26.188082211380234, -10.847763501958733 ], [ 26.186289077278694, -10.847671677826764 ], [ 26.184513685888245, -10.847406546370454 ], [ 26.182773138098799, -10.846970661610936 ], [ 26.181084198959674, -10.846368222272718 ], [ 26.179463136121932, -10.845605031312235 ], [ 26.177925563085623, -10.844688439988351 ], [ 26.176486288764799, -10.843627277015086 ], [ 26.175159174821754, -10.842431763480628 ], [ 26.173957002146235, -10.841113414354576 ], [ 26.172891347766516, -10.839684927533799 ], [ 26.171972473377778, -10.838160061497911 ], [ 26.171209226560467, -10.836553502754949 ], [ 26.170608955638254, -10.834880724355473 ], [ 26.170177438993019, -10.833157836839895 ], [ 26.169918829514362, -10.831401433055664 ], [ 26.169835614714835, -10.829628428340083 ], [ 26.169928592890713, -10.82785589760862 ], [ 26.170196865553443, -10.826100910917779 ], [ 26.170637846200066, -10.824380369086054 ], [ 26.171247285333536, -10.822710840955567 ], [ 26.172019311487897, -10.821108403860435 ], [ 26.172946487859235, -10.819588488836949 ], [ 26.174019883993861, -10.818165732064676 ], [ 26.175229161840701, -10.81685383396699 ], [ 26.176562675337404, -10.815665427326282 ], [ 26.178007582570142, -10.814611955681286 ], [ 26.179549969426926, -10.813703563175711 ], [ 26.181174983554396, -10.812948996916861 ], [ 26.182866977329706, -10.81235552278233 ], [ 26.184609658473111, -10.811928855484179 ], [ 26.186386246853875, -10.811673103562482 ], [ 26.188179635983179, -10.811590729836768 ], [ 26.189972557642911, -10.811682527695812 ], [ 26.191747748069236, -10.81194761345356 ], [ 26.193488114095178, -10.812383434845056 ], [ 26.195176897656502, -10.81298579558098 ], [ 26.196797837080904, -10.813748895725546 ], [ 26.198335323611044, -10.814665387509889 ], [ 26.199774551657246, -10.815726446045248 ], [ 26.201101661335532, -10.81692185425692 ], [ 26.202303871920041, -10.818240101222804 ], [ 26.203369604925669, -10.81966849297198 ], [ 26.204288595635695, -10.821193274678393 ], [ 26.2050519919995, -10.822799763074737 ], [ 26.205652439946434, -10.824472487813829 ], [ 26.206084154291649, -10.826195340417396 ], [ 26.206342974548047, -10.827951729379638 ], [ 26.206426405103013, -10.82972473993285 ] ] ] } },
{ "type": "Feature", "properties": { "group": "copper_zinc", "rank": 25, "prob": 0.49999821186065674, "strategy": "margin", "score": -1.7881393432617188e-06, "lon": 26.629988353893232, "lat": -11.049475657365996 }, "geometry": { "type": "Polygon", "coordinates": [ [ [ 26.648298717516024, -11.049497490828644 ], [ 26.648208435859381, -11.051270284102827 ], [ 26.647942681170072, -11.053025798990902 ], [ 26.647504009810895, -11.054747128383118 ], [ 26.64689664368256, -11.056417694124169 ], [ 26.646126429670169, -11.058021406700938 ], [ 26.64520078342639, -11.059542820233622 ], [ 26.644128618029153, -11.060967281275953 ], [ 26.642920258198028, -11.062281069989908 ], [ 26.641587340893345, -11.063471532332834 ], [ 26.640142703254089, -11.064527201982161 ], [ 26.638600258953407, -11.065437910820963 ], [ 26.636974864163157, -11.066194886918028 ], [ 26.635282174419743, -11.066790839056894 ], [ 26.633538493772107, -11.067220026997649 ], [ 26.631760617667759, -11.067478316793082 ], [ 26.629965671093661, -11.067563220625487 ], [ 26.628170943535007, -11.067473920778978 ], [ 26.626393722345931, -11.067211277516401 ], [ 26.624651126141575, -11.066777820784562 ], [ 26.622959939820714, -11.066177725828377 ], [ 26.621336452812269, -11.065416772949208 ], [ 26.619796302107584, -11.064502291796533 ], [ 26.618354321593596, -11.063443090730912 ], [ 26.617024399140877, -11.062249371940231 ], [ 26.615819342824839, -11.060932633129191 ], [ 26.614750757569656, -11.059505556730672 ], [ 26.613828933403216, -11.057981887708449 ], [ 26.613062746398512, -11.056376301130456 ], [ 26.612459573253936, -11.054704260789656 ], [ 26.612025220332757, -11.052981870236525 ], [ 26.611763867841937, -11.05122571765901 ], [ 26.611678029684182, -11.049452716105346 ], [ 26.611768529365609, -11.047679940589415 ], [ 26.612034492186478, -11.045924463647717 ], [ 26.612473353785624, -11.044203190931745 ], [ 26.613080884951525, -11.042532698418768 ], [ 26.613851232456774, -11.040929072807792 ], [ 26.614776975518637, -11.039407756636573 ], [ 26.615849197338537, -11.03798339960983 ], [ 26.617057571028599, -11.036669717568332 ], [ 26.618390459095902, -11.035479360455369 ], [ 26.619835025525038, -11.03442379054958 ], [ 26.621377359379416, -11.033513172134795 ], [ 26.623002608731575, -11.032756273667296 ], [ 26.624695123634215, -11.032160383380269 ], [ 26.626438606757414, -11.031731239136708 ], [ 26.62821627024443, -11.031472973204551 ], [ 26.630010997279065, -11.031388072484459 ], [ 26.631805506812903, -11.03147735457271 ], [ 26.63358251987038, -11.031739959888901 ], [ 26.635324925834748, -11.032173359944482 ], [ 26.637015947118044, -11.032773381672577 ], [ 26.638639300633638, -11.033534247585942 ], [ 26.640179354520257, -11.03444863137714 ], [ 26.641621278611613, -11.035507728427165 ], [ 26.64295118720543, -11.036701340545378 ], [ 26.644156272758892, -11.038017974126465 ], [ 26.645224929224227, -11.039444950781458 ], [ 26.646146863836982, -11.04096852937967 ], [ 26.646913196279787, -11.042574038328123 ], [ 26.647516544265134, -11.044246016817093 ], [ 26.647951094710724, -11.045968363673042 ], [ 26.648212659818842, -11.047724492387291 ], [ 26.648298717516024, -11.049497490828644 ] ] ] } }
]
}
