{
"type": "FeatureCollection",
"name": "tasking_bauxite",
"crs": { "type": "name", "properties": { "name": "urn:ogc:def:crs:OGC:1.3:CRS84" } },
"features": [
{ "type": "Feature", "properties": { "group": "bauxite", "rank": 1, "prob": 0.99999868869781494, "strategy": "top_prob", "score": 0.99999868869781494, "lon": 38.267103651504534, "lat": -4.7669355768412327 }, "geometry": { "type": "Polygon", "coordinates": [ [ [ 38.285137667311346, -4.766954573101948 ], [ 38.285048994969578, -4.768727804371015 ], [ 38.284787496818083, -4.770483777419507 ], [ 38.284355690010393, -4.772205580883636 ], [ 38.283757732001355, -4.773876632367569 ], [ 38.282999380550315, -4.775480838159532 ], [ 38.282087938305722, -4.777002748244953 ], [ 38.281032182503502, -4.778427705122867 ], [ 38.279842280455142, -4.779741984991722 ], [ 38.278529691638667, -4.78093292994348 ], [ 38.277107057335137, -4.781989069892312 ], [ 38.275588078873604, -4.78290023306243 ], [ 38.273987385657506, -4.783657643969896 ], [ 38.272320394244403, -4.784254007954303 ], [ 38.270603159837286, -4.784683581445099 ], [ 38.268852221619333, -4.784942227285445 ], [ 38.267084443423187, -4.785027454580523 ], [ 38.265316851271223, -4.784938442686002 ], [ 38.263566469353371, -4.784676049105946 ], [ 38.261850156024153, -4.784242801224086 ], [ 38.260184441400348, -4.783642871948743 ], [ 38.258585368125139, -4.782882039506147 ], [ 38.257068336833925, -4.781967631770569 ], [ 38.255647957811313, -4.780908455668002 ], [ 38.254337910269122, -4.7797147123342 ], [ 38.253150810600992, -4.778397898845487 ], [ 38.252098090882974, -4.776970697469442 ], [ 38.251189888789781, -4.775446853503171 ], [ 38.250434949986463, -4.773841042876808 ], [ 38.249840543934674, -4.772168730797727 ], [ 38.24941239392291, -4.77044602279792 ], [ 38.24915462199327, -4.768689509619319 ], [ 38.249069709293174, -4.766916107431344 ], [ 38.249158472232111, -4.765142894919709 ], [ 38.249420054670942, -4.763386948815186 ], [ 38.249851936217027, -4.76166517944612 ], [ 38.250449956543363, -4.759994167898094 ], [ 38.251208355495791, -4.758390006348165 ], [ 38.252119828600399, -4.756868143110709 ], [ 38.25317559743533, -4.755443233886351 ], [ 38.254365494188256, -4.754129000645345 ], [ 38.25567805958466, -4.752938099503844 ], [ 38.257100653243491, -4.751881998864074 ], [ 38.258619575397653, -4.750970868991202 ], [ 38.260220198807566, -4.750213484089561 ], [ 38.261887109598298, -4.749617137820179 ], [ 38.263604255665108, -4.749187573072824 ], [ 38.26535510121969, -4.748928926668329 ], [ 38.267122785990431, -4.748843689523195 ], [ 38.268890287545204, -4.748932682660282 ], [ 38.270640585175713, -4.749195049296365 ], [ 38.272356823766529, -4.749628263083154 ], [ 38.274022476073029, -4.750228152422584 ], [ 38.275621501846857, -4.750988940623141 ], [ 38.277138502278071, -4.751903301510748 ], [ 38.278558868267986, -4.752962429959757 ], [ 38.279868921105624, -4.754156126665712 ], [ 38.281056044193839, -4.75547289634417 ], [ 38.282108804556565, -4.756900058411157 ], [ 38.283017062957143, -4.758423869080191 ], [ 38.283772071566638, -4.760029653700733 ], [ 38.284366558240805, -4.761701948064796 ], [ 38.284794796592855, -4.763424647321166 ], [ 38.285052661185851, -4.765181161063916 ], [ 38.285137667311346, -4.766954573101948 ] ] ] } },
{ "type": "Feature", "properties": { "group": "bauxite", "rank": 2, "prob": 0.99999630451202393, "strategy": "top_prob", "score": 0.99999630451202393, "lon": 38.265167232059184, "lat": -4.8070974932288744 }, "geometry": { "type": "Polygon", "coordinates": [ [ [ 38.283202291721992, -4.807116700365238 ], [ 38.283113593832411, -4.808889927798697 ], [ 38.282852060311981, -4.81064589503499 ], [ 38.282420208644155, -4.812367690764161 ], [ 38.281822196706095, -4.81403873266177 ], [ 38.281063782768101, -4.815642927104416 ], [ 38.280152270073685, -4.817164824182196 ], [ 38.279096436532413, -4.818589766514272 ], [ 38.277906450201719, -4.819904030433707 ], [ 38.276593771370798, -4.821094958180505 ], [ 38.275171042189299, -4.822151079829077 ], [ 38.273651964903863, -4.823062223774735 ], [ 38.272051169875539, -4.823819614714063 ], [ 38.270384074650032, -4.824415958175028 ], [ 38.268666735439275, -4.824845510781652 ], [ 38.266915692446041, -4.825104135576103 ], [ 38.265147810523054, -4.825189341865171 ], [ 38.263380116702976, -4.825100309206841 ], [ 38.261629636166091, -4.824837895306236 ], [ 38.259913228227362, -4.824404627744932 ], [ 38.258247423924445, -4.823804679623871 ], [ 38.256648266772565, -4.823043829354728 ], [ 38.255131158221623, -4.822129404988083 ], [ 38.253710709305125, -4.821070213615245 ], [ 38.252400599910708, -4.819876456524488 ], [ 38.251213447028206, -4.818559630930191 ], [ 38.250160683244452, -4.81713241922197 ], [ 38.249252446654644, -4.815608566801574 ], [ 38.248497483250219, -4.814002749685172 ], [ 38.24790306272206, -4.812330433146569 ], [ 38.247474908488947, -4.810607722763784 ], [ 38.247217142623327, -4.808851209303822 ], [ 38.247132246203215, -4.807077808939878 ], [ 38.247221035469948, -4.805304600340087 ], [ 38.247482654019613, -4.803548660196454 ], [ 38.247914581101121, -4.801826898777775 ], [ 38.248512655939209, -4.800155897089962 ], [ 38.249271117846355, -4.798551747211171 ], [ 38.250182661735629, -4.797029897338743 ], [ 38.251238508498659, -4.795605003039444 ], [ 38.252428489569894, -4.794290786134334 ], [ 38.253741144862282, -4.793099902576675 ], [ 38.255163833130737, -4.7920438205939 ], [ 38.256682853700866, -4.791132710266354 ], [ 38.258283578391172, -4.790375345605529 ], [ 38.259950592358997, -4.789779020073592 ], [ 38.261667842515095, -4.789349476357512 ], [ 38.263418792079008, -4.789090851073471 ], [ 38.265186579788477, -4.789005634933488 ], [ 38.26695418223138, -4.789094648758145 ], [ 38.268704577739022, -4.789357035566086 ], [ 38.270420910264058, -4.789790268816891 ], [ 38.272086651666946, -4.79039017672815 ], [ 38.273685760849681, -4.791150982433433 ], [ 38.275202838205772, -4.792065359594719 ], [ 38.276623273900526, -4.793124502934781 ], [ 38.277933388554416, -4.794318213011212 ], [ 38.279120564975464, -4.795634994416369 ], [ 38.280173369672283, -4.797062166458802 ], [ 38.2810816629774, -4.798585985261093 ], [ 38.281836696719843, -4.800191776098999 ], [ 38.282431198505677, -4.801864074708583 ], [ 38.282859441793441, -4.803586776200822 ], [ 38.283117301088353, -4.80534329015038 ], [ 38.283202291721992, -4.807116700365238 ] ] ] } },
{ "type": "Feature", "properties": { "group": "bauxite", "rank": 3, "prob": 0.9999961256980896, "strategy": "top_prob", "score": 0.9999961256980896, "lon": 38.278674933357514, "lat": -4.8247515491184734 }, "geometry": { "type": "Polygon", "coordinates": [ [ [ 38.296710511821274, -4.824770467865548 ], [ 38.296621839658975, -4.82654370099028 ], [ 38.296360326635785, -4.828299676652083 ], [ 38.295928490031883, -4.830021483462795 ], [ 38.295330487573139, -4.83169253899346 ], [ 38.294572077432271, -4.833296749490779 ], [ 38.293660562810118, -4.83481866489076 ], [ 38.292604721629083, -4.836243627635744 ], [ 38.291414722015077, -4.837557913860978 ], [ 38.290102024380936, -4.838748865589582 ], [ 38.2886792710541, -4.8398050126622 ], [ 38.287160164511555, -4.840716183225852 ], [ 38.285559335395099, -4.841473601716824 ], [ 38.283892201578965, -4.842069973393431 ], [ 38.282174819648191, -4.842499554603473 ], [ 38.280423730219574, -4.842758208109133 ], [ 38.278655798596731, -4.842843442936343 ], [ 38.276888052295568, -4.842754438364219 ], [ 38.275137517007138, -4.842492051823847 ], [ 38.2734210525796, -4.842058810630373 ], [ 38.271755190600828, -4.8414588876286 ], [ 38.270155975147787, -4.840698060986896 ], [ 38.268638808237974, -4.83978365852777 ], [ 38.267218301472624, -4.838724487131915 ], [ 38.265908135301608, -4.837530747896452 ], [ 38.26472092726582, -4.836213937865863 ], [ 38.263668110486542, -4.83478673928269 ], [ 38.262759823571557, -4.833262897425723 ], [ 38.262004812997937, -4.831657088213358 ], [ 38.261410348910616, -4.829984776847588 ], [ 38.260982155146401, -4.82826206886111 ], [ 38.260724354155847, -4.82650555500236 ], [ 38.260639427351528, -4.824732151452734 ], [ 38.260728191262821, -4.82295893691508 ], [ 38.260989789724626, -4.821202988142129 ], [ 38.261421702173415, -4.819481215488723 ], [ 38.262019767968638, -4.817810200071173 ], [ 38.262778226503585, -4.816206034101254 ], [ 38.26368977271769, -4.814684165931794 ], [ 38.264745627474447, -4.813259251305412 ], [ 38.265935622126257, -4.811945012237691 ], [ 38.267248296450987, -4.810754104893268 ], [ 38.268671009016941, -4.809697997725846 ], [ 38.27019005891357, -4.808786861054869 ], [ 38.271790817675942, -4.808029469141572 ], [ 38.273457870133484, -4.807433115706274 ], [ 38.275175162827729, -4.807003543700175 ], [ 38.276926158571179, -4.806744890007388 ], [ 38.278693995660511, -4.806659645609172 ], [ 38.280461650212672, -4.806748631594219 ], [ 38.282212100062473, -4.807010991245734 ], [ 38.283928488645117, -4.807444198281894 ], [ 38.28559428728741, -4.808044081170546 ], [ 38.287193454346372, -4.808804863284845 ], [ 38.288710589664255, -4.809719218513442 ], [ 38.29013108285389, -4.810778341790694 ], [ 38.291441253987117, -4.811972033868648 ], [ 38.292628485332337, -4.813288799515056 ], [ 38.293681342872503, -4.81471595819304 ], [ 38.294589686433412, -4.816239766157338 ], [ 38.295344767361122, -4.817845548792033 ], [ 38.295939312807029, -4.8195178419165 ], [ 38.296367595807766, -4.82124054069904 ], [ 38.296625490483464, -4.822997054744918 ], [ 38.296710511821274, -4.824770467865548 ] ] ] } },
{ "type": "Feature", "properties": { "group": "bauxite", "rank": 4, "prob": 0.99999594688415527, "strategy": "top_prob", "score": 0.99999594688415527, "lon": 38.286248733581687, "lat": -4.8258450690368724 }, "geometry": { "type": "Polygon", "coordinates": [ [ [ 38.304284370586942, -4.825863790865735 ], [ 38.304195717391941, -4.827637027763372 ], [ 38.303934222600013, -4.829393009060819 ], [ 38.303502403314837, -4.831114823317642 ], [ 38.302904417094197, -4.832785888034984 ], [ 38.302146021952844, -4.834390109372626 ], [ 38.301234520945272, -4.835912037163411 ], [ 38.300178691860751, -4.837337013731222 ], [ 38.298988702706531, -4.838651315078654 ], [ 38.297676013792561, -4.839842283083247 ], [ 38.296253267360193, -4.840898447428531 ], [ 38.294734165818042, -4.841809636094405 ], [ 38.293133339758029, -4.842567073341679 ], [ 38.291466207023475, -4.843163464246556 ], [ 38.289748824187889, -4.843593064969904 ], [ 38.287997731876075, -4.843851738084019 ], [ 38.286229795419061, -4.843936992423902 ], [ 38.284462042379431, -4.843848007078609 ], [ 38.28271149851367, -4.843585639291948 ], [ 38.280995023753455, -4.843152416196459 ], [ 38.279329149787465, -4.842552510460834 ], [ 38.277729920809712, -4.841791700085609 ], [ 38.276212738969818, -4.840877312735404 ], [ 38.274792216014845, -4.83981815514453 ], [ 38.2734820325527, -4.838624428276699 ], [ 38.272294806292997, -4.837307629057227 ], [ 38.271241970534611, -4.835880439624902 ], [ 38.270333664070066, -4.834356605171166 ], [ 38.269578633566461, -4.83275080154426 ], [ 38.268984149362097, -4.831078493893862 ], [ 38.268555935488678, -4.829355787718645 ], [ 38.268298114591111, -4.827599273751562 ], [ 38.268213168274031, -4.825825868177143 ], [ 38.268301913254611, -4.824052649719876 ], [ 38.268563493549543, -4.822296695172358 ], [ 38.268995388769319, -4.820574914947039 ], [ 38.269593438438051, -4.818903890234967 ], [ 38.270351882102695, -4.817299713338975 ], [ 38.271263414844043, -4.815777832718359 ], [ 38.272319257653308, -4.814352904236508 ], [ 38.273509241995804, -4.813038650042913 ], [ 38.2748219077465, -4.811847726447942 ], [ 38.276244613554184, -4.810791602061424 ], [ 38.27776365857143, -4.809880447367867 ], [ 38.279364414378549, -4.809123036800925 ], [ 38.281031465831973, -4.80852666425908 ], [ 38.282748759481798, -4.808097072875789 ], [ 38.284499758130593, -4.80783839971982 ], [ 38.28626760004672, -4.807753135957777 ], [ 38.288035261300763, -4.8078421028627 ], [ 38.289785719663506, -4.808104443899425 ], [ 38.291502118489106, -4.808537632963405 ], [ 38.293167929007012, -4.809137498693755 ], [ 38.294767109461468, -4.809898264627325 ], [ 38.296284259567607, -4.810812604807356 ], [ 38.29770476879785, -4.811871714312261 ], [ 38.299014957071734, -4.813065394026256 ], [ 38.300202206494724, -4.814382148836112 ], [ 38.301255082877809, -4.815809298309675 ], [ 38.302163445867258, -4.817333098791101 ], [ 38.302918546623772, -4.818938875737683 ], [ 38.303513112109243, -4.820611165025053 ], [ 38.303941415168417, -4.822333861860217 ], [ 38.304199329728995, -4.824090375869158 ], [ 38.304284370586942, -4.825863790865735 ] ] ] } },
{ "type": "Feature", "properties": { "group": "bauxite", "rank": 5, "prob": 0.99999570846557617, "strategy": "top_prob", "score": 0.99999570846557617, "lon": 38.301973171928836, "lat": -4.7930244069209946 }, "geometry": { "type": "Polygon", "coordinates": [ [ [ 38.320008006064747, -4.793042586869229 ], [ 38.319919409623054, -4.794815833955321 ], [ 38.319657978801636, -4.796571830551581 ], [ 38.319226230095673, -4.798293665075808 ], [ 38.318628320389251, -4.799964754840008 ], [ 38.317870006964561, -4.801569005769051 ], [ 38.316958592091531, -4.803090967417109 ], [ 38.315902852730289, -4.804515981788079 ], [ 38.314712956022412, -4.805830324526102 ], [ 38.313400361383955, -4.807021337115033 ], [ 38.311977710142976, -4.808077548813085 ], [ 38.310458703784342, -4.808988787147152 ], [ 38.308857971974987, -4.8097462759016 ], [ 38.307190931641202, -4.810342719657251 ], [ 38.305473638456611, -4.810772374065419 ], [ 38.303722632172338, -4.811031101179589 ], [ 38.301954777280763, -4.811116409311765 ], [ 38.300187100549294, -4.811027477028969 ], [ 38.298436626990764, -4.810765161059119 ], [ 38.296720215852183, -4.810331988030157 ], [ 38.295054398203483, -4.809732130122566 ], [ 38.293455217692014, -4.808971364869957 ], [ 38.291938075998232, -4.808057019496095 ], [ 38.290517584482167, -4.806997900324954 ], [ 38.289207423450591, -4.805804207944625 ], [ 38.288020210400639, -4.804487438943371 ], [ 38.286967378509374, -4.80306027516491 ], [ 38.28605906653906, -4.801536461550585 ], [ 38.285304021218145, -4.799930673746068 ], [ 38.284709513037001, -4.798258376747987 ], [ 38.284281266268202, -4.796535675953011 ], [ 38.284023403883779, -4.794779162044068 ], [ 38.283938407898056, -4.793005751208076 ], [ 38.284027095516194, -4.791232522224183 ], [ 38.284288611316079, -4.789476551991231 ], [ 38.284720435536897, -4.787754751078298 ], [ 38.285318408392541, -4.786083700881712 ], [ 38.286076770174034, -4.784479493956045 ], [ 38.286988216753137, -4.782957579056097 ], [ 38.288043969951254, -4.781532612381469 ], [ 38.289233862095074, -4.780218316455077 ], [ 38.290546433943938, -4.779027347994122 ], [ 38.291969045045583, -4.777971176044578 ], [ 38.293487995457653, -4.777059971552033 ], [ 38.295088657663236, -4.776302509431616 ], [ 38.296755617410845, -4.775706084078969 ], [ 38.298472822123763, -4.775276439135564 ], [ 38.300223735450778, -4.77501771218419 ], [ 38.301991496471793, -4.774932394906582 ], [ 38.303759082026808, -4.77502130908718 ], [ 38.30550947060685, -4.775283598693716 ], [ 38.307225806230562, -4.775716738111378 ], [ 38.308891560730039, -4.776316556451349 ], [ 38.310490692884706, -4.777077277700575 ], [ 38.312007802872444, -4.777991576326325 ], [ 38.313428280551634, -4.779050647801119 ], [ 38.314738446147288, -4.780244293369816 ], [ 38.315925681986847, -4.781561018243097 ], [ 38.31697855401746, -4.782988142273059 ], [ 38.317886921934338, -4.784511922045864 ], [ 38.318642036859039, -4.78611768321636 ], [ 38.319236625626345, -4.787789961811439 ], [ 38.319664960866803, -4.789512653141658 ], [ 38.319922916208483, -4.791269166887809 ], [ 38.320008006064747, -4.793042586869229 ] ] ] } },
{ "type": "Feature", "properties": { "group": "bauxite", "rank": 6, "prob": 0.99999558925628662, "strategy": "top_prob", "score": 0.99999558925628662, "lon": 38.251073495857504, "lat": -4.8312347188983811 }, "geometry": { "type": "Polygon", "coordinates": [ [ [ 38.269109134713752, -4.83125439703635 ], [ 38.269020388051523, -4.83302761540326 ], [ 38.268758800623296, -4.834783569131041 ], [ 38.268326890426344, -4.836505347035057 ], [ 38.267728815897385, -4.838176366957448 ], [ 38.266970335906812, -4.839780535481269 ], [ 38.266058754333038, -4.841302402941132 ], [ 38.26500284974933, -4.842727312236632 ], [ 38.263812790899166, -4.844041540014662 ], [ 38.262500038773474, -4.8452324288596 ], [ 38.26107723623246, -4.846288509217581 ], [ 38.259558086235074, -4.847199609879564 ], [ 38.257957219849374, -4.847956955957928 ], [ 38.256290055315716, -4.848553253412637 ], [ 38.254572649521322, -4.84898275931176 ], [ 38.252821543318092, -4.849241337149237 ], [ 38.251053602175169, -4.849326496686927 ], [ 38.24928585370273, -4.8492374179367 ], [ 38.247535323613747, -4.848974959051865 ], [ 38.245818871705744, -4.848541648051995 ], [ 38.244153029443929, -4.847941658461449 ], [ 38.2425538407118, -4.847180769096461 ], [ 38.241036707264598, -4.846266308389218 ], [ 38.239616240375256, -4.845207083785814 ], [ 38.238306120102607, -4.844013296898883 ], [ 38.237118963537924, -4.842696445233445 ], [ 38.236066203298805, -4.841269211433108 ], [ 38.235157977440522, -4.839745341114393 ], [ 38.234403031844366, -4.838139510466888 ], [ 38.233808636022317, -4.836467184894743 ], [ 38.233380513147381, -4.834744470062 ], [ 38.233122784982136, -4.832987956776559 ], [ 38.233037932233827, -4.83121456120709 ], [ 38.233126770716055, -4.82944136197191 ], [ 38.233388443544548, -4.827685435668544 ], [ 38.233820429440136, -4.825963692427723 ], [ 38.234418567057062, -4.824292713075216 ], [ 38.235177095100504, -4.822688589468897 ], [ 38.236088707845376, -4.821166769547991 ], [ 38.23714462552055, -4.819741908586017 ], [ 38.238334678879433, -4.818427728078643 ], [ 38.239647407142122, -4.817236883624917 ], [ 38.241070168365468, -4.816180843072762 ], [ 38.242589261178324, -4.815269776101514 ], [ 38.244190056710195, -4.814512456304073 ], [ 38.245857139443615, -4.813916176710512 ], [ 38.247574455634883, -4.813486679566367 ], [ 38.249325467875508, -4.813228101041256 ], [ 38.251093314307262, -4.813142931399736 ], [ 38.252860970959702, -4.813231991018228 ], [ 38.254611415648412, -4.813494422478644 ], [ 38.256327791857764, -4.813927698815315 ], [ 38.257993571031605, -4.814527647835968 ], [ 38.259592711710887, -4.815288492283451 ], [ 38.261109813986991, -4.816202905451728 ], [ 38.262530267784882, -4.817262081721606 ], [ 38.263840393548833, -4.81845582133788 ], [ 38.265027573976525, -4.819772628612111 ], [ 38.266080375533328, -4.821199822606625 ], [ 38.266988658576153, -4.822723659234612 ], [ 38.267743675026132, -4.824329463601202 ], [ 38.268338152648425, -4.826001771312203 ], [ 38.268766365126467, -4.827724477389972 ], [ 38.269024187254303, -4.829480991363052 ], [ 38.269109134713752, -4.83125439703635 ] ] ] } },
{ "type": "Feature", "properties": { "group": "bauxite", "rank": 7, "prob": 0.99999535083770752, "strategy": "top_prob", "score": 0.99999535083770752, "lon": 38.294378477576984, "lat": -4.8125559597852776 }, "geometry": { "type": "Polygon", "coordinates": [ [ [ 38.312413795746863, -4.812574414822018 ], [ 38.312325170133157, -4.814347656750825 ], [ 38.312063705742794, -4.816103645596746 ], [ 38.31163191938959, -4.817825469849378 ], [ 38.311033968316373, -4.81949654691649 ], [ 38.310275610200833, -4.821100782841862 ], [ 38.309364147741469, -4.822622727320721 ], [ 38.308308358356037, -4.824047722518928 ], [ 38.307118409668327, -4.825362044262073 ], [ 38.305805761596638, -4.826553034233314 ], [ 38.304383055986293, -4.827609221906224 ], [ 38.302863994849481, -4.828520435037127 ], [ 38.301263208385173, -4.829277897651743 ], [ 38.299596114051205, -4.829874314581931 ], [ 38.297878768046886, -4.8303039417373 ], [ 38.296127710637919, -4.830562641434423 ], [ 38.294359806814938, -4.830647922250627 ], [ 38.292592083822292, -4.830558963017873 ], [ 38.2908415671236, -4.830296620726028 ], [ 38.289125116385982, -4.829863422259362 ], [ 38.287459263064562, -4.829263540046503 ], [ 38.285860051153115, -4.828502751858506 ], [ 38.284342882636309, -4.827588385143446 ], [ 38.282922369133196, -4.826529246434219 ], [ 38.281612191161777, -4.825335536510272 ], [ 38.280424966380728, -4.824018752131704 ], [ 38.27937212807737, -4.822591575292788 ], [ 38.278463815072044, -4.821067751062599 ], [ 38.277708774098649, -4.8194619551904 ], [ 38.277114275600489, -4.81778965275123 ], [ 38.276686043751283, -4.816066949194195 ], [ 38.276428201373463, -4.814310435228202 ], [ 38.276343230282784, -4.812537027039439 ], [ 38.276431947438958, -4.810763803379681 ], [ 38.276693497130147, -4.809007841094095 ], [ 38.277125359264481, -4.807286050672383 ], [ 38.277723373686896, -4.805615013406676 ], [ 38.27848178028524, -4.804010821723647 ], [ 38.279393274497842, -4.802488924227861 ], [ 38.28044907768669, -4.801063976947924 ], [ 38.281639021697515, -4.799749702216776 ], [ 38.282951646791787, -4.79855875654461 ], [ 38.284374312007145, -4.797502608755469 ], [ 38.285893316883786, -4.796591429560315 ], [ 38.287494033384782, -4.795833993629294 ], [ 38.289161046740944, -4.795237595105116 ], [ 38.290878303864893, -4.794807977370836 ], [ 38.292629267906555, -4.794549277747832 ], [ 38.294397077463344, -4.794463987655934 ], [ 38.296164708913501, -4.794552928619638 ], [ 38.29791514031136, -4.794815244351144 ], [ 38.299631515267841, -4.795248408986882 ], [ 38.301297305240055, -4.795848251398329 ], [ 38.302896468668706, -4.796608995343979 ], [ 38.304413605432281, -4.797523315075959 ], [ 38.305834105132, -4.798582405866914 ], [ 38.307144287780311, -4.799776068778867 ], [ 38.308331535538805, -4.80109280885836 ], [ 38.309384414237151, -4.802519945813514 ], [ 38.310292783502653, -4.804043736107958 ], [ 38.311047894439369, -4.805649505296568 ], [ 38.311642473915327, -4.807321789329736 ], [ 38.312070794644896, -4.809044483465684 ], [ 38.31232873039, -4.81080099735756 ], [ 38.312413795746863, -4.812574414822018 ] ] ] } },
{ "type": "Feature", "properties": { "group": "bauxite", "rank": 8, "prob": 0.99999535083770752, "strategy": "top_prob", "score": 0.99999535083770752, "lon": 38.281383404010711, "lat": -4.8217692522666793 }, "geometry": { "type": "Polygon", "coordinates": [ [ [ 38.299418914435222, -4.821788087461156 ], [ 38.299330250760342, -4.823561322176812 ], [ 38.299068746802796, -4.825317300218317 ], [ 38.298636919756014, -4.827039110175448 ], [ 38.298038927254204, -4.828710169589812 ], [ 38.297280527374369, -4.830314384671559 ], [ 38.296369023218446, -4.831836305313344 ], [ 38.295313192607779, -4.833261273907757 ], [ 38.294123203565967, -4.834575566534319 ], [ 38.292810516403357, -4.835766525154988 ], [ 38.291387773345683, -4.83682267954436 ], [ 38.289868676770062, -4.837733857779166 ], [ 38.288267857221221, -4.838491284221809 ], [ 38.286600732480132, -4.839087664053862 ], [ 38.284883359043285, -4.839517253544246 ], [ 38.283132277444579, -4.839775915374918 ], [ 38.28136435291119, -4.839861158491022 ], [ 38.279596612889847, -4.839772162091125 ], [ 38.27784608301036, -4.839509783526812 ], [ 38.276129623068208, -4.839076550035559 ], [ 38.274463764607702, -4.838476634387128 ], [ 38.272864551671773, -4.837715814678213 ], [ 38.271347386253723, -4.836801418663764 ], [ 38.269926879940726, -4.835742253161678 ], [ 38.268616713178766, -4.834548519211705 ], [ 38.267429503515132, -4.833231713806947 ], [ 38.266376684087618, -4.831804519145058 ], [ 38.265468393530504, -4.8302806804669 ], [ 38.264713378357023, -4.828674873660255 ], [ 38.26411890875751, -4.827002563904112 ], [ 38.263690708623024, -4.825279856716004 ], [ 38.263432900466547, -4.823523342837161 ], [ 38.263347965770727, -4.821749938449787 ], [ 38.263436721141815, -4.819976722265514 ], [ 38.263698310497738, -4.818220771053736 ], [ 38.264130213363231, -4.816498995193637 ], [ 38.264728269190428, -4.814827975833273 ], [ 38.265486717468768, -4.813223805223245 ], [ 38.266398253236389, -4.811701931761871 ], [ 38.267454097457112, -4.81027701124345 ], [ 38.268644081584327, -4.808962765740922 ], [ 38.269956745496543, -4.807771851481383 ], [ 38.27137944786152, -4.806715736985459 ], [ 38.272898487865959, -4.805804592643343 ], [ 38.274499237139104, -4.805047192790149 ], [ 38.276166280600663, -4.804450831222488 ], [ 38.277883564877655, -4.804021250969544 ], [ 38.279634552862547, -4.803762588994378 ], [ 38.281402382925698, -4.803677336357393 ], [ 38.283170031250819, -4.803766314225906 ], [ 38.28492047573193, -4.804028665960484 ], [ 38.286636859855356, -4.804461865354699 ], [ 38.288302654990467, -4.805061740949125 ], [ 38.289901819527898, -4.805822516186313 ], [ 38.291418953334272, -4.806736865020347 ], [ 38.29283944603722, -4.80779598244644 ], [ 38.294149617713792, -4.808989669272378 ], [ 38.295336850627841, -4.81030643031601 ], [ 38.296389710748045, -4.811733585084454 ], [ 38.297298057876354, -4.813257389869929 ], [ 38.298053143325532, -4.814863170087134 ], [ 38.298647694204575, -4.816535461578892 ], [ 38.299075983498909, -4.818258159529559 ], [ 38.299333885269171, -4.820014673552899 ], [ 38.299418914435222, -4.821788087461156 ] ] ] } },
{ "type": "Feature", "properties": { "group": "bauxite", "rank": 9, "prob": 0.99999529123306274, "strategy": "top_prob", "score": 0.99999529123306274, "lon": 38.254068618273436, "lat": -4.8135984941036671 }, "geometry": { "type": "Polygon", "coordinates": [ [ [ 38.272103804111566, -4.813618021230784 ], [ 38.27201507435322, -4.815391242427046 ], [ 38.271753508038202, -4.817147200404249 ], [ 38.271321622964976, -4.818868983938358 ], [ 38.270723577332276, -4.820540010819188 ], [ 38.26996512973551, -4.822144187564976 ], [ 38.269053583743613, -4.823666064433575 ], [ 38.267997717588756, -4.825090984236509 ], [ 38.266807699644943, -4.826405223522054 ], [ 38.265494990508763, -4.827596124766259 ], [ 38.264072232625061, -4.828652218298193 ], [ 38.262553128520445, -4.829563332784008 ], [ 38.26095230881787, -4.830320693204703 ], [ 38.259285191304279, -4.830917005383457 ], [ 38.257567832409663, -4.83134652624742 ], [ 38.25581677252945, -4.831605119146803 ], [ 38.254048876681651, -4.831690293698309 ], [ 38.252281172035161, -4.831601229768607 ], [ 38.250530683876043, -4.831338785367185 ], [ 38.248814271593488, -4.830905488372622 ], [ 38.247148466267106, -4.830305512172497 ], [ 38.245549311421385, -4.82954463545189 ], [ 38.24403220848275, -4.828630186518797 ], [ 38.242611768428709, -4.827570972703374 ], [ 38.24130167105907, -4.826377195511791 ], [ 38.24011453324492, -4.825060352353197 ], [ 38.239061787424625, -4.823633125786936 ], [ 38.238153571516868, -4.822109261357785 ], [ 38.237398631310242, -4.820503435196872 ], [ 38.23680423626864, -4.818831112663795 ], [ 38.236376109561974, -4.817108399392449 ], [ 38.236118372994511, -4.8153518861753 ], [ 38.236033507359444, -4.813578489180473 ], [ 38.236122328599514, -4.811805287040616 ], [ 38.236383980001378, -4.810049356382313 ], [ 38.236815940496712, -4.808327607379757 ], [ 38.237414048988384, -4.806656620916104 ], [ 38.238172544465336, -4.805052488919902 ], [ 38.239084121518616, -4.803530659413603 ], [ 38.240140000722391, -4.802105787765575 ], [ 38.2413300132012, -4.800791595576974 ], [ 38.242642698568453, -4.799600738561844 ], [ 38.244065415292738, -4.798544684691417 ], [ 38.245584462429193, -4.79763360377537 ], [ 38.247185211544092, -4.796876269542636 ], [ 38.248852247563157, -4.79627997516365 ], [ 38.250569517188183, -4.795850463027224 ], [ 38.252320483454312, -4.795591869447755 ], [ 38.254088284941076, -4.79550668483467 ], [ 38.255855898105821, -4.795595729707968 ], [ 38.257606301178086, -4.79585814679048 ], [ 38.259322638038519, -4.796291409253485 ], [ 38.260988380505943, -4.796891345036427 ], [ 38.262587487471478, -4.797652177007442 ], [ 38.264104559348745, -4.79856657857823 ], [ 38.265524986353867, -4.799625744238745 ], [ 38.266835089188532, -4.800819474333384 ], [ 38.268022250771629, -4.802136273262906 ], [ 38.269075037751342, -4.803563460167666 ], [ 38.269983310627275, -4.805087291027055 ], [ 38.270738321421575, -4.806693091000013 ], [ 38.271332797957704, -4.808365395733327 ], [ 38.271761013933947, -4.810088100277142 ], [ 38.272018844115479, -4.811844614174379 ], [ 38.272103804111566, -4.813618021230784 ] ] ] } },
{ "type": "Feature", "properties": { "group": "bauxite", "rank": 10, "prob": 0.99999523162841797, "strategy": "top_prob", "score": 0.99999523162841797, "lon": 38.279553329841278, "lat": -4.7609783965544041 }, "geometry": { "type": "Polygon", "coordinates": [ [ [ 38.297587239828893, -4.760997042850091 ], [ 38.297498602185783, -4.762770280907616 ], [ 38.297237139437222, -4.764526264050438 ], [ 38.29680536839637, -4.766248080821159 ], [ 38.296207446173412, -4.767919148699276 ], [ 38.295449130182107, -4.769523373818365 ], [ 38.294537722727739, -4.77104530598058 ], [ 38.293482000708849, -4.772470287474717 ], [ 38.292292131108674, -4.773784594263954 ], [ 38.290979573089388, -4.774975568182145 ], [ 38.289556967631782, -4.776031738864964 ], [ 38.288038015783236, -4.776942934240391 ], [ 38.286437346686981, -4.777700378513394 ], [ 38.284770376664497, -4.778296776700624 ], [ 38.283053160709244, -4.778726384899943 ], [ 38.281302237823567, -4.778985065617523 ], [ 38.279534471689814, -4.779070327619532 ], [ 38.277766888212192, -4.778981349923976 ], [ 38.276016511495769, -4.778718989701979 ], [ 38.274300199844419, -4.778285774012417 ], [ 38.272634483358956, -4.777685875450096 ], [ 38.27103540470145, -4.776925071942236 ], [ 38.269518364560788, -4.776010691081585 ], [ 38.26809797330916, -4.774951539532949 ], [ 38.266787910279028, -4.773757818193817 ], [ 38.265600792016571, -4.772441023927539 ], [ 38.264548050780583, -4.771013838816113 ], [ 38.263639824456867, -4.76949000800025 ], [ 38.26288485894775, -4.767884207284381 ], [ 38.262290423975863, -4.766211901782043 ], [ 38.261862243111736, -4.764489196964096 ], [ 38.261604438697738, -4.762732683544549 ], [ 38.261519492196761, -4.760959277698269 ], [ 38.261608220345813, -4.75918605814962 ], [ 38.26186976734212, -4.757430101700728 ], [ 38.262301613134937, -4.755708318783159 ], [ 38.262899597741388, -4.754037290616459 ], [ 38.263657961350361, -4.75243310954096 ], [ 38.264569399826648, -4.750911224061944 ], [ 38.265625135079553, -4.749486290096602 ], [ 38.266814999617267, -4.748172029855254 ], [ 38.268127534472157, -4.746981099715233 ], [ 38.269550099553619, -4.745924968358498 ], [ 38.27106899536593, -4.745013806345789 ], [ 38.272669594919265, -4.744256388190026 ], [ 38.274336484564678, -4.743660007870885 ], [ 38.276053612397519, -4.743230408603845 ], [ 38.277804442801951, -4.742971727539472 ], [ 38.27957211564965, -4.742886455924923 ], [ 38.281339608621316, -4.7429754151116 ], [ 38.283089901089966, -4.743237748639662 ], [ 38.284806137989349, -4.743670930476064 ], [ 38.286471792091326, -4.744270789326963 ], [ 38.288070823131171, -4.745031548791227 ], [ 38.289587832249921, -4.745945882968675 ], [ 38.291008210267549, -4.747004986988513 ], [ 38.292318278360156, -4.748198661779759 ], [ 38.293505419787024, -4.749515412267867 ], [ 38.294558201399163, -4.750942558053215 ], [ 38.295466483759128, -4.752466355506368 ], [ 38.296221518811151, -4.754072130105003 ], [ 38.296816034160123, -4.755744417739256 ], [ 38.297244303146648, -4.757467113624928 ], [ 38.297502200041862, -4.759223627391272 ], [ 38.297587239828893, -4.760997042850091 ] ] ] } },
{ "type": "Feature", "properties": { "group": "bauxite", "rank": 11, "prob": 0.50000882148742676, "strategy": "margin", "score": -8.8214874267578125e-06, "lon": 38.327636615960635, "lat": -4.8299580431867648 }, "geometry": { "type": "Polygon", "coordinates": [ [ [ 38.345672518160917, -4.829975680537793 ], [ 38.345583969695504, -4.831748937638838 ], [ 38.345322576128083, -4.833504949402847 ], [ 38.34489085358291, -4.835226804106987 ], [ 38.344292958679517, -4.836897918872894 ], [ 38.343534648544839, -4.838502199387005 ], [ 38.342623225404886, -4.84002419491921 ], [ 38.34156746628809, -4.841449247145983 ], [ 38.340377538516321, -4.842763631344099 ], [ 38.339064901796561, -4.843954688593746 ], [ 38.33764219785597, -4.845010947717231 ], [ 38.33612312868307, -4.845922235777721 ], [ 38.334522324548246, -4.846679776072758 ], [ 38.332855203075397, -4.847276272678264 ], [ 38.33113782072305, -4.84770598072773 ], [ 38.329386718106889, -4.847964761749259 ], [ 38.327618760654957, -4.848050123527281 ], [ 38.325850976132052, -4.84796124410448 ], [ 38.324100390600229, -4.847698979693 ], [ 38.322383864397004, -4.847265856418809 ], [ 38.320717929713069, -4.84666604597925 ], [ 38.319118631335556, -4.845905325448448 ], [ 38.317601372092284, -4.844991021618831 ], [ 38.316180764486674, -4.843931940415382 ], [ 38.314870489953435, -4.842738282063342 ], [ 38.313683167091035, -4.841421542827641 ], [ 38.31263023014025, -4.839994404271139 ], [ 38.311721818879022, -4.838470611099279 ], [ 38.310966680993438, -4.836864838768781 ], [ 38.310372087864295, -4.835192552135797 ], [ 38.309943764578762, -4.833469856506012 ], [ 38.309685834839932, -4.831713342521408 ], [ 38.309600781302862, -4.829939926378038 ], [ 38.30968942171728, -4.828166686913865 ], [ 38.309950901104536, -4.826410701135364 ], [ 38.310382700042368, -4.824688879766764 ], [ 38.310980658975531, -4.823017804405363 ], [ 38.311739018316437, -4.821413567850425 ], [ 38.312650473948125, -4.819891619142742 ], [ 38.313706247593508, -4.818466614806394 ], [ 38.314896171372411, -4.817152277724207 ], [ 38.31620878573127, -4.815961265005356 ], [ 38.317631449802263, -4.814905046116237 ], [ 38.319150463129034, -4.8139937924475 ], [ 38.320751197587313, -4.813236279379947 ], [ 38.322418238230853, -4.812639801791318 ], [ 38.324135531707327, -4.812210103817313 ], [ 38.325886540816519, -4.811951323542639 ], [ 38.32765440372382, -4.811865953154155 ], [ 38.329422096297698, -4.811954814940083 ], [ 38.331172596009665, -4.812217053366051 ], [ 38.332889045820231, -4.812650143304695 ], [ 38.33455491647441, -4.813249914339744 ], [ 38.336154165645688, -4.814010590911365 ], [ 38.33767139239724, -4.814924847916457 ], [ 38.339091985474269, -4.815983881229474 ], [ 38.340402264000396, -4.817177492465587 ], [ 38.341589609223703, -4.818494187170495 ], [ 38.3426425860441, -4.819921285492636 ], [ 38.343551053151472, -4.821445044272749 ], [ 38.344306260713587, -4.823050789375771 ], [ 38.344900934672047, -4.824723056991882 ], [ 38.345329346833445, -4.826445742546209 ], [ 38.34558737007923, -4.828202255783966 ], [ 38.345672518160917, -4.829975680537793 ] ] ] } },
{ "type": "Feature", "properties": { "group": "bauxite", "rank": 12, "prob": 0.50002610683441162, "strategy": "margin", "score": -2.6106834411621094e-05, "lon": 38.260309180954657, "lat": -4.7965085012113873 }, "geometry": { "type": "Polygon", "coordinates": [ [ [ 38.278343942919541, -4.796527794416299 ], [ 38.2782552380284, -4.79830102008146 ], [ 38.277993700436973, -4.8000569847315 ], [ 38.277561847671215, -4.801778777080491 ], [ 38.27696383762212, -4.803449814836022 ], [ 38.276205428545005, -4.805054004414462 ], [ 38.275293923639502, -4.806575895953009 ], [ 38.274238100742807, -4.80800083212482 ], [ 38.27304812781199, -4.809315089323293 ], [ 38.271735465008874, -4.810506009854479 ], [ 38.270312754329801, -4.811562123863868 ], [ 38.26879369784367, -4.812473259822142 ], [ 38.267192925710987, -4.813230642504752 ], [ 38.265525855256151, -4.813826977521174 ], [ 38.263808542451059, -4.814256521578751 ], [ 38.262057527242199, -4.81451513780387 ], [ 38.260289674212231, -4.814600335587591 ], [ 38.258522010112713, -4.814511294571314 ], [ 38.256771559834583, -4.814248872541874 ], [ 38.255055182398152, -4.813815597160015 ], [ 38.253389408544002, -4.813215641602512 ], [ 38.251790281490962, -4.812454784352785 ], [ 38.250273202396095, -4.81154035352838 ], [ 38.248852782006622, -4.810481156282145 ], [ 38.247542699933256, -4.809287393957918 ], [ 38.246355572901081, -4.807970563819154 ], [ 38.245302833246903, -4.806543348297642 ], [ 38.24439461883312, -4.805019492830058 ], [ 38.243639675437798, -4.803413673459977 ], [ 38.243045272559961, -4.801741355480912 ], [ 38.242617133449869, -4.800018644482765 ], [ 38.242359380036348, -4.798262131236564 ], [ 38.242274493279922, -4.796488731911721 ], [ 38.242363289331749, -4.794715525164854 ], [ 38.242624911725677, -4.792959587668904 ], [ 38.243056839676839, -4.79123782966628 ], [ 38.243654912404914, -4.789566832129486 ], [ 38.244413369245876, -4.787962687096571 ], [ 38.245324905164537, -4.78644084271847 ], [ 38.246380741131887, -4.785015954509683 ], [ 38.247570708688549, -4.78370174423362 ], [ 38.248883347879257, -4.782510867781027 ], [ 38.250306017615046, -4.781454793312498 ], [ 38.251825017400456, -4.780543690837813 ], [ 38.253425719253947, -4.779786334294775 ], [ 38.255092708551928, -4.779190017069372 ], [ 38.256809932441307, -4.778760481770563 ], [ 38.258560854392584, -4.778501864935365 ], [ 38.260328613406919, -4.778416657196164 ], [ 38.262096186345744, -4.778505679294143 ], [ 38.263846551821352, -4.77876807416949 ], [ 38.265562854072371, -4.779201315204975 ], [ 38.267228565247542, -4.779801230543732 ], [ 38.268827644536742, -4.780562043247931 ], [ 38.270344692618465, -4.781476426911886 ], [ 38.271765099937305, -4.782535576195093 ], [ 38.273075187384826, -4.783729291596911 ], [ 38.27426233802943, -4.785046077657086 ], [ 38.275315118626906, -4.786473253637743 ], [ 38.276223389741418, -4.787997075621741 ], [ 38.276978403415931, -4.789602868852258 ], [ 38.27757288745061, -4.791275169040311 ], [ 38.2780011154764, -4.792997871279696 ], [ 38.278258962147511, -4.794754385135975 ], [ 38.278343942919541, -4.796527794416299 ] ] ] } },
{ "type": "Feature", "properties": { "group": "bauxite", "rank": 13, "prob": 0.50002974271774292, "strategy": "margin", "score": -2.9742717742919922e-05, "lon": 38.31878544246986, "lat": -4.7526055262782583 }, "geometry": { "type": "Polygon", "coordinates": [ [ [ 38.336819284701718, -4.752623113453595 ], [ 38.336730750873301, -4.754396371608409 ], [ 38.336469391650148, -4.756152384862323 ], [ 38.336037722847394, -4.757874241478875 ], [ 38.335439900587438, -4.759545358564131 ], [ 38.33468168131607, -4.761149641787048 ], [ 38.333770366399968, -4.762671640398108 ], [ 38.332714731837775, -4.764096696052381 ], [ 38.331524943760492, -4.765411084003127 ], [ 38.330212460534334, -4.766602145304778 ], [ 38.32878992240849, -4.767658408751487 ], [ 38.327271029770571, -4.768569701375722 ], [ 38.325670411182678, -4.769327246441662 ], [ 38.324003482469777, -4.769923747989107 ], [ 38.322286298218671, -4.770353461112646 ], [ 38.320535397119038, -4.770612247298732 ], [ 38.318767642638001, -4.770697614287539 ], [ 38.317000060564119, -4.770608740075072 ], [ 38.315249674987747, -4.770346480824722 ], [ 38.313533344299074, -4.769913362612026 ], [ 38.311867598785469, -4.769313557082734 ], [ 38.310268481393798, -4.768552841258829 ], [ 38.308751393193155, -4.767638541880724 ], [ 38.30733094502726, -4.766579464822287 ], [ 38.306020816786678, -4.765385810259335 ], [ 38.30483362565645, -4.764069074409938 ], [ 38.303780804608422, -4.762641938793463 ], [ 38.302872492308367, -4.761118148076111 ], [ 38.302117435497507, -4.759512377680373 ], [ 38.301522904787831, -4.757840092433952 ], [ 38.301094624680736, -4.756117397620481 ], [ 38.300836718481641, -4.754360883866864 ], [ 38.300751668639137, -4.752587467361464 ], [ 38.300840292888864, -4.750814226942215 ], [ 38.301101736429864, -4.749058239623372 ], [ 38.301533480206722, -4.747336416144717 ], [ 38.302131365215821, -4.745665338126724 ], [ 38.302889632599971, -4.7440610983991 ], [ 38.303800979143539, -4.742539146039863 ], [ 38.304856627632446, -4.741114137616512 ], [ 38.306046411400516, -4.739799796060728 ], [ 38.307358872247107, -4.738608778535148 ], [ 38.30878137078308, -4.737552554563329 ], [ 38.310300208142237, -4.736641295595802 ], [ 38.311900757886818, -4.735883777074983 ], [ 38.313567606837438, -4.735287293940959 ], [ 38.31528470347255, -4.734857590391519 ], [ 38.317035512469481, -4.734598804572283 ], [ 38.318803173900591, -4.73451342872898 ], [ 38.320570665553142, -4.734602285205881 ], [ 38.32232096681166, -4.734864518521158 ], [ 38.324037222526215, -4.735297603595947 ], [ 38.325702905290676, -4.735897370057968 ], [ 38.327301974569565, -4.736658042386576 ], [ 38.328819031142771, -4.737572295512856 ], [ 38.330239465381958, -4.73863132534037 ], [ 38.331549597931776, -4.739824933508356 ], [ 38.332736811441578, -4.741141625581688 ], [ 38.333789672079483, -4.742568721723277 ], [ 38.334698039658306, -4.744092478783924 ], [ 38.335453165312487, -4.745698222634546 ], [ 38.336047775784436, -4.747370489467555 ], [ 38.336476143507518, -4.749093174706931 ], [ 38.336734141809295, -4.7508496880937 ], [ 38.336819284701718, -4.752623113453595 ] ] ] } },
{ "type": "Feature", "properties": { "group": "bauxite", "rank": 14, "prob": 0.49996829032897949, "strategy": "margin", "score": -3.1709671020507812e-05, "lon": 38.217764242161934, "lat": -4.860505600336146 }, "geometry": { "type": "Polygon", "coordinates": [ [ [ 38.23580051762022, -4.860526288561886 ], [ 38.235711669222752, -4.862299486998159 ], [ 38.2354499748526, -4.864055411263076 ], [ 38.235017953531838, -4.865777150445574 ], [ 38.234419764764553, -4.867448122750514 ], [ 38.233661168520968, -4.869052235209711 ], [ 38.232749469801192, -4.870574038688643 ], [ 38.231693448311141, -4.871998876695103 ], [ 38.230503273926864, -4.873313026555973 ], [ 38.229190408760559, -4.874503831601096 ], [ 38.227767496771314, -4.875559823080596 ], [ 38.226248241983598, -4.876470830640263 ], [ 38.224647276486905, -4.877228080290014 ], [ 38.222980019488624, -4.87782427892135 ], [ 38.221262528778837, -4.878253684558799 ], [ 38.219511346038978, -4.878512161668279 ], [ 38.217743337485899, -4.878597220989574 ], [ 38.215975531388075, -4.878508043508663 ], [ 38.214224954020736, -4.878245488339447 ], [ 38.212508465641839, -4.877812084438941 ], [ 38.210842598070606, -4.877212006236385 ], [ 38.209243395434633, -4.876451033411207 ], [ 38.207726259620962, -4.875536495208436 ], [ 38.20630580192082, -4.874477199828454 ], [ 38.204995702297857, -4.873283349572084 ], [ 38.203808577635854, -4.871966442559536 ], [ 38.202755860234937, -4.870539161970502 ], [ 38.201847687726335, -4.869015253873207 ], [ 38.201092805465329, -4.867409394820159 ], [ 38.200498482341388, -4.865737050486195 ], [ 38.200070440815018, -4.864014326711303 ], [ 38.199812801853639, -4.862257814383094 ], [ 38.199728045294783, -4.860484429653168 ], [ 38.199816986016586, -4.858711251026479 ], [ 38.200078766142887, -4.856955354892317 ], [ 38.200510863356065, -4.855233651080699 ], [ 38.201109115235504, -4.853562720027478 ], [ 38.201867759385628, -4.85195865311556 ], [ 38.202779488965319, -4.85043689772911 ], [ 38.203835523082716, -4.849012108512171 ], [ 38.20502569137652, -4.847698006262903 ], [ 38.206338531968576, -4.84650724582178 ], [ 38.207761401844174, -4.845451294224571 ], [ 38.209280598597239, -4.844540320292827 ], [ 38.210881492368536, -4.843783096724331 ], [ 38.212548666707022, -4.843186915625298 ], [ 38.214266066999187, -4.842757518297436 ], [ 38.216017155038308, -4.842499039955497 ], [ 38.217785068246826, -4.842413969907062 ], [ 38.219552782020301, -4.842503127578386 ], [ 38.22130327363147, -4.842765654616842 ], [ 38.223019686117965, -4.843199023146462 ], [ 38.224685490577031, -4.843799060097293 ], [ 38.226284645306464, -4.844559987375185 ], [ 38.227801750260234, -4.845474477485472 ], [ 38.229222195333044, -4.846533724075929 ], [ 38.230532301046495, -4.847727526720696 ], [ 38.231719450282768, -4.849044389129247 ], [ 38.232772209797339, -4.850471629835996 ], [ 38.233680440340599, -4.851995504305375 ], [ 38.234435394327008, -4.853601337277174 ], [ 38.235029800110745, -4.855273664078842 ], [ 38.235457932054722, -4.85699637954415 ], [ 38.235715665716818, -4.858752893104819 ], [ 38.23580051762022, -4.860526288561886 ] ] ] } },
{ "type": "Feature", "properties": { "group": "bauxite", "rank": 15, "prob": 0.49996697902679443, "strategy": "margin", "score": -3.3020973205566406e-05, "lon": 38.231818373749718, "lat": -4.8730050395893558 }, "geometry": { "type": "Polygon", "coordinates": [ [ [ 38.249855041567606, -4.873025403900374 ], [ 38.249766222966535, -4.87479860903018 ], [ 38.249504554343524, -4.876554543053214 ], [ 38.249072554468121, -4.878276294967724 ], [ 38.248474382632885, -4.879947282858633 ], [ 38.247715798639717, -4.881551413609619 ], [ 38.246804107365413, -4.883073237911173 ], [ 38.245748088439015, -4.884498099070889 ], [ 38.244557911707062, -4.885812274192161 ], [ 38.243245039300042, -4.887003106360222 ], [ 38.241822115243195, -4.88805912656186 ], [ 38.240302843674428, -4.888970164163451 ], [ 38.238701856843022, -4.889727444882189 ], [ 38.237034574161008, -4.890323675306502 ], [ 38.235317053666058, -4.890753113150565 ], [ 38.233565837327696, -4.891011622565822 ], [ 38.231797791688606, -4.891096713976627 ], [ 38.230029945377581, -4.891007568055806 ], [ 38.228279325061017, -4.890745043609543 ], [ 38.22656279141507, -4.890311669295689 ], [ 38.224896876699901, -4.889711619255865 ], [ 38.223297625502397, -4.888950672896317 ], [ 38.221780440182599, -4.888036159206024 ], [ 38.220359932513674, -4.886976886148964 ], [ 38.219049782945334, -4.885783055811486 ], [ 38.217862608846659, -4.884466166123318 ], [ 38.216809842997471, -4.883038900099418 ], [ 38.215901623498361, -4.881515003670562 ], [ 38.215146696158961, -4.879909153280287 ], [ 38.214552330303704, -4.878236814523857 ], [ 38.214124248804382, -4.876514093191714 ], [ 38.213866573012126, -4.874757580152258 ], [ 38.213781783116907, -4.872984191568238 ], [ 38.213870694314778, -4.871211005985841 ], [ 38.214132449009966, -4.869455099865119 ], [ 38.214564525125219, -4.867733383135553 ], [ 38.215162760438126, -4.866062436360082 ], [ 38.215921392707379, -4.864458351074987 ], [ 38.216833115200949, -4.862936574842546 ], [ 38.217889147090041, -4.8615117625079 ], [ 38.219079318030019, -4.860197635091333 ], [ 38.220392166112916, -4.859006847674346 ], [ 38.221815048248288, -4.857950867550391 ], [ 38.22333426190923, -4.857039863812933 ], [ 38.224935177071842, -4.856282609443396 ], [ 38.226602377078265, -4.855686396840767 ], [ 38.228319807068026, -4.85525696760599 ], [ 38.230070928549644, -4.854998457256775 ], [ 38.231838878625737, -4.854913355404658 ], [ 38.233606632339956, -4.855002481778068 ], [ 38.235357166584329, -4.855264978322012 ], [ 38.237073623990419, -4.855698317450917 ], [ 38.238739475227916, -4.856298326375295 ], [ 38.240338678149342, -4.857059227268945 ], [ 38.241855832249882, -4.857973692890121 ], [ 38.243276326956121, -4.85903291712211 ], [ 38.244586482316464, -4.860226699754885 ], [ 38.245773680739276, -4.861543544691983 ], [ 38.246826488509953, -4.862970770638201 ], [ 38.247734765916888, -4.86449463320293 ], [ 38.248489764925075, -4.866100457244014 ], [ 38.24908421345593, -4.867772778178767 ], [ 38.249512385460427, -4.869495490901626 ], [ 38.249770156109413, -4.871252004875042 ], [ 38.249855041567606, -4.873025403900374 ] ] ] } },
{ "type": "Feature", "properties": { "group": "bauxite", "rank": 16, "prob": 0.50004947185516357, "strategy": "margin", "score": -4.9471855163574219e-05, "lon": 38.262394119695401, "lat": -4.8697827467657291 }, "geometry": { "type": "Polygon", "coordinates": [ [ [ 38.280430827426336, -4.869802278043611 ], [ 38.280342090052528, -4.871575499573506 ], [ 38.280080501534393, -4.873331457868531 ], [ 38.279648579868351, -4.875053241701568 ], [ 38.279050483590453, -4.876724268857958 ], [ 38.278291971770095, -4.878328445850169 ], [ 38.277380348582881, -4.879850322929164 ], [ 38.27632439299488, -4.881275242898702 ], [ 38.275134274234595, -4.882589482298706 ], [ 38.2738214538657, -4.883780383596637 ], [ 38.272398575403528, -4.884836477113092 ], [ 38.270879342538336, -4.885747591506271 ], [ 38.269278387138606, -4.886504951750126 ], [ 38.26761112830642, -4.887101263662057 ], [ 38.26589362384356, -4.887530784165057 ], [ 38.264142415560315, -4.887789376607095 ], [ 38.262374369918426, -4.887874550604799 ], [ 38.260606515544985, -4.887785486027078 ], [ 38.258855879184047, -4.887523040888106 ], [ 38.257139321667943, -4.887089743073576 ], [ 38.255473375490041, -4.886489765980566 ], [ 38.253874085545064, -4.88572888830587 ], [ 38.252356854572362, -4.88481443837119 ], [ 38.250936294792005, -4.883755223522067 ], [ 38.24962608716362, -4.882561445281375 ], [ 38.24843884962398, -4.881244601075857 ], [ 38.247386015572602, -4.879817373482886 ], [ 38.246477723775449, -4.878293508065233 ], [ 38.245722720746492, -4.876687680971481 ], [ 38.245128276546339, -4.875015357577698 ], [ 38.244700114807486, -4.873292643532786 ], [ 38.244442357658649, -4.871536129642381 ], [ 38.244357486076673, -4.869762732085574 ], [ 38.244446316046002, -4.867989529503513 ], [ 38.244707990753184, -4.866233598528597 ], [ 38.245139988889584, -4.864511849338054 ], [ 38.245738148980458, -4.86284086281525 ], [ 38.246496709504093, -4.861236730886189 ], [ 38.247408364413268, -4.859714901568157 ], [ 38.248464333522833, -4.858290030221974 ], [ 38.249654447084673, -4.856975838439139 ], [ 38.250967243734884, -4.855784981922299 ], [ 38.252390080869624, -4.854728928629942 ], [ 38.253909256386827, -4.853817848358072 ], [ 38.255510140621858, -4.853060514821484 ], [ 38.257177317207471, -4.852464221176427 ], [ 38.258894731502551, -4.852034709797921 ], [ 38.260645845161918, -4.851776116987347 ], [ 38.262413795360175, -4.851690933142245 ], [ 38.264181557138073, -4.85177997877213 ], [ 38.265932107309965, -4.852042396590987 ], [ 38.267648588355705, -4.852475659763019 ], [ 38.269314470720623, -4.853075596222435 ], [ 38.270913711962329, -4.853836428833976 ], [ 38.272430911213085, -4.854750831007688 ], [ 38.273851457471885, -4.855809997233453 ], [ 38.275161670298736, -4.857003727856974 ], [ 38.276348931557074, -4.858320527281408 ], [ 38.277401806935899, -4.859747714650284 ], [ 38.278310156081048, -4.861271545946633 ], [ 38.279065230274703, -4.862877346333126 ], [ 38.279659756721429, -4.864549651460041 ], [ 38.280088008628049, -4.866272356380462 ], [ 38.280345860400743, -4.868028870639404 ], [ 38.280430827426336, -4.869802278043611 ] ] ] } },
{ "type": "Feature", "properties": { "group": "bauxite", "rank": 17, "prob": 0.50005584955215454, "strategy": "margin", "score": -5.5849552154541016e-05, "lon": 38.240344097544494, "lat": -4.7479101288559038 }, "geometry": { "type": "Polygon", "coordinates": [ [ [ 38.258377509201999, -4.747929748891776 ], [ 38.258288778765838, -4.749702967531265 ], [ 38.258027228865274, -4.751458922048427 ], [ 38.257595377159575, -4.753180701251487 ], [ 38.256997381544316, -4.754851722972846 ], [ 38.256239000149975, -4.756455893783198 ], [ 38.255327535922653, -4.757977764002128 ], [ 38.254271766319206, -4.759402676511379 ], [ 38.253081858792832, -4.760716907937034 ], [ 38.251769272882363, -4.761907800839486 ], [ 38.250346649847877, -4.762963885637544 ], [ 38.248827690915569, -4.763874991091275 ], [ 38.247227025304909, -4.764632342278481 ], [ 38.24556006931001, -4.765228645120723 ], [ 38.243842877793405, -4.765658156643805 ], [ 38.242091989524006, -4.765916740295572 ], [ 38.240324267850426, -4.766001905788112 ], [ 38.238556738246068, -4.76591283308006 ], [ 38.236806424292375, -4.765650380268401 ], [ 38.235090183681955, -4.765217075313756 ], [ 38.233424545822942, -4.764617091679497 ], [ 38.231825552610267, -4.763856208119518 ], [ 38.230308603898983, -4.762941753003118 ], [ 38.228888309169207, -4.761882533713819 ], [ 38.227578346812159, -4.760688751802943 ], [ 38.226391332393042, -4.759371904716438 ], [ 38.225338697159934, -4.75794467504207 ], [ 38.224430577968235, -4.75642080834475 ], [ 38.2236757196805, -4.754814980767629 ], [ 38.223081390980553, -4.75314265767449 ], [ 38.222653314411332, -4.751419944695877 ], [ 38.222395611308848, -4.749663432613771 ], [ 38.222310762160674, -4.747890037579037 ], [ 38.222399582768901, -4.746116838200723 ], [ 38.222661216445104, -4.744360911075869 ], [ 38.223093142310582, -4.742639166343585 ], [ 38.223691199619843, -4.740968184846771 ], [ 38.224449627871529, -4.739364058468926 ], [ 38.225361122318844, -4.737842235182955 ], [ 38.226416904343587, -4.736417370303501 ], [ 38.227606806015238, -4.735103185374101 ], [ 38.22891936801993, -4.733912336047535 ], [ 38.230341950016282, -4.732856290230395 ], [ 38.231860852355183, -4.731945217664599 ], [ 38.233461447991999, -4.731187892008482 ], [ 38.235128323321668, -4.730591606359337 ], [ 38.236845426581596, -4.730162103030636 ], [ 38.23859622239452, -4.729903518259632 ], [ 38.240363850964869, -4.729818342377246 ], [ 38.242131290397154, -4.729907395824119 ], [ 38.243881520575201, -4.730169821243462 ], [ 38.245597687025821, -4.730603091727327 ], [ 38.247263263190838, -4.731203035137035 ], [ 38.248862209546182, -4.7319638742645 ], [ 38.25037912803748, -4.732878282447938 ], [ 38.25179941034596, -4.733937454107437 ], [ 38.253109378557767, -4.735131189522059 ], [ 38.25429641688266, -4.736447993032682 ], [ 38.25534909315391, -4.737875183726136 ], [ 38.256257268939031, -4.739399017535526 ], [ 38.257012197200609, -4.741004819581565 ], [ 38.25760660656578, -4.742677125481617 ], [ 38.258034771391664, -4.744399830265848 ], [ 38.258292566950608, -4.746156343467193 ], [ 38.258377509201999, -4.747929748891776 ] ] ] } },
{ "type": "Feature", "properties": { "group": "bauxite", "rank": 18, "prob": 0.49994251132011414, "strategy": "margin", "score": -5.7488679885864258e-05, "lon": 38.23425853892001, "lat": -4.8683944358346487 }, "geometry": { "type": "Polygon", "coordinates": [ [ [ 38.252295094105747, -4.868414715537363 ], [ 38.252206284308052, -4.870187922309832 ], [ 38.251944625493124, -4.871943858773174 ], [ 38.251512636337104, -4.873665613902987 ], [ 38.25091447603014, -4.875336605754134 ], [ 38.250155904263657, -4.876940741173087 ], [ 38.249244225797, -4.878462570806311 ], [ 38.248188220135859, -4.879887437910939 ], [ 38.246998056998713, -4.881201619533915 ], [ 38.245685198384606, -4.882392458698559 ], [ 38.244262288185077, -4.883448486324842 ], [ 38.242743030403545, -4.88435953170804 ], [ 38.241142057155294, -4.885116820490643 ], [ 38.239474787720177, -4.885713059183466 ], [ 38.237757280006832, -4.886142505420929 ], [ 38.236006075860224, -4.886401023273323 ], [ 38.234238041704174, -4.88648612308328 ], [ 38.23247020605551, -4.886396985442111 ], [ 38.230719595476742, -4.88613446907551 ], [ 38.22900307054919, -4.885701102562673 ], [ 38.22733716344824, -4.885101059969187 ], [ 38.225737918686882, -4.884340120628648 ], [ 38.224220738562884, -4.88342561346151 ], [ 38.222800234799386, -4.882366346368047 ], [ 38.221490087808782, -4.881172521376369 ], [ 38.220302914935885, -4.879855636364018 ], [ 38.219250148949534, -4.878428374300366 ], [ 38.218341927952693, -4.876904481077638 ], [ 38.217586997770653, -4.875298633108259 ], [ 38.216992627756561, -4.873626295964131 ], [ 38.21656454082374, -4.871903575420302 ], [ 38.216306858377102, -4.870147062337886 ], [ 38.216222060672166, -4.868373672880526 ], [ 38.216310962981538, -4.86660048560344 ], [ 38.216572707796296, -4.864844576983754 ], [ 38.217004773135379, -4.863122856975861 ], [ 38.217602996880956, -4.861451906175175 ], [ 38.218361616903692, -4.859847816157679 ], [ 38.219273326589786, -4.858326034532158 ], [ 38.220329345233793, -4.856901216196573 ], [ 38.221519502618307, -4.855587082229805 ], [ 38.222832336965382, -4.854396287777138 ], [ 38.22425520531602, -4.853340300200343 ], [ 38.225774405275025, -4.852429288665066 ], [ 38.227375306949227, -4.851672026228064 ], [ 38.229042493809303, -4.851075805366064 ], [ 38.230759911119932, -4.850646367759427 ], [ 38.23251102051028, -4.850387849006177 ], [ 38.234278959197951, -4.850302738798307 ], [ 38.236046702334917, -4.850391856944089 ], [ 38.237797226913841, -4.850654345467026 ], [ 38.23951367565833, -4.85108767685794 ], [ 38.241179519320674, -4.851687678400959 ], [ 38.242778715825779, -4.852448572340035 ], [ 38.244295864730354, -4.853363031499464 ], [ 38.245716355511, -4.854422249823883 ], [ 38.247026508254237, -4.855616027159354 ], [ 38.248213705394193, -4.856932867459731 ], [ 38.249266513229443, -4.858360089473897 ], [ 38.25017479204881, -4.85988394884871 ], [ 38.250929793804907, -4.861489770472499 ], [ 38.251524246394034, -4.863162089785806 ], [ 38.251952423729556, -4.864884801698816 ], [ 38.252210200932446, -4.866641315682088 ], [ 38.252295094105747, -4.868414715537363 ] ] ] } },
{ "type": "Feature", "properties": { "group": "bauxite", "rank": 19, "prob": 0.50006139278411865, "strategy": "margin", "score": -6.1392784118652344e-05, "lon": 38.262122090434453, "lat": -4.8711393356613701 }, "geometry": { "type": "Polygon", "coordinates": [ [ [ 38.280158833217165, -4.871158879659721 ], [ 38.280070094434038, -4.872932100950879 ], [ 38.279808504181808, -4.874688058887488 ], [ 38.279376580473254, -4.876409842245749 ], [ 38.278778481863803, -4.878080868815427 ], [ 38.278019967445054, -4.879685045114457 ], [ 38.27710834141746, -4.881206921400286 ], [ 38.276052382774324, -4.882631840484108 ], [ 38.274862260773531, -4.883946078914182 ], [ 38.273549437010011, -4.885136979167104 ], [ 38.27212655503191, -4.886193071573365 ], [ 38.270607318563535, -4.887104184801703 ], [ 38.269006359508303, -4.887861543837151 ], [ 38.26733909700382, -4.888457854508657 ], [ 38.265621588887569, -4.8888873737511 ], [ 38.263870377005404, -4.88914596492457 ], [ 38.262102327854109, -4.889231137657926 ], [ 38.260334470094975, -4.889142071832319 ], [ 38.258583830505017, -4.888879625474033 ], [ 38.256867269948032, -4.888446326480629 ], [ 38.255201320946952, -4.8878463482607 ], [ 38.253602028423956, -4.887085469522067 ], [ 38.252084795143382, -4.886171018596873 ], [ 38.250664233347649, -4.885111802840401 ], [ 38.249354024015837, -4.883918023784462 ], [ 38.248166785101063, -4.882601178863841 ], [ 38.247113950015979, -4.881173950662985 ], [ 38.246205657536322, -4.87965008475067 ], [ 38.245450654182392, -4.87804425728037 ], [ 38.244856210017602, -4.876371933631876 ], [ 38.244428048673782, -4.874649219456607 ], [ 38.244170292275449, -4.87289270556147 ], [ 38.244085421791851, -4.871119308125578 ], [ 38.244174253196455, -4.869346105788861 ], [ 38.244435929661606, -4.86759017518126 ], [ 38.2448679298614, -4.865868426476335 ], [ 38.24546609230093, -4.864197440552621 ], [ 38.246224655435604, -4.862593309330176 ], [ 38.247136313192883, -4.861071480819285 ], [ 38.248192285360076, -4.85964661037279 ], [ 38.249382402159576, -4.858332419573332 ], [ 38.250695202196354, -4.857141564113888 ], [ 38.252118042834063, -4.856085511942586 ], [ 38.253637221937083, -4.855174432844484 ], [ 38.255238109806506, -4.85441710052293 ], [ 38.256905290040372, -4.85382080812239 ], [ 38.258622707962793, -4.853391298005829 ], [ 38.26037382519403, -4.853132706462463 ], [ 38.262141778874671, -4.853047523877644 ], [ 38.263909544012321, -4.853136570748808 ], [ 38.26566009738935, -4.853398989778083 ], [ 38.267376581455089, -4.85383225411814 ], [ 38.26904246662609, -4.8544321916921 ], [ 38.270641710433161, -4.855193025354143 ], [ 38.272158911984071, -4.856107428504394 ], [ 38.27357946025576, -4.857166595623535 ], [ 38.274889674788881, -4.858360327048864 ], [ 38.276076937430403, -4.859677127176003 ], [ 38.277129813855886, -4.861104315141905 ], [ 38.278038163700913, -4.862628146923996 ], [ 38.278793238240652, -4.864233947680403 ], [ 38.279387764676052, -4.86590625305794 ], [ 38.279816016213694, -4.867628958107332 ], [ 38.280073867262942, -4.869385472372367 ], [ 38.280158833217165, -4.871158879659721 ] ] ] } },
{ "type": "Feature", "properties": { "group": "bauxite", "rank": 20, "prob": 0.49993351101875305, "strategy": "margin", "score": -6.6488981246948242e-05, "lon": 38.247912828048747, "lat": -4.752803215957413 }, "geometry": { "type": "Polygon", "coordinates": [ [ [ 38.265946398093938, -4.752822658139413 ], [ 38.265857684287262, -4.754595880422761 ], [ 38.265596149339984, -4.756351840265851 ], [ 38.265164310765428, -4.758073626427465 ], [ 38.264566326330453, -4.759744656674546 ], [ 38.263807954055437, -4.76134883749691 ], [ 38.262896496796131, -4.762870719118538 ], [ 38.261840731939742, -4.76429564431177 ], [ 38.260650826891293, -4.7656098895805 ], [ 38.259338241163491, -4.766800797351338 ], [ 38.25791561601266, -4.767856897899016 ], [ 38.256396652683726, -4.768768019830648 ], [ 38.254795980437294, -4.769525388063739 ], [ 38.253129015630591, -4.770121708353806 ], [ 38.251411813210737, -4.770551237556539 ], [ 38.249660912051866, -4.770809838947311 ], [ 38.247893175627432, -4.770895022065132 ], [ 38.246125629554079, -4.77080596669671 ], [ 38.244375297573434, -4.770543530769976 ], [ 38.2426590375537, -4.770110242081093 ], [ 38.240993379092146, -4.769510273935228 ], [ 38.239394364284543, -4.76874940493589 ], [ 38.237877393196456, -4.767834963311326 ], [ 38.236457075526062, -4.766775756314717 ], [ 38.235147089887938, -4.765581985379035 ], [ 38.23396005207379, -4.764265147844998 ], [ 38.232907393558961, -4.762837926209266 ], [ 38.231999251424732, -4.761314065960605 ], [ 38.231244370755824, -4.759708243181668 ], [ 38.230650020452387, -4.758035923191911 ], [ 38.230221923265695, -4.756313211594079 ], [ 38.229964200730087, -4.754556699159055 ], [ 38.229879333519584, -4.752783302043343 ], [ 38.229968137609035, -4.751010098878228 ], [ 38.23022975646753, -4.749254166299274 ], [ 38.230661669357097, -4.747532414499963 ], [ 38.231259715654978, -4.745861424392818 ], [ 38.232018134963447, -4.744257287945474 ], [ 38.232929622619281, -4.742735453228643 ], [ 38.233985400067162, -4.741310575667458 ], [ 38.23517529941816, -4.739996376927553 ], [ 38.236487861378535, -4.738805512794244 ], [ 38.237910445605316, -4.737749451315829 ], [ 38.239429352426278, -4.736838362383787 ], [ 38.241029954752385, -4.736081019812453 ], [ 38.24269683891341, -4.735484716860148 ], [ 38.244413953061382, -4.735055196004897 ], [ 38.246164761714432, -4.734796593650539 ], [ 38.247932404954042, -4.734711400295092 ], [ 38.249699860744599, -4.734800436545281 ], [ 38.251450108814012, -4.735062845207872 ], [ 38.253166294518735, -4.735496099534449 ], [ 38.254831891117377, -4.73609602754037 ], [ 38.256430858891534, -4.736856852164681 ], [ 38.2579477995831, -4.737771246884445 ], [ 38.259368104662023, -4.738830406249003 ], [ 38.260678095997612, -4.74002413065586 ], [ 38.261865157579201, -4.741340924552373 ], [ 38.262917857018081, -4.742768107118845 ], [ 38.263826055660296, -4.744291934367925 ], [ 38.264581006249522, -4.745897731485111 ], [ 38.265175437198636, -4.747570034137111 ], [ 38.265603622657196, -4.749292737387464 ], [ 38.265861437698611, -4.751049250786077 ], [ 38.265946398093938, -4.752822658139413 ] ] ] } },
{ "type": "Feature", "properties": { "group": "bauxite", "rank": 21, "prob": 0.49991172552108765, "strategy": "margin", "score": -8.8274478912353516e-05, "lon": 38.311732837197908, "lat": -4.7721379651977855 }, "geometry": { "type": "Polygon", "coordinates": [ [ [ 38.329767161864595, -4.772155809740961 ], [ 38.329678600607338, -4.773929063099313 ], [ 38.329417209557811, -4.77568506913105 ], [ 38.328985504832957, -4.777406916166572 ], [ 38.328387642897219, -4.779078021401186 ], [ 38.327629380575495, -4.780682290614729 ], [ 38.326718019647139, -4.782204273189258 ], [ 38.325662336553101, -4.783629310930973 ], [ 38.324472497892103, -4.784943679262486 ], [ 38.323159962518972, -4.786134719424306 ], [ 38.321737371187659, -4.787190960411693 ], [ 38.320218424801702, -4.788102229471417 ], [ 38.318617752445199, -4.788859750093168 ], [ 38.316950770466008, -4.789456226551339 ], [ 38.31523353396944, -4.78988591418199 ], [ 38.313482582154165, -4.790144674717572 ], [ 38.31171477898156, -4.790230016146417 ], [ 38.309947150714805, -4.790141116712412 ], [ 38.308196721894397, -4.789878832824096 ], [ 38.306480351331672, -4.789445690796971 ], [ 38.304814569701925, -4.788845862509167 ], [ 38.303215420302827, -4.788085125205084 ], [ 38.301698304513621, -4.787170805835352 ], [ 38.300277833444568, -4.786111710469677 ], [ 38.298967687206463, -4.784918039463341 ], [ 38.297780483156188, -4.783601289195635 ], [ 38.296727654387475, -4.782174141327272 ], [ 38.295819339636907, -4.780650340644432 ], [ 38.295064285664935, -4.77904456266701 ], [ 38.294469763051147, -4.777372272296531 ], [ 38.294041496213438, -4.775649574866144 ], [ 38.293783608323615, -4.77389306102746 ], [ 38.29369858164808, -4.772119646968529 ], [ 38.293787233693692, -4.770346411502002 ], [ 38.294048709386509, -4.76859043159218 ], [ 38.294480489356786, -4.766868617904816 ], [ 38.295078414248458, -4.765197551963047 ], [ 38.295836724817249, -4.763593326477037 ], [ 38.296748117429715, -4.762071390384305 ], [ 38.297803814427276, -4.760646400092385 ], [ 38.298993648676934, -4.759332078355189 ], [ 38.300306161493367, -4.758141082141618 ], [ 38.301728712989473, -4.757084880767509 ], [ 38.303247603792556, -4.756173645463769 ], [ 38.304848206954524, -4.755416151443491 ], [ 38.306515108786641, -4.754819693409994 ], [ 38.308232257263612, -4.754390015319175 ], [ 38.309983116569292, -4.754131255071969 ], [ 38.311750826297406, -4.754045904668962 ], [ 38.313518363775799, -4.754134786211138 ], [ 38.315268707952903, -4.754397043977533 ], [ 38.316985003270183, -4.754830152656496 ], [ 38.318650721944003, -4.755429941651449 ], [ 38.320249823096042, -4.756190635227992 ], [ 38.321766907201152, -4.757104908115923 ], [ 38.323187364366689, -4.758163956031803 ], [ 38.324497515016155, -4.75935758044382 ], [ 38.325684741623142, -4.760674286763277 ], [ 38.32673761022707, -4.762101395018369 ], [ 38.327645980560526, -4.763625161945231 ], [ 38.328401103727018, -4.765230913321189 ], [ 38.328995706487873, -4.766903185266998 ], [ 38.329424061345179, -4.768625873157557 ], [ 38.329682041744583, -4.770382386707868 ], [ 38.329767161864595, -4.772155809740961 ] ] ] } },
{ "type": "Feature", "properties": { "group": "bauxite", "rank": 22, "prob": 0.50008952617645264, "strategy": "margin", "score": -8.9526176452636719e-05, "lon": 38.221638987268165, "lat": -4.7839822524706985 }, "geometry": { "type": "Polygon", "coordinates": [ [ [ 38.239673260631214, -4.784002513779624 ], [ 38.239584463448764, -4.785775719843706 ], [ 38.239322839109171, -4.787531655741473 ], [ 38.238890905980398, -4.789253410453963 ], [ 38.238292822735723, -4.790924402042434 ], [ 38.237534348345072, -4.792528537360541 ], [ 38.236622786647843, -4.794050367062486 ], [ 38.235566916039495, -4.795475234413351 ], [ 38.234376904948121, -4.796789416467836 ], [ 38.233064213914275, -4.797980256256351 ], [ 38.231641485216727, -4.799036284704813 ], [ 38.230122421107339, -4.799947331112752 ], [ 38.228521651828004, -4.80070462112474 ], [ 38.226854594681804, -4.801300861251009 ], [ 38.225137305516668, -4.801730309122301 ], [ 38.223386324053394, -4.80198882880179 ], [ 38.221618514549405, -4.802073930621281 ], [ 38.219850903334581, -4.801984795157392 ], [ 38.218100514785917, -4.801722281117232 ], [ 38.216384207322612, -4.801288917057594 ], [ 38.214718511003049, -4.800688877018063 ], [ 38.213119468289634, -4.799927940302982 ], [ 38.211602479516472, -4.799013435800755 ], [ 38.210182154549571, -4.79795417137738 ], [ 38.208872172069171, -4.796760349025123 ], [ 38.20768514782997, -4.79544346658486 ], [ 38.20663251316828, -4.794016206989244 ], [ 38.205724404925938, -4.792492316094553 ], [ 38.20496956785054, -4.790886470278846 ], [ 38.204375270411042, -4.789214135082028 ], [ 38.203947234838083, -4.787491416250267 ], [ 38.203689582061372, -4.785734904619578 ], [ 38.203604792072525, -4.783961516332852 ], [ 38.203693680093252, -4.782188329929374 ], [ 38.20395538877635, -4.780432421875474 ], [ 38.204387396512544, -4.778710702120097 ], [ 38.204985541761459, -4.777039751258601 ], [ 38.205744063170378, -4.775435660872213 ], [ 38.206655655093009, -4.773913878580033 ], [ 38.207711537972358, -4.772489059295049 ], [ 38.208901542908755, -4.771174924115417 ], [ 38.210214209598185, -4.76998412820935 ], [ 38.211636896697406, -4.768928138964557 ], [ 38.213155903553172, -4.768017125574928 ], [ 38.214756602123806, -4.767259861127018 ], [ 38.21642357782352, -4.76666363812818 ], [ 38.218140777934323, -4.766234198289476 ], [ 38.21989166615775, -4.765975677239044 ], [ 38.221659381819507, -4.765890564697764 ], [ 38.223426902196032, -4.765979680501047 ], [ 38.225177206401185, -4.766242166697331 ], [ 38.226893439257061, -4.766675495799851 ], [ 38.228559073572384, -4.767275495112402 ], [ 38.230158069267532, -4.768036386895757 ], [ 38.231675027815299, -4.768950843988216 ], [ 38.23309534051122, -4.770010060345706 ], [ 38.234405329146611, -4.77120383582311 ], [ 38.235592377730249, -4.772520674380927 ], [ 38.236645053990273, -4.773947894772881 ], [ 38.237553219486252, -4.775471752649269 ], [ 38.238308127270351, -4.777077572900905 ], [ 38.238902506156329, -4.778749890970296 ], [ 38.239330630783591, -4.78047260176947 ], [ 38.23958837680015, -4.782229114771107 ], [ 38.239673260631214, -4.784002513779624 ] ] ] } },
{ "type": "Feature", "properties": { "group": "bauxite", "rank": 23, "prob": 0.50009059906005859, "strategy": "margin", "score": -9.059906005859375e-05, "lon": 38.211841853688796, "lat": -4.8349895021765992 }, "geometry": { "type": "Polygon", "coordinates": [ [ [ 38.22987742702945, -4.835010239699861 ], [ 38.22978857714488, -4.836783436757025 ], [ 38.229526888062672, -4.838539359168311 ], [ 38.229094878761352, -4.840261096039937 ], [ 38.228496708636399, -4.841932065599212 ], [ 38.227738137485147, -4.843536174905346 ], [ 38.226826470071877, -4.845057974855846 ], [ 38.225770485805882, -4.846482808994813 ], [ 38.224580354208371, -4.847796954689269 ], [ 38.223267536981858, -4.84898775531252 ], [ 38.221844677624667, -4.850043742160948 ], [ 38.220325479653859, -4.850954744928801 ], [ 38.218724574609816, -4.851711989676041 ], [ 38.217057381114415, -4.85230818334516 ], [ 38.215339956341644, -4.852737584011999 ], [ 38.213588841332324, -4.852996056193477 ], [ 38.2118209016446, -4.853081110679451 ], [ 38.210053164876712, -4.852991928504469 ], [ 38.208302656628852, -4.852729368828951 ], [ 38.206586236485933, -4.852295960653882 ], [ 38.204920435602887, -4.851695878449472 ], [ 38.203321297458444, -4.850934901932739 ], [ 38.201804223312685, -4.850020360382593 ], [ 38.200383823858104, -4.848961062029335 ], [ 38.199073778493741, -4.847767209199521 ], [ 38.19788670357849, -4.846450300034808 ], [ 38.196834030932457, -4.845023017731939 ], [ 38.195925897756382, -4.84349910837179 ], [ 38.195171049028708, -4.841893248515136 ], [ 38.194576753319247, -4.840220903840772 ], [ 38.194148732829063, -4.838498180188445 ], [ 38.193891108328557, -4.836741668441449 ], [ 38.193806359522419, -4.834968284743177 ], [ 38.193895301221168, -4.833195107586644 ], [ 38.194157075546556, -4.831439213345671 ], [ 38.19458916024422, -4.829717511831472 ], [ 38.195187393021236, -4.828046583457971 ], [ 38.195946011672604, -4.826442519583217 ], [ 38.196857709608615, -4.824920767563791 ], [ 38.197913706247029, -4.823495982013635 ], [ 38.199103831591145, -4.822181883698492 ], [ 38.200416624178786, -4.820991127424281 ], [ 38.201839441458475, -4.819935180190322 ], [ 38.203358581530161, -4.819024210780002 ], [ 38.204959415078505, -4.818266991851447 ], [ 38.206626526229151, -4.817670815469969 ], [ 38.20834386097259, -4.817241422895369 ], [ 38.210094881727777, -4.816982949299748 ], [ 38.211862726558692, -4.816897883947597 ], [ 38.213630371512394, -4.816987046221945 ], [ 38.215380794517067, -4.817249577727142 ], [ 38.217097139263629, -4.817682950544778 ], [ 38.218762877494612, -4.818282991563408 ], [ 38.220361968138953, -4.819043922648758 ], [ 38.22187901176197, -4.819958416267823 ], [ 38.223299398844155, -4.821017666032268 ], [ 38.224609450461919, -4.822211471482771 ], [ 38.225796550016064, -4.823528336298445 ], [ 38.226849264739613, -4.82495557898685 ], [ 38.22775745581481, -4.826479454989473 ], [ 38.228512376038189, -4.828085289027448 ], [ 38.229106754092392, -4.829757616414179 ], [ 38.2295348646119, -4.831480331974273 ], [ 38.229792583366532, -4.83323684513541 ], [ 38.22987742702945, -4.835010239699861 ] ] ] } },
{ "type": "Feature", "properties": { "group": "bauxite", "rank": 24, "prob": 0.49989351630210876, "strategy": "margin", "score": -0.00010648369789123535, "lon": 38.266741116261827, "lat": -4.8529620755835747 }, "geometry": { "type": "Polygon", "coordinates": [ [ [ 38.28477739409346, -4.852981423452978 ], [ 38.284688676681483, -4.854754648440889 ], [ 38.284427112084089, -4.856510611920707 ], [ 38.283995218071524, -4.858232402617229 ], [ 38.283397152917104, -4.859903438251878 ], [ 38.282638675393372, -4.861507625257893 ], [ 38.281727089347683, -4.86302951379237 ], [ 38.280671173389557, -4.86445444655137 ], [ 38.279481096366005, -4.865768699954221 ], [ 38.278168319437974, -4.866959616335955 ], [ 38.276745485700737, -4.868015725874089 ], [ 38.275226298411248, -4.868926857074386 ], [ 38.273625388995697, -4.869684234750395 ], [ 38.271958176109365, -4.870280564552645 ], [ 38.270240717107072, -4.870710103232354 ], [ 38.268489553356517, -4.870968713962446 ], [ 38.266721550885656, -4.871053906182913 ], [ 38.264953737900967, -4.870964859586173 ], [ 38.263203140743293, -4.87070243201178 ], [ 38.261486619863263, -4.870269151174419 ], [ 38.2598207073978, -4.86966919030549 ], [ 38.258221447914103, -4.868908327943113 ], [ 38.256704243856085, -4.867993892258958 ], [ 38.255283707183501, -4.866934690458701 ], [ 38.253973518633259, -4.865740923936969 ], [ 38.252786295959176, -4.864424090005222 ], [ 38.251733472419318, -4.862996871139711 ], [ 38.250825186680991, -4.86147301281729 ], [ 38.250070185203171, -4.859867191116756 ], [ 38.249475738035507, -4.858194871361223 ], [ 38.249047568843537, -4.856472159164042 ], [ 38.248789799832537, -4.854715645313047 ], [ 38.248704912098503, -4.852942245987458 ], [ 38.248793721786278, -4.851169039846454 ], [ 38.249055372282335, -4.849413103558168 ], [ 38.249487342515387, -4.847691347352844 ], [ 38.250085471283008, -4.846020352183583 ], [ 38.25084399736803, -4.844416210062086 ], [ 38.251755615056929, -4.842894369106368 ], [ 38.252811544524135, -4.841469484791945 ], [ 38.254001616403514, -4.840155278837789 ], [ 38.255314369731785, -4.838964407085444 ], [ 38.256737162320611, -4.83790833764231 ], [ 38.258256292494345, -4.836997240461793 ], [ 38.259857131021711, -4.836239889422984 ], [ 38.261524261971637, -4.835643577851704 ], [ 38.263241631138065, -4.835214048296122 ], [ 38.264992700605653, -4.834955437232685 ], [ 38.266760607969672, -4.834870235234207 ], [ 38.268528328678542, -4.834959262984036 ], [ 38.270278839937546, -4.835221663366892 ], [ 38.271995284597089, -4.835654909713051 ], [ 38.273661133449345, -4.836254830116584 ], [ 38.275260344371759, -4.837015647594436 ], [ 38.276777516786574, -4.837930035699827 ], [ 38.278198039950084, -4.838989189055506 ], [ 38.279508233644528, -4.840182908128542 ], [ 38.280695479918386, -4.841499697430901 ], [ 38.281748344606669, -4.842926876201421 ], [ 38.282656687460758, -4.844450700504066 ], [ 38.283411759826755, -4.846056495567407 ], [ 38.284006288930826, -4.847728797091977 ], [ 38.284434547958639, -4.849451500165034 ], [ 38.2846924112526, -4.851208014349377 ], [ 38.28477739409346, -4.852981423452978 ] ] ] } },
{ "type": "Feature", "properties": { "group": "bauxite", "rank": 25, "prob": 0.50011199712753296, "strategy": "margin", "score": -0.00011199712753295898, "lon": 38.331227478126429, "lat": -4.7539746223090447 }, "geometry": { "type": "Polygon", "coordinates": [ [ [ 38.349261401771955, -4.753991888927819 ], [ 38.349172898882784, -4.755765153001924 ], [ 38.34891156953411, -4.757521175209408 ], [ 38.348479929251937, -4.759243043730883 ], [ 38.347882133881981, -4.760914175560768 ], [ 38.347123939608515, -4.762518476228614 ], [ 38.346212647554502, -4.764040494818967 ], [ 38.345157033495127, -4.765465572795972 ], [ 38.343967263360426, -4.766779985198736 ], [ 38.34265479534028, -4.767971072846355 ], [ 38.341232269533961, -4.769027364278708 ], [ 38.339713386207187, -4.769938686257541 ], [ 38.338112773829472, -4.770696261762497 ], [ 38.336445848163493, -4.77129279453785 ], [ 38.334728663764778, -4.771722539374608 ], [ 38.332977759323143, -4.771981357450617 ], [ 38.331209998337222, -4.772066756195509 ], [ 38.329442406658302, -4.771977913295949 ], [ 38.32769200846996, -4.771715684610293 ], [ 38.325975662285273, -4.771282595916414 ], [ 38.324309898542836, -4.77068281857278 ], [ 38.322710760367649, -4.769922129327342 ], [ 38.321193649031905, -4.76900785466247 ], [ 38.319773175605448, -4.767948800212552 ], [ 38.318463020225607, -4.766755165934845 ], [ 38.317275800342316, -4.765438447851908 ], [ 38.31622294920782, -4.764011327312558 ], [ 38.315314605780877, -4.762487548839003 ], [ 38.314559517105415, -4.760881787737648 ], [ 38.313964954102744, -4.759209508749072 ], [ 38.31353664158722, -4.75748681709948 ], [ 38.313278703177652, -4.755730303388499 ], [ 38.313193621633488, -4.753956883807503 ], [ 38.31328221499561, -4.752183637227561 ], [ 38.313543628759788, -4.750427640725727 ], [ 38.313975344155963, -4.748705805133532 ], [ 38.314573202451832, -4.74703471219111 ], [ 38.315331445044919, -4.745430454874487 ], [ 38.316242768955355, -4.743908482433149 ], [ 38.317298397183748, -4.742483451629475 ], [ 38.31848816325553, -4.74116908561151 ], [ 38.319800609136976, -4.739978041777622 ], [ 38.321223095579569, -4.738921789904186 ], [ 38.322741923830328, -4.738010501709236 ], [ 38.324342467536297, -4.73725295291483 ], [ 38.326009313573792, -4.736656438750223 ], [ 38.327726410447369, -4.736226703709206 ], [ 38.329477222830747, -4.735967886237487 ], [ 38.331244890763053, -4.735882478882213 ], [ 38.333012391969007, -4.73597130428761 ], [ 38.334762705741831, -4.736233507267614 ], [ 38.336478976812508, -4.736666563032202 ], [ 38.338144677629025, -4.737266301488366 ], [ 38.339743767484599, -4.738026947382579 ], [ 38.341260846963927, -4.73894117589843 ], [ 38.342681306221394, -4.740000183175017 ], [ 38.343991465664161, -4.741193771067923 ], [ 38.345178707686166, -4.742510445337134 ], [ 38.346231598184403, -4.743937526317568 ], [ 38.347139996687361, -4.745461271007248 ], [ 38.347895154034582, -4.747067005398059 ], [ 38.348489796665724, -4.748739265775897 ], [ 38.348918196706379, -4.750461947629751 ], [ 38.349176227174183, -4.752218460736442 ], [ 38.349261401771955, -4.753991888927819 ] ] ] } }
]
}
