{
"type": "FeatureCollection",
"name": "top25_copper_zinc_candidates",
"crs": { "type": "name", "properties": { "name": "urn:ogc:def:crs:OGC:1.3:CRS84" } },
"features": [
{ "type": "Feature", "properties": { "rank": 1, "row": 6044, "col": 5508, "prob": 0.99937766790390015, "lon": 27.506032838969816, "lat": -11.14206632641071, "group": "copper_zinc" }, "geometry": { "type": "Point", "coordinates": [ 27.506032838969816, -11.14206632641071 ] } },
{ "type": "Feature", "properties": { "rank": 2, "row": 5968, "col": 5089, "prob": 0.99936097860336304, "lon": 27.390889696755959, "lat": -11.121618607456652, "group": "copper_zinc" }, "geometry": { "type": "Point", "coordinates": [ 27.390889696755959, -11.121618607456652 ] } },
{ "type": "Feature", "properties": { "rank": 3, "row": 6615, "col": 4682, "prob": 0.99934417009353638, "lon": 27.279245618576685, "lat": -11.297282768033236, "group": "copper_zinc" }, "geometry": { "type": "Point", "coordinates": [ 27.279245618576685, -11.297282768033236 ] } },
{ "type": "Feature", "properties": { "rank": 4, "row": 6169, "col": 5383, "prob": 0.99934226274490356, "lon": 27.471745390142832, "lat": -11.176035754291005, "group": "copper_zinc" }, "geometry": { "type": "Point", "coordinates": [ 27.471745390142832, -11.176035754291005 ] } },
{ "type": "Feature", "properties": { "rank": 5, "row": 4814, "col": 868, "prob": 0.9993324875831604, "lon": 26.232096084939318, "lat": -10.807814367615469, "group": "copper_zinc" }, "geometry": { "type": "Point", "coordinates": [ 26.232096084939318, -10.807814367615469 ] } },
{ "type": "Feature", "properties": { "rank": 6, "row": 6406, "col": 4674, "prob": 0.99933063983917236, "lon": 27.276992214928843, "lat": -11.240580593026035, "group": "copper_zinc" }, "geometry": { "type": "Point", "coordinates": [ 27.276992214928843, -11.240580593026035 ] } },
{ "type": "Feature", "properties": { "rank": 7, "row": 5704, "col": 5293, "prob": 0.99932658672332764, "lon": 27.44682399044359, "lat": -11.049914616991321, "group": "copper_zinc" }, "geometry": { "type": "Point", "coordinates": [ 27.44682399044359, -11.049914616991321 ] } },
{ "type": "Feature", "properties": { "rank": 8, "row": 5940, "col": 5123, "prob": 0.99930763244628906, "lon": 27.400219872312775, "lat": -11.114009603250906, "group": "copper_zinc" }, "geometry": { "type": "Point", "coordinates": [ 27.400219872312775, -11.114009603250906 ] } },
{ "type": "Feature", "properties": { "rank": 9, "row": 6368, "col": 4898, "prob": 0.99930679798126221, "lon": 27.338543516029439, "lat": -11.230207131558926, "group": "copper_zinc" }, "geometry": { "type": "Point", "coordinates": [ 27.338543516029439, -11.230207131558926 ] } },
{ "type": "Feature", "properties": { "rank": 10, "row": 6452, "col": 3755, "prob": 0.99930500984191895, "lon": 27.024416041089488, "lat": -11.253188957104278, "group": "copper_zinc" }, "geometry": { "type": "Point", "coordinates": [ 27.024416041089488, -11.253188957104278 ] } },
{ "type": "Feature", "properties": { "rank": 11, "row": 4496, "col": 930, "prob": 0.99930357933044434, "lon": 26.249323342730143, "lat": -10.721582489617422, "group": "copper_zinc" }, "geometry": { "type": "Point", "coordinates": [ 26.249323342730143, -10.721582489617422 ] } },
{ "type": "Feature", "properties": { "rank": 12, "row": 6189, "col": 5338, "prob": 0.99930334091186523, "lon": 27.459389272018353, "lat": -11.181481146993264, "group": "copper_zinc" }, "geometry": { "type": "Point", "coordinates": [ 27.459389272018353, -11.181481146993264 ] } },
{ "type": "Feature", "properties": { "rank": 13, "row": 5715, "col": 5312, "prob": 0.99929547309875488, "lon": 27.452046963438661, "lat": -11.052891285287636, "group": "copper_zinc" }, "geometry": { "type": "Point", "coordinates": [ 27.452046963438661, -11.052891285287636 ] } },
{ "type": "Feature", "properties": { "rank": 14, "row": 6409, "col": 4670, "prob": 0.99929404258728027, "lon": 27.275893640538129, "lat": -11.241395551764908, "group": "copper_zinc" }, "geometry": { "type": "Point", "coordinates": [ 27.275893640538129, -11.241395551764908 ] } },
{ "type": "Feature", "properties": { "rank": 15, "row": 6189, "col": 4956, "prob": 0.99928122758865356, "lon": 27.354424251909176, "lat": -11.181623881265311, "group": "copper_zinc" }, "geometry": { "type": "Point", "coordinates": [ 27.354424251909176, -11.181623881265311 ] } },
{ "type": "Feature", "properties": { "rank": 16, "row": 6420, "col": 4627, "prob": 0.99927824735641479, "lon": 27.264078322882771, "lat": -11.244390710656292, "group": "copper_zinc" }, "geometry": { "type": "Point", "coordinates": [ 27.264078322882771, -11.244390710656292 ] } },
{ "type": "Feature", "properties": { "rank": 17, "row": 5678, "col": 5311, "prob": 0.99927800893783569, "lon": 27.451756953175583, "lat": -11.0428531942402, "group": "copper_zinc" }, "geometry": { "type": "Point", "coordinates": [ 27.451756953175583, -11.0428531942402 ] } },
{ "type": "Feature", "properties": { "rank": 18, "row": 5925, "col": 5075, "prob": 0.99927693605422974, "lon": 27.387028205977909, "lat": -11.109957170413168, "group": "copper_zinc" }, "geometry": { "type": "Point", "coordinates": [ 27.387028205977909, -11.109957170413168 ] } },
{ "type": "Feature", "properties": { "rank": 19, "row": 6383, "col": 4908, "prob": 0.9992716908454895, "lon": 27.34129655539774, "lat": -11.234273664266585, "group": "copper_zinc" }, "geometry": { "type": "Point", "coordinates": [ 27.34129655539774, -11.234273664266585 ] } },
{ "type": "Feature", "properties": { "rank": 20, "row": 6157, "col": 4893, "prob": 0.99926966428756714, "lon": 27.337103109298642, "lat": -11.172961891576964, "group": "copper_zinc" }, "geometry": { "type": "Point", "coordinates": [ 27.337103109298642, -11.172961891576964 ] } },
{ "type": "Feature", "properties": { "rank": 21, "row": 4756, "col": 821, "prob": 0.99926799535751343, "lon": 26.219239290910767, "lat": -10.792046745545134, "group": "copper_zinc" }, "geometry": { "type": "Point", "coordinates": [ 26.219239290910767, -10.792046745545134 ] } },
{ "type": "Feature", "properties": { "rank": 22, "row": 6295, "col": 4861, "prob": 0.99926739931106567, "lon": 27.328352589222163, "lat": -11.210412752702263, "group": "copper_zinc" }, "geometry": { "type": "Point", "coordinates": [ 27.328352589222163, -11.210412752702263 ] } },
{ "type": "Feature", "properties": { "rank": 23, "row": 4590, "col": 1398, "prob": 0.99926584959030151, "lon": 26.377662766469328, "lat": -10.747368545030401, "group": "copper_zinc" }, "geometry": { "type": "Point", "coordinates": [ 26.377662766469328, -10.747368545030401 ] } },
{ "type": "Feature", "properties": { "rank": 24, "row": 5922, "col": 5093, "prob": 0.9992644190788269, "lon": 27.391971916720923, "lat": -11.109136837575543, "group": "copper_zinc" }, "geometry": { "type": "Point", "coordinates": [ 27.391971916720923, -11.109136837575543 ] } },
{ "type": "Feature", "properties": { "rank": 25, "row": 6162, "col": 4849, "prob": 0.99925893545150757, "lon": 27.32501465811761, "lat": -11.174331820891705, "group": "copper_zinc" }, "geometry": { "type": "Point", "coordinates": [ 27.32501465811761, -11.174331820891705 ] } }
]
}
