{
"type": "FeatureCollection",
"name": "top25_tin_tungsten_tantalum_candidates",
"crs": { "type": "name", "properties": { "name": "urn:ogc:def:crs:OGC:1.3:CRS84" } },
"features": [
{ "type": "Feature", "properties": { "rank": 1, "row": 2902, "col": 710, "prob": 0.99999988079071045, "lon": 29.58785395906694, "lat": -1.9875288669767694, "group": "tin_tungsten_tantalum" }, "geometry": { "type": "Point", "coordinates": [ 29.58785395906694, -1.987528866976769 ] } },
{ "type": "Feature", "properties": { "rank": 2, "row": 2854, "col": 3127, "prob": 0.99999982118606567, "lon": 30.238938668535312, "lat": -1.9757415976497816, "group": "tin_tungsten_tantalum" }, "geometry": { "type": "Point", "coordinates": [ 30.238938668535312, -1.975741597649782 ] } },
{ "type": "Feature", "properties": { "rank": 3, "row": 2920, "col": 3369, "prob": 0.99999982118606567, "lon": 30.304117495655497, "lat": -1.9937429040911769, "group": "tin_tungsten_tantalum" }, "geometry": { "type": "Point", "coordinates": [ 30.304117495655497, -1.993742904091177 ] } },
{ "type": "Feature", "properties": { "rank": 4, "row": 2955, "col": 976, "prob": 0.99999970197677612, "lon": 29.659456691145706, "lat": -2.0020367870801765, "group": "tin_tungsten_tantalum" }, "geometry": { "type": "Point", "coordinates": [ 29.659456691145706, -2.002036787080177 ] } },
{ "type": "Feature", "properties": { "rank": 5, "row": 2810, "col": 3280, "prob": 0.99999958276748657, "lon": 30.280184053368583, "lat": -1.9638812816593105, "group": "tin_tungsten_tantalum" }, "geometry": { "type": "Point", "coordinates": [ 30.280184053368583, -1.963881281659311 ] } },
{ "type": "Feature", "properties": { "rank": 6, "row": 1773, "col": 1665, "prob": 0.99999958276748657, "lon": 29.845588937116759, "lat": -1.6820819752026204, "group": "tin_tungsten_tantalum" }, "geometry": { "type": "Point", "coordinates": [ 29.845588937116759, -1.68208197520262 ] } },
{ "type": "Feature", "properties": { "rank": 7, "row": 88, "col": 3051, "prob": 0.99999946355819702, "lon": 30.219472077463383, "lat": -1.2258572226205815, "group": "tin_tungsten_tantalum" }, "geometry": { "type": "Point", "coordinates": [ 30.219472077463383, -1.225857222620581 ] } },
{ "type": "Feature", "properties": { "rank": 8, "row": 2583, "col": 2487, "prob": 0.99999946355819702, "lon": 30.066632381570507, "lat": -1.901987345611138, "group": "tin_tungsten_tantalum" }, "geometry": { "type": "Point", "coordinates": [ 30.066632381570507, -1.901987345611138 ] } },
{ "type": "Feature", "properties": { "rank": 9, "row": 2885, "col": 933, "prob": 0.99999946355819702, "lon": 29.647915056201253, "lat": -1.983046584679518, "group": "tin_tungsten_tantalum" }, "geometry": { "type": "Point", "coordinates": [ 29.647915056201253, -1.983046584679518 ] } },
{ "type": "Feature", "properties": { "rank": 10, "row": 2506, "col": 3274, "prob": 0.99999946355819702, "lon": 30.27869796190669, "lat": -1.8814617428673814, "group": "tin_tungsten_tantalum" }, "geometry": { "type": "Point", "coordinates": [ 30.27869796190669, -1.881461742867381 ] } },
{ "type": "Feature", "properties": { "rank": 11, "row": 2513, "col": 2196, "prob": 0.99999946355819702, "lon": 29.988274218602939, "lat": -1.8828786767369252, "group": "tin_tungsten_tantalum" }, "geometry": { "type": "Point", "coordinates": [ 29.988274218602939, -1.882878676736925 ] } },
{ "type": "Feature", "properties": { "rank": 12, "row": 2804, "col": 3292, "prob": 0.99999940395355225, "lon": 30.28342013228594, "lat": -1.9622599200711834, "group": "tin_tungsten_tantalum" }, "geometry": { "type": "Point", "coordinates": [ 30.28342013228594, -1.962259920071183 ] } },
{ "type": "Feature", "properties": { "rank": 13, "row": 1819, "col": 1908, "prob": 0.99999940395355225, "lon": 29.911012769200596, "lat": -1.6946543296468892, "group": "tin_tungsten_tantalum" }, "geometry": { "type": "Point", "coordinates": [ 29.911012769200596, -1.694654329646889 ] } },
{ "type": "Feature", "properties": { "rank": 14, "row": 2787, "col": 2423, "prob": 0.99999934434890747, "lon": 30.049295902768431, "lat": -1.9572527846997565, "group": "tin_tungsten_tantalum" }, "geometry": { "type": "Point", "coordinates": [ 30.049295902768431, -1.957252784699756 ] } },
{ "type": "Feature", "properties": { "rank": 15, "row": 1484, "col": 1660, "prob": 0.99999934434890747, "lon": 29.844365429937447, "lat": -1.6037599648280998, "group": "tin_tungsten_tantalum" }, "geometry": { "type": "Point", "coordinates": [ 29.844365429937447, -1.6037599648281 ] } },
{ "type": "Feature", "properties": { "rank": 16, "row": 1771, "col": 1594, "prob": 0.9999992847442627, "lon": 29.826469232262941, "lat": -1.6815087581135604, "group": "tin_tungsten_tantalum" }, "geometry": { "type": "Point", "coordinates": [ 29.826469232262941, -1.68150875811356 ] } },
{ "type": "Feature", "properties": { "rank": 17, "row": 2811, "col": 3301, "prob": 0.9999992847442627, "lon": 30.285842160698614, "lat": -1.9641616504534731, "group": "tin_tungsten_tantalum" }, "geometry": { "type": "Point", "coordinates": [ 30.285842160698614, -1.964161650453473 ] } },
{ "type": "Feature", "properties": { "rank": 18, "row": 2761, "col": 3250, "prob": 0.9999992847442627, "lon": 30.27212194957038, "lat": -1.9505837975573717, "group": "tin_tungsten_tantalum" }, "geometry": { "type": "Point", "coordinates": [ 30.27212194957038, -1.950583797557372 ] } },
{ "type": "Feature", "properties": { "rank": 19, "row": 2513, "col": 2200, "prob": 0.99999922513961792, "lon": 29.989351707192181, "lat": -1.8828805505970589, "group": "tin_tungsten_tantalum" }, "geometry": { "type": "Point", "coordinates": [ 29.989351707192181, -1.882880550597059 ] } },
{ "type": "Feature", "properties": { "rank": 20, "row": 339, "col": 2792, "prob": 0.99999922513961792, "lon": 30.149640045291445, "lat": -1.2938244458685393, "group": "tin_tungsten_tantalum" }, "geometry": { "type": "Point", "coordinates": [ 30.149640045291445, -1.293824445868539 ] } },
{ "type": "Feature", "properties": { "rank": 21, "row": 1580, "col": 1724, "prob": 0.99999922513961792, "lon": 29.861560499514201, "lat": -1.6298033672203527, "group": "tin_tungsten_tantalum" }, "geometry": { "type": "Point", "coordinates": [ 29.861560499514201, -1.629803367220353 ] } },
{ "type": "Feature", "properties": { "rank": 22, "row": 2645, "col": 2474, "prob": 0.99999922513961792, "lon": 30.063101696134876, "lat": -1.9187869140595033, "group": "tin_tungsten_tantalum" }, "geometry": { "type": "Point", "coordinates": [ 30.063101696134876, -1.918786914059503 ] } },
{ "type": "Feature", "properties": { "rank": 23, "row": 2914, "col": 917, "prob": 0.99999922513961792, "lon": 29.64359041298826, "lat": -1.9908952678394312, "group": "tin_tungsten_tantalum" }, "geometry": { "type": "Point", "coordinates": [ 29.64359041298826, -1.990895267839431 ] } },
{ "type": "Feature", "properties": { "rank": 24, "row": 2896, "col": 717, "prob": 0.99999922513961792, "lon": 29.589742274134306, "lat": -1.9859071940963842, "group": "tin_tungsten_tantalum" }, "geometry": { "type": "Point", "coordinates": [ 29.589742274134306, -1.985907194096384 ] } },
{ "type": "Feature", "properties": { "rank": 25, "row": 2471, "col": 2360, "prob": 0.99999916553497314, "lon": 30.03247134118503, "lat": -1.8715708540398897, "group": "tin_tungsten_tantalum" }, "geometry": { "type": "Point", "coordinates": [ 30.03247134118503, -1.87157085403989 ] } }
]
}
