{
"type": "FeatureCollection",
"name": "top25_bauxite_candidates",
"crs": { "type": "name", "properties": { "name": "urn:ogc:def:crs:OGC:1.3:CRS84" } },
"features": [
{ "type": "Feature", "properties": { "rank": 1, "row": 2081, "col": 997, "prob": 0.99999868869781494, "lon": 38.267103651504534, "lat": -4.7669355768412327, "group": "bauxite" }, "geometry": { "type": "Point", "coordinates": [ 38.267103651504534, -4.766935576841233 ] } },
{ "type": "Feature", "properties": { "rank": 2, "row": 2229, "col": 990, "prob": 0.99999630451202393, "lon": 38.265167232059184, "lat": -4.8070974932288744, "group": "bauxite" }, "geometry": { "type": "Point", "coordinates": [ 38.265167232059184, -4.807097493228874 ] } },
{ "type": "Feature", "properties": { "rank": 3, "row": 2294, "col": 1040, "prob": 0.9999961256980896, "lon": 38.278674933357514, "lat": -4.8247515491184734, "group": "bauxite" }, "geometry": { "type": "Point", "coordinates": [ 38.278674933357514, -4.824751549118473 ] } },
{ "type": "Feature", "properties": { "rank": 4, "row": 2298, "col": 1068, "prob": 0.99999594688415527, "lon": 38.286248733581687, "lat": -4.8258450690368724, "group": "bauxite" }, "geometry": { "type": "Point", "coordinates": [ 38.286248733581687, -4.825845069036872 ] } },
{ "type": "Feature", "properties": { "rank": 5, "row": 2177, "col": 1126, "prob": 0.99999570846557617, "lon": 38.301973171928836, "lat": -4.7930244069209946, "group": "bauxite" }, "geometry": { "type": "Point", "coordinates": [ 38.301973171928836, -4.793024406920995 ] } },
{ "type": "Feature", "properties": { "rank": 6, "row": 2318, "col": 938, "prob": 0.99999558925628662, "lon": 38.251073495857504, "lat": -4.8312347188983811, "group": "bauxite" }, "geometry": { "type": "Point", "coordinates": [ 38.251073495857504, -4.831234718898381 ] } },
{ "type": "Feature", "properties": { "rank": 7, "row": 2249, "col": 1098, "prob": 0.99999535083770752, "lon": 38.294378477576984, "lat": -4.8125559597852776, "group": "bauxite" }, "geometry": { "type": "Point", "coordinates": [ 38.294378477576984, -4.812555959785278 ] } },
{ "type": "Feature", "properties": { "rank": 8, "row": 2283, "col": 1050, "prob": 0.99999535083770752, "lon": 38.281383404010711, "lat": -4.8217692522666793, "group": "bauxite" }, "geometry": { "type": "Point", "coordinates": [ 38.281383404010711, -4.821769252266679 ] } },
{ "type": "Feature", "properties": { "rank": 9, "row": 2253, "col": 949, "prob": 0.99999529123306274, "lon": 38.254068618273436, "lat": -4.8135984941036671, "group": "bauxite" }, "geometry": { "type": "Point", "coordinates": [ 38.254068618273436, -4.813598494103667 ] } },
{ "type": "Feature", "properties": { "rank": 10, "row": 2059, "col": 1043, "prob": 0.99999523162841797, "lon": 38.279553329841278, "lat": -4.7609783965544041, "group": "bauxite" }, "geometry": { "type": "Point", "coordinates": [ 38.279553329841278, -4.760978396554404 ] } },
{ "type": "Feature", "properties": { "rank": 11, "row": 2248, "col": 1065, "prob": 0.99999517202377319, "lon": 38.285451304252589, "lat": -4.8122752688000192, "group": "bauxite" }, "geometry": { "type": "Point", "coordinates": [ 38.285451304252589, -4.812275268800019 ] } },
{ "type": "Feature", "properties": { "rank": 12, "row": 1996, "col": 1129, "prob": 0.99999505281448364, "lon": 38.302834268277444, "lat": -4.7439053917950895, "group": "bauxite" }, "geometry": { "type": "Point", "coordinates": [ 38.302834268277444, -4.74390539179509 ] } },
{ "type": "Feature", "properties": { "rank": 13, "row": 2155, "col": 1198, "prob": 0.99999505281448364, "lon": 38.32145668169732, "lat": -4.7870736332679247, "group": "bauxite" }, "geometry": { "type": "Point", "coordinates": [ 38.32145668169732, -4.787073633267925 ] } },
{ "type": "Feature", "properties": { "rank": 14, "row": 2010, "col": 1090, "prob": 0.99999493360519409, "lon": 38.292280799840867, "lat": -4.7476939788843522, "group": "bauxite" }, "geometry": { "type": "Point", "coordinates": [ 38.292280799840867, -4.747693978884352 ] } },
{ "type": "Feature", "properties": { "rank": 15, "row": 2144, "col": 1184, "prob": 0.99999493360519409, "lon": 38.317672349088255, "lat": -4.7840846758987947, "group": "bauxite" }, "geometry": { "type": "Point", "coordinates": [ 38.317672349088255, -4.784084675898795 ] } },
{ "type": "Feature", "properties": { "rank": 16, "row": 2300, "col": 947, "prob": 0.99999481439590454, "lon": 38.253513643729136, "lat": -4.8263526190512591, "group": "bauxite" }, "geometry": { "type": "Point", "coordinates": [ 38.253513643729136, -4.826352619051259 ] } },
{ "type": "Feature", "properties": { "rank": 17, "row": 2298, "col": 1049, "prob": 0.99999469518661499, "lon": 38.281108590084855, "lat": -4.8258396455986956, "group": "bauxite" }, "geometry": { "type": "Point", "coordinates": [ 38.281108590084855, -4.825839645598696 ] } },
{ "type": "Feature", "properties": { "rank": 18, "row": 2241, "col": 1059, "prob": 0.99999457597732544, "lon": 38.283830118340973, "lat": -4.8103739109630927, "group": "bauxite" }, "geometry": { "type": "Point", "coordinates": [ 38.283830118340973, -4.810373910963093 ] } },
{ "type": "Feature", "properties": { "rank": 19, "row": 2124, "col": 1007, "prob": 0.99999451637268066, "lon": 38.269796414129168, "lat": -4.7786077257651813, "group": "bauxite" }, "geometry": { "type": "Point", "coordinates": [ 38.269796414129168, -4.778607725765181 ] } },
{ "type": "Feature", "properties": { "rank": 20, "row": 2273, "col": 946, "prob": 0.99999445676803589, "lon": 38.253251115615058, "lat": -4.8190251440365133, "group": "bauxite" }, "geometry": { "type": "Point", "coordinates": [ 38.253251115615058, -4.819025144036513 ] } },
{ "type": "Feature", "properties": { "rank": 21, "row": 2302, "col": 942, "prob": 0.99999433755874634, "lon": 38.252160388493159, "lat": -4.826893883916509, "group": "bauxite" }, "geometry": { "type": "Point", "coordinates": [ 38.252160388493159, -4.826893883916509 ] } },
{ "type": "Feature", "properties": { "rank": 22, "row": 1931, "col": 1085, "prob": 0.99999433755874634, "lon": 38.290950122007771, "lat": -4.7262535778854335, "group": "bauxite" }, "geometry": { "type": "Point", "coordinates": [ 38.290950122007771, -4.726253577885434 ] } },
{ "type": "Feature", "properties": { "rank": 23, "row": 2308, "col": 933, "prob": 0.99999433755874634, "lon": 38.24972380889357, "lat": -4.8285194570429608, "group": "bauxite" }, "geometry": { "type": "Point", "coordinates": [ 38.24972380889357, -4.828519457042961 ] } },
{ "type": "Feature", "properties": { "rank": 24, "row": 2288, "col": 1047, "prob": 0.99999433755874634, "lon": 38.280570379786305, "lat": -4.8231252864896836, "group": "bauxite" }, "geometry": { "type": "Point", "coordinates": [ 38.280570379786305, -4.823125286489684 ] } },
{ "type": "Feature", "properties": { "rank": 25, "row": 2244, "col": 1086, "prob": 0.99999415874481201, "lon": 38.291133531658616, "lat": -4.8111956905259818, "group": "bauxite" }, "geometry": { "type": "Point", "coordinates": [ 38.291133531658616, -4.811195690525982 ] } }
]
}
